{"type":"FeatureCollection","kaynak":"Kurgusal. Hücreler OpenStreetMap ve İBB nokta yoğunluğundan k-ortalama ve Voronoi ile türetildi. Gerçek operatör verisi kullanılmadı.","uretim_tarihi":"2026-09-19","tohum":20260921,"features":[{"type":"Feature","geometry":{"type":"Point","coordinates":[29.12839,40.872323]},"properties":{"hucre_kodu":"BZ-001","ilce":"Adalar"}},{"type":"Feature","geometry":{"type":"Point","coordinates":[28.61062,41.186732]},"properties":{"hucre_kodu":"BZ-002","ilce":"Arnavutköy"}},{"type":"Feature","geometry":{"type":"Point","coordinates":[28.616572,41.159783]},"properties":{"hucre_kodu":"BZ-003","ilce":"Arnavutköy"}},{"type":"Feature","geometry":{"type":"Point","coordinates":[28.622523,41.12385]},"properties":{"hucre_kodu":"BZ-004","ilce":"Arnavutköy"}},{"type":"Feature","geometry":{"type":"Point","coordinates":[28.717745,41.281055]},"properties":{"hucre_kodu":"BZ-005","ilce":"Arnavutköy"}},{"type":"Feature","geometry":{"type":"Point","coordinates":[28.753453,41.245122]},"properties":{"hucre_kodu":"BZ-006","ilce":"Arnavutköy"}},{"type":"Feature","geometry":{"type":"Point","coordinates":[29.116487,40.971138]},"properties":{"hucre_kodu":"BZ-007","ilce":"Ataşehir"}},{"type":"Feature","geometry":{"type":"Point","coordinates":[29.122438,40.993595]},"properties":{"hucre_kodu":"BZ-008","ilce":"Ataşehir"}},{"type":"Feature","geometry":{"type":"Point","coordinates":[29.158146,40.989104]},"properties":{"hucre_kodu":"BZ-009","ilce":"Ataşehir"}},{"type":"Feature","geometry":{"type":"Point","coordinates":[28.711794,41.060969]},"properties":{"hucre_kodu":"BZ-010","ilce":"Avcılar"}},{"type":"Feature","geometry":{"type":"Point","coordinates":[28.854627,41.029528]},"properties":{"hucre_kodu":"BZ-011","ilce":"Bağcılar"}},{"type":"Feature","geometry":{"type":"Point","coordinates":[28.836772,40.993595]},"properties":{"hucre_kodu":"BZ-012","ilce":"Bahçelievler"}},{"type":"Feature","geometry":{"type":"Point","coordinates":[28.795113,40.980121]},"properties":{"hucre_kodu":"BZ-013","ilce":"Bakırköy"}},{"type":"Feature","geometry":{"type":"Point","coordinates":[28.771307,41.06546]},"properties":{"hucre_kodu":"BZ-014","ilce":"Başakşehir"}},{"type":"Feature","geometry":{"type":"Point","coordinates":[28.771307,41.119359]},"properties":{"hucre_kodu":"BZ-015","ilce":"Başakşehir"}},{"type":"Feature","geometry":{"type":"Point","coordinates":[28.807016,41.12385]},"properties":{"hucre_kodu":"BZ-016","ilce":"Başakşehir"}},{"type":"Feature","geometry":{"type":"Point","coordinates":[29.080779,41.087918]},"properties":{"hucre_kodu":"BZ-017","ilce":"Beykoz"}},{"type":"Feature","geometry":{"type":"Point","coordinates":[29.110535,41.12385]},"properties":{"hucre_kodu":"BZ-018","ilce":"Beykoz"}},{"type":"Feature","geometry":{"type":"Point","coordinates":[28.634426,40.980121]},"properties":{"hucre_kodu":"BZ-019","ilce":"Beylikdüzü"}},{"type":"Feature","geometry":{"type":"Point","coordinates":[28.979605,41.025036]},"properties":{"hucre_kodu":"BZ-020","ilce":"Beyoğlu"}},{"type":"Feature","geometry":{"type":"Point","coordinates":[28.533253,40.993595]},"properties":{"hucre_kodu":"BZ-021","ilce":"Büyükçekmece"}},{"type":"Feature","geometry":{"type":"Point","coordinates":[28.443982,41.321479]},"properties":{"hucre_kodu":"BZ-022","ilce":"Çatalca"}},{"type":"Feature","geometry":{"type":"Point","coordinates":[28.47969,41.272072]},"properties":{"hucre_kodu":"BZ-023","ilce":"Çatalca"}},{"type":"Feature","geometry":{"type":"Point","coordinates":[28.491593,41.245122]},"properties":{"hucre_kodu":"BZ-024","ilce":"Çatalca"}},{"type":"Feature","geometry":{"type":"Point","coordinates":[29.199806,41.016053]},"properties":{"hucre_kodu":"BZ-025","ilce":"Çekmeköy"}},{"type":"Feature","geometry":{"type":"Point","coordinates":[29.235514,41.051986]},"properties":{"hucre_kodu":"BZ-026","ilce":"Çekmeköy"}},{"type":"Feature","geometry":{"type":"Point","coordinates":[28.884383,41.034019]},"properties":{"hucre_kodu":"BZ-027","ilce":"Esenler"}},{"type":"Feature","geometry":{"type":"Point","coordinates":[28.676085,41.056477]},"properties":{"hucre_kodu":"BZ-028","ilce":"Esenyurt"}},{"type":"Feature","geometry":{"type":"Point","coordinates":[28.860578,41.200207]},"properties":{"hucre_kodu":"BZ-029","ilce":"Eyüpsultan"}},{"type":"Feature","geometry":{"type":"Point","coordinates":[28.943897,41.020545]},"properties":{"hucre_kodu":"BZ-030","ilce":"Fatih"}},{"type":"Feature","geometry":{"type":"Point","coordinates":[28.961751,41.002578]},"properties":{"hucre_kodu":"BZ-031","ilce":"Fatih"}},{"type":"Feature","geometry":{"type":"Point","coordinates":[28.920092,41.060969]},"properties":{"hucre_kodu":"BZ-032","ilce":"Gaziosmanpaşa"}},{"type":"Feature","geometry":{"type":"Point","coordinates":[28.872481,41.011562]},"properties":{"hucre_kodu":"BZ-033","ilce":"Güngören"}},{"type":"Feature","geometry":{"type":"Point","coordinates":[29.027216,40.984612]},"properties":{"hucre_kodu":"BZ-034","ilce":"Kadıköy"}},{"type":"Feature","geometry":{"type":"Point","coordinates":[29.080779,40.957663]},"properties":{"hucre_kodu":"BZ-035","ilce":"Kadıköy"}},{"type":"Feature","geometry":{"type":"Point","coordinates":[29.164098,40.908256]},"properties":{"hucre_kodu":"BZ-036","ilce":"Kartal"}},{"type":"Feature","geometry":{"type":"Point","coordinates":[29.21766,40.912747]},"properties":{"hucre_kodu":"BZ-037","ilce":"Kartal"}},{"type":"Feature","geometry":{"type":"Point","coordinates":[28.789161,41.020545]},"properties":{"hucre_kodu":"BZ-038","ilce":"Küçükçekmece"}},{"type":"Feature","geometry":{"type":"Point","coordinates":[28.801064,41.056477]},"properties":{"hucre_kodu":"BZ-039","ilce":"Küçükçekmece"}},{"type":"Feature","geometry":{"type":"Point","coordinates":[29.116487,40.94868]},"properties":{"hucre_kodu":"BZ-040","ilce":"Maltepe"}},{"type":"Feature","geometry":{"type":"Point","coordinates":[29.265271,40.876815]},"properties":{"hucre_kodu":"BZ-041","ilce":"Pendik"}},{"type":"Feature","geometry":{"type":"Point","coordinates":[29.289077,40.92173]},"properties":{"hucre_kodu":"BZ-042","ilce":"Pendik"}},{"type":"Feature","geometry":{"type":"Point","coordinates":[29.306931,40.939697]},"properties":{"hucre_kodu":"BZ-043","ilce":"Pendik"}},{"type":"Feature","geometry":{"type":"Point","coordinates":[29.372396,41.011562]},"properties":{"hucre_kodu":"BZ-044","ilce":"Pendik"}},{"type":"Feature","geometry":{"type":"Point","coordinates":[29.193855,40.993595]},"properties":{"hucre_kodu":"BZ-045","ilce":"Sancaktepe"}},{"type":"Feature","geometry":{"type":"Point","coordinates":[29.027216,41.105884]},"properties":{"hucre_kodu":"BZ-046","ilce":"Sarıyer"}},{"type":"Feature","geometry":{"type":"Point","coordinates":[29.854457,41.137325]},"properties":{"hucre_kodu":"BZ-047","ilce":"Şile"}},{"type":"Feature","geometry":{"type":"Point","coordinates":[28.057143,41.051986]},"properties":{"hucre_kodu":"BZ-048","ilce":"Silivri"}},{"type":"Feature","geometry":{"type":"Point","coordinates":[28.074997,41.249614]},"properties":{"hucre_kodu":"BZ-049","ilce":"Silivri"}},{"type":"Feature","geometry":{"type":"Point","coordinates":[28.235684,41.1508]},"properties":{"hucre_kodu":"BZ-050","ilce":"Silivri"}},{"type":"Feature","geometry":{"type":"Point","coordinates":[28.366614,41.056477]},"properties":{"hucre_kodu":"BZ-051","ilce":"Silivri"}},{"type":"Feature","geometry":{"type":"Point","coordinates":[28.973654,41.051986]},"properties":{"hucre_kodu":"BZ-052","ilce":"Şişli"}},{"type":"Feature","geometry":{"type":"Point","coordinates":[29.25932,40.975629]},"properties":{"hucre_kodu":"BZ-053","ilce":"Sultanbeyli"}},{"type":"Feature","geometry":{"type":"Point","coordinates":[29.25932,40.998087]},"properties":{"hucre_kodu":"BZ-054","ilce":"Sultanbeyli"}},{"type":"Feature","geometry":{"type":"Point","coordinates":[29.318833,40.867832]},"properties":{"hucre_kodu":"BZ-055","ilce":"Tuzla"}},{"type":"Feature","geometry":{"type":"Point","coordinates":[29.378347,40.944188]},"properties":{"hucre_kodu":"BZ-056","ilce":"Tuzla"}},{"type":"Feature","geometry":{"type":"Point","coordinates":[29.116487,41.016053]},"properties":{"hucre_kodu":"BZ-057","ilce":"Ümraniye"}},{"type":"Feature","geometry":{"type":"Point","coordinates":[29.015314,41.00707]},"properties":{"hucre_kodu":"BZ-058","ilce":"Üsküdar"}},{"type":"Feature","geometry":{"type":"Point","coordinates":[29.04507,41.038511]},"properties":{"hucre_kodu":"BZ-059","ilce":"Üsküdar"}},{"type":"Feature","geometry":{"type":"Point","coordinates":[29.04507,41.011562]},"properties":{"hucre_kodu":"BZ-060","ilce":"Üsküdar"}}]}