{"type":"FeatureCollection","kaynak":"OpenStreetMap katkıcıları (ODbL) ve İBB Açık Veri Portalı (İBB Açık Veri Lisansı)","uretim_tarihi":"2026-09-18","tohum":20260919,"features":[{"type":"Feature","geometry":{"type":"Point","coordinates":[28.881681,41.0058]},"properties":{"id":"R0001","kategori":"istasyon","ad":"Mehmet Akif","kaynak":"ibb_rayli","hat":"T1 Kabataş - Bağcılar Tramvay Hattı","hat_turu":"Tramvay","ilce":"Bahçelievler","mahalle":"Bahçelievler Mahallesi"}},{"type":"Feature","geometry":{"type":"Point","coordinates":[29.192398,40.913288]},"properties":{"id":"R0002","kategori":"istasyon","ad":"Soğanlık","kaynak":"ibb_rayli","hat":"M4 Kadıköy - SGH Metro Hattı","hat_turu":"Metro","ilce":"Kartal","mahalle":"Soğanlık Yeni Mahallesi"}},{"type":"Feature","geometry":{"type":"Point","coordinates":[28.94809,41.012008]},"properties":{"id":"R0003","kategori":"istasyon","ad":"Aksaray","kaynak":"ibb_rayli","hat":"M1A Yenikapı - Atatürk Havalimanı Metro Hattı","hat_turu":"Metro","ilce":"Fatih","mahalle":"İskenderpaşa Mahallesi"}},{"type":"Feature","geometry":{"type":"Point","coordinates":[28.767234,41.079466]},"properties":{"id":"R0004","kategori":"istasyon","ad":"Olimpiyat","kaynak":"ibb_rayli","hat":"M9 Bahariye - Olimpiyat Metro Hattı","hat_turu":"Metro","ilce":"Başakşehir","mahalle":"Ziya Gökalp Mahallesi"}},{"type":"Feature","geometry":{"type":"Point","coordinates":[28.90694,41.05728]},"properties":{"id":"R0005","kategori":"istasyon","ad":"Sağmalcılar-Pancar Motor","kaynak":"ibb_rayli","hat":"T4 Topkapı - Mescid-i Selam Tramvay Hattı","hat_turu":"Tramvay","ilce":"Gaziosmanpaşa","mahalle":"Merkez Mahallesi"}},{"type":"Feature","geometry":{"type":"Point","coordinates":[28.88224,41.075297]},"properties":{"id":"R0006","kategori":"istasyon","ad":"Karadeniz","kaynak":"ibb_rayli","hat":"T4 Topkapı - Mescid-i Selam Tramvay Hattı","hat_turu":"Tramvay","ilce":"Bayrampaşa","mahalle":"Cevatpaşa Mahallesi"}},{"type":"Feature","geometry":{"type":"Point","coordinates":[28.872332,40.980242]},"properties":{"id":"R0007","kategori":"istasyon","ad":"Bakırköy","kaynak":"ibb_rayli","hat":"Halkalı - Gebze Marmaray Yüzeysel Raylı Sistem Hattı","hat_turu":"Banliyö","ilce":"Bakırköy","mahalle":"Zeytinlik Mahallesi"}},{"type":"Feature","geometry":{"type":"Point","coordinates":[29.076473,40.971409]},"properties":{"id":"R0008","kategori":"istasyon","ad":"Erenköy","kaynak":"ibb_rayli","hat":"Halkalı - Gebze Marmaray Yüzeysel Raylı Sistem Hattı","hat_turu":"Banliyö","ilce":"Kadıköy","mahalle":"Erenköy Mahallesi"}},{"type":"Feature","geometry":{"type":"Point","coordinates":[29.238528,40.888724]},"properties":{"id":"R0009","kategori":"istasyon","ad":"Pendik","kaynak":"ibb_rayli","hat":"M4 Kadıköy - SGH Metro Hattı","hat_turu":"Metro","ilce":"Pendik","mahalle":"Çınardere Mahallesi"}},{"type":"Feature","geometry":{"type":"Point","coordinates":[29.227198,40.896729]},"properties":{"id":"R0010","kategori":"istasyon","ad":"Yakacık - Adnan Kahveci","kaynak":"ibb_rayli","hat":"M4 Kadıköy - SGH Metro Hattı","hat_turu":"Metro","ilce":"Kartal","mahalle":"Cumhuriyet Mahallesi"}},{"type":"Feature","geometry":{"type":"Point","coordinates":[29.283496,40.856855]},"properties":{"id":"R0011","kategori":"istasyon","ad":"Güzelyalı","kaynak":"ibb_rayli","hat":"Halkalı - Gebze Marmaray Yüzeysel Raylı Sistem Hattı","hat_turu":"Banliyö","ilce":"Pendik","mahalle":"Güzelyalı Mahallesi"}},{"type":"Feature","geometry":{"type":"Point","coordinates":[29.097319,41.025943]},"properties":{"id":"R0012","kategori":"istasyon","ad":"Çarşı","kaynak":"ibb_rayli","hat":"M5 Üsküdar - Çekmeköy Metro Hattı","hat_turu":"Metro","ilce":"Ümraniye","mahalle":"Yamanevler Mahallesi"}},{"type":"Feature","geometry":{"type":"Point","coordinates":[29.114256,40.937807]},"properties":{"id":"R0013","kategori":"istasyon","ad":"İdealtepe","kaynak":"ibb_rayli","hat":"Halkalı - Gebze Marmaray Yüzeysel Raylı Sistem Hattı","hat_turu":"Banliyö","ilce":"Maltepe","mahalle":"İdealtepe Mahallesi"}},{"type":"Feature","geometry":{"type":"Point","coordinates":[29.012816,41.025297]},"properties":{"id":"R0014","kategori":"istasyon","ad":"Üsküdar","kaynak":"ibb_rayli","hat":"M5 Üsküdar - Çekmeköy Metro Hattı","hat_turu":"Metro","ilce":"Üsküdar","mahalle":"Mimar Sinan Mahallesi"}},{"type":"Feature","geometry":{"type":"Point","coordinates":[28.848131,41.056837]},"properties":{"id":"R0015","kategori":"istasyon","ad":"Göztepe Mah.","kaynak":"ibb_rayli","hat":"M7 Yıldız - Mahmutbey Metro Hattı","hat_turu":"Metro","ilce":"Bağcılar","mahalle":"Fatih Mahallesi"}},{"type":"Feature","geometry":{"type":"Point","coordinates":[29.028938,40.989791]},"properties":{"id":"R0016","kategori":"istasyon","ad":"Altıyol","kaynak":"ibb_rayli","hat":"T3 Kadıköy - Moda Nostaljik Tramvay Hattı","hat_turu":"Tramvay","ilce":"Kadıköy","mahalle":"Osmanağa Mahallesi"}},{"type":"Feature","geometry":{"type":"Point","coordinates":[28.877513,41.015209]},"properties":{"id":"R0017","kategori":"istasyon","ad":"Güngören","kaynak":"ibb_rayli","hat":"T1 Kabataş - Bağcılar Tramvay Hattı","hat_turu":"Tramvay","ilce":"Güngören","mahalle":"Güven Mahallesi"}},{"type":"Feature","geometry":{"type":"Point","coordinates":[28.942848,41.069801]},"properties":{"id":"R0018","kategori":"istasyon","ad":"Üniversite","kaynak":"ibb_rayli","hat":"T5 Eminönü - Alibeyköy Cep Otogarı Tramvay Hattı","hat_turu":"Tramvay","ilce":"Eyüpsultan","mahalle":"Sakarya Mahallesi"}},{"type":"Feature","geometry":{"type":"Point","coordinates":[28.94606,41.073769]},"properties":{"id":"R0019","kategori":"istasyon","ad":"Alibeyköy Merkez","kaynak":"ibb_rayli","hat":"T5 Eminönü - Alibeyköy Cep Otogarı Tramvay Hattı","hat_turu":"Tramvay","ilce":"Eyüpsultan","mahalle":"Alibeyköy Mahallesi"}},{"type":"Feature","geometry":{"type":"Point","coordinates":[28.949447,41.078458]},"properties":{"id":"R0020","kategori":"istasyon","ad":"Alibeyköy Metro","kaynak":"ibb_rayli","hat":"T5 Eminönü - Alibeyköy Cep Otogarı Tramvay Hattı","hat_turu":"Tramvay","ilce":"Eyüpsultan","mahalle":"Alibeyköy Mahallesi"}},{"type":"Feature","geometry":{"type":"Point","coordinates":[28.943917,41.086888]},"properties":{"id":"R0021","kategori":"istasyon","ad":"Alibeyköy Cep Otogarı","kaynak":"ibb_rayli","hat":"Eminönü - Eyüp - Alibeyköy Tramvay Hattı","hat_turu":"Tramvay","ilce":"Eyüpsultan","mahalle":"Alibeyköy Mahallesi"}},{"type":"Feature","geometry":{"type":"Point","coordinates":[28.96031,41.024238]},"properties":{"id":"R0022","kategori":"istasyon","ad":"Cibali","kaynak":"ibb_rayli","hat":"T5 Eminönü - Alibeyköy Cep Otogarı Tramvay Hattı","hat_turu":"Tramvay","ilce":"Fatih","mahalle":"Cibali Mahallesi"}},{"type":"Feature","geometry":{"type":"Point","coordinates":[28.925338,41.021823]},"properties":{"id":"R0023","kategori":"istasyon","ad":"Fetihkapı","kaynak":"ibb_rayli","hat":"T4 Topkapı - Mescid-i Selam Tramvay Hattı","hat_turu":"Tramvay","ilce":"Zeytinburnu","mahalle":"Maltepe Mahallesi"}},{"type":"Feature","geometry":{"type":"Point","coordinates":[29.005166,41.094342]},"properties":{"id":"R0024","kategori":"istasyon","ad":"Sanayi Mah.","kaynak":"ibb_rayli","hat":"M2 Yenikapı Seyrantepe - Hacıosman Metro Hattı","hat_turu":"Metro","ilce":"Sarıyer","mahalle":"Huzur Mahallesi"}},{"type":"Feature","geometry":{"type":"Point","coordinates":[28.980867,41.026991]},"properties":{"id":"R0025","kategori":"istasyon","ad":"Tophane","kaynak":"ibb_rayli","hat":"T1 Kabataş - Bağcılar Tramvay Hattı","hat_turu":"Tramvay","ilce":"Beyoğlu","mahalle":"Kılıçali Paşa Mahallesi"}},{"type":"Feature","geometry":{"type":"Point","coordinates":[28.842432,41.032771]},"properties":{"id":"R0026","kategori":"istasyon","ad":"Kirazlı","kaynak":"ibb_rayli","hat":"M3 Kirazlı - Kayaşehir Merkez Metro Hattı","hat_turu":"Metro","ilce":"Bağcılar","mahalle":"Kirazlı Mahallesi"}},{"type":"Feature","geometry":{"type":"Point","coordinates":[28.978424,41.012163]},"properties":{"id":"R0027","kategori":"istasyon","ad":"Gülhane","kaynak":"ibb_rayli","hat":"T1 Kabataş - Bağcılar Tramvay Hattı","hat_turu":"Tramvay","ilce":"Fatih","mahalle":"Hocapaşa Mahallesi"}},{"type":"Feature","geometry":{"type":"Point","coordinates":[28.796514,41.088201]},"properties":{"id":"R0028","kategori":"istasyon","ad":"Siteler","kaynak":"ibb_rayli","hat":"M3 Kirazlı - Kayaşehir Merkez Metro Hattı","hat_turu":"Metro","ilce":"Başakşehir","mahalle":"İkitelli OSB Mahallesi"}},{"type":"Feature","geometry":{"type":"Point","coordinates":[29.028526,40.987869]},"properties":{"id":"R0029","kategori":"istasyon","ad":"Bahariye","kaynak":"ibb_rayli","hat":"T3 Kadıköy - Moda Nostaljik Tramvay Hattı","hat_turu":"Tramvay","ilce":"Kadıköy","mahalle":"Caferağa Mahallesi"}},{"type":"Feature","geometry":{"type":"Point","coordinates":[29.013692,41.076772]},"properties":{"id":"R0030","kategori":"istasyon","ad":"Levent","kaynak":"ibb_rayli","hat":"M2 Yenikapı Seyrantepe - Hacıosman Metro Hattı","hat_turu":"Metro","ilce":"Şişli","mahalle":"Esentepe Mahallesi"}},{"type":"Feature","geometry":{"type":"Point","coordinates":[28.919451,41.019228]},"properties":{"id":"R0031","kategori":"istasyon","ad":"Topkapı","kaynak":"ibb_rayli","hat":"T1 Kabataş - Bağcılar Tramvay Hattı","hat_turu":"Tramvay","ilce":"Zeytinburnu","mahalle":"Maltepe Mahallesi"}},{"type":"Feature","geometry":{"type":"Point","coordinates":[28.909505,41.01039]},"properties":{"id":"R0032","kategori":"istasyon","ad":"Merkezefendi","kaynak":"ibb_rayli","hat":"T1 Kabataş - Bağcılar Tramvay Hattı","hat_turu":"Tramvay","ilce":"Zeytinburnu","mahalle":"Merkezefendi Mahallesi"}},{"type":"Feature","geometry":{"type":"Point","coordinates":[28.863656,41.02382]},"properties":{"id":"R0033","kategori":"istasyon","ad":"Yavuz Selim Camii","kaynak":"ibb_rayli","hat":"T1 Kabataş - Bağcılar Tramvay Hattı","hat_turu":"Tramvay","ilce":"Güngören","mahalle":"Güneştepe Mahallesi"}},{"type":"Feature","geometry":{"type":"Point","coordinates":[28.837275,40.965469]},"properties":{"id":"R0034","kategori":"istasyon","ad":"Yeşilyurt","kaynak":"ibb_rayli","hat":"Halkalı - Gebze Marmaray Yüzeysel Raylı Sistem Hattı","hat_turu":"Banliyö","ilce":"Bakırköy","mahalle":"Yeşilyurt Mahallesi"}},{"type":"Feature","geometry":{"type":"Point","coordinates":[29.273364,40.860977]},"properties":{"id":"R0035","kategori":"istasyon","ad":"Tersane","kaynak":"ibb_rayli","hat":"Halkalı - Gebze Marmaray Yüzeysel Raylı Sistem Hattı","hat_turu":"Banliyö","ilce":"Pendik","mahalle":"Güzelyalı Mahallesi"}},{"type":"Feature","geometry":{"type":"Point","coordinates":[28.7664,41.017824]},"properties":{"id":"R0036","kategori":"istasyon","ad":"Halkalı","kaynak":"ibb_rayli","hat":"Halkalı - Gebze Marmaray Yüzeysel Raylı Sistem Hattı","hat_turu":"Banliyö","ilce":"Küçükçekmece","mahalle":"İstasyon Mahallesi"}},{"type":"Feature","geometry":{"type":"Point","coordinates":[28.831501,41.054903]},"properties":{"id":"R0037","kategori":"istasyon","ad":"Mahmutbey","kaynak":"ibb_rayli","hat":"M7 Yıldız - Mahmutbey Metro Hattı","hat_turu":"Metro","ilce":"Bağcılar","mahalle":"Göztepe Mahallesi"}},{"type":"Feature","geometry":{"type":"Point","coordinates":[29.059885,40.998174]},"properties":{"id":"R0038","kategori":"istasyon","ad":"Ünalan","kaynak":"ibb_rayli","hat":"M4 Kadıköy - SGH Metro Hattı","hat_turu":"Metro","ilce":"Üsküdar","mahalle":"Ünalan Mahallesi"}},{"type":"Feature","geometry":{"type":"Point","coordinates":[28.954462,41.028625]},"properties":{"id":"R0039","kategori":"istasyon","ad":"Fener","kaynak":"ibb_rayli","hat":"T5 Eminönü - Alibeyköy Cep Otogarı Tramvay Hattı","hat_turu":"Tramvay","ilce":"Fatih","mahalle":"Yavuz Sultan Selim Mahallesi"}},{"type":"Feature","geometry":{"type":"Point","coordinates":[28.862977,41.099827]},"properties":{"id":"R0040","kategori":"istasyon","ad":"Yenimahalle","kaynak":"ibb_rayli","hat":"T4 Topkapı - Mescid-i Selam Tramvay Hattı","hat_turu":"Tramvay","ilce":"Sultangazi","mahalle":"Uğur Mumcu Mahallesi"}},{"type":"Feature","geometry":{"type":"Point","coordinates":[28.894564,41.040142]},"properties":{"id":"R0041","kategori":"istasyon","ad":"Otogar","kaynak":"ibb_rayli","hat":"M1A Yenikapı - Atatürk Havalimanı Metro Hattı","hat_turu":"Metro","ilce":"Bayrampaşa","mahalle":"Altıntepsi Mahallesi"}},{"type":"Feature","geometry":{"type":"Point","coordinates":[28.843797,41.122458]},"properties":{"id":"R0042","kategori":"istasyon","ad":"Habibler","kaynak":"ibb_rayli","hat":"T4 Topkapı - Mescid-i Selam Tramvay Hattı","hat_turu":"Tramvay","ilce":"Sultangazi","mahalle":"Habibler Mahallesi"}},{"type":"Feature","geometry":{"type":"Point","coordinates":[28.791287,41.097669]},"properties":{"id":"R0043","kategori":"istasyon","ad":"Başak Konutları","kaynak":"ibb_rayli","hat":"M3 Kirazlı - Kayaşehir Merkez Metro Hattı","hat_turu":"Metro","ilce":"Başakşehir","mahalle":"İkitelli OSB Mahallesi"}},{"type":"Feature","geometry":{"type":"Point","coordinates":[29.007094,41.086006]},"properties":{"id":"R0044","kategori":"istasyon","ad":"4. Levent","kaynak":"ibb_rayli","hat":"M2 Yenikapı Seyrantepe - Hacıosman Metro Hattı","hat_turu":"Metro","ilce":"Şişli","mahalle":"Esentepe Mahallesi"}},{"type":"Feature","geometry":{"type":"Point","coordinates":[28.888451,41.037048]},"properties":{"id":"R0045","kategori":"istasyon","ad":"Esenler","kaynak":"ibb_rayli","hat":"M1A Yenikapı - Atatürk Havalimanı Metro Hattı","hat_turu":"Metro","ilce":"Esenler","mahalle":"Yavuz Selim Mahallesi"}},{"type":"Feature","geometry":{"type":"Point","coordinates":[29.021327,40.985181]},"properties":{"id":"R0046","kategori":"istasyon","ad":"Mühürdar","kaynak":"ibb_rayli","hat":"T3 Kadıköy - Moda Nostaljik Tramvay Hattı","hat_turu":"Tramvay","ilce":"Kadıköy","mahalle":"Caferağa Mahallesi"}},{"type":"Feature","geometry":{"type":"Point","coordinates":[28.89552,41.048457]},"properties":{"id":"R0047","kategori":"istasyon","ad":"Kocatepe","kaynak":"ibb_rayli","hat":"M1A Yenikapı - Atatürk Havalimanı Metro Hattı","hat_turu":"Metro","ilce":"Bayrampaşa","mahalle":"Kocatepe Mahallesi"}},{"type":"Feature","geometry":{"type":"Point","coordinates":[28.887652,41.072656]},"properties":{"id":"R0048","kategori":"istasyon","ad":"Taşköprü","kaynak":"ibb_rayli","hat":"T4 Topkapı - Mescid-i Selam Tramvay Hattı","hat_turu":"Tramvay","ilce":"Bayrampaşa","mahalle":"Cevatpaşa Mahallesi"}},{"type":"Feature","geometry":{"type":"Point","coordinates":[29.037541,41.082344]},"properties":{"id":"R0049","kategori":"istasyon","ad":"Etiler","kaynak":"ibb_rayli","hat":"M6 Levent - Boğaziçi Ünv./Hisarüstü Metro Hattı","hat_turu":"Metro","ilce":"Beşiktaş","mahalle":"Etiler Mahallesi"}},{"type":"Feature","geometry":{"type":"Point","coordinates":[29.084419,40.960475]},"properties":{"id":"R0050","kategori":"istasyon","ad":"Suadiye","kaynak":"ibb_rayli","hat":"Halkalı - Gebze Marmaray Yüzeysel Raylı Sistem Hattı","hat_turu":"Banliyö","ilce":"Kadıköy","mahalle":"Suadiye Mahallesi"}},{"type":"Feature","geometry":{"type":"Point","coordinates":[29.095059,40.9538]},"properties":{"id":"R0051","kategori":"istasyon","ad":"Bostancı","kaynak":"ibb_rayli","hat":"Halkalı - Gebze Marmaray Yüzeysel Raylı Sistem Hattı","hat_turu":"Banliyö","ilce":"Kadıköy","mahalle":"Bostancı Mahallesi"}},{"type":"Feature","geometry":{"type":"Point","coordinates":[28.85538,41.062847]},"properties":{"id":"R0052","kategori":"istasyon","ad":"Oruc Reis","kaynak":"ibb_rayli","hat":"M7 Yıldız - Mahmutbey Metro Hattı","hat_turu":"Metro","ilce":"Esenler","mahalle":"Oruçreis Mahallesi"}},{"type":"Feature","geometry":{"type":"Point","coordinates":[28.936225,41.080228]},"properties":{"id":"R0053","kategori":"istasyon","ad":"Çırçır","kaynak":"ibb_rayli","hat":"M7 Yıldız - Mahmutbey Metro Hattı","hat_turu":"Metro","ilce":"Eyüpsultan","mahalle":"Çırçır Mahallesi"}},{"type":"Feature","geometry":{"type":"Point","coordinates":[28.773927,41.006262]},"properties":{"id":"R0054","kategori":"istasyon","ad":"Mustafa Kemal","kaynak":"ibb_rayli","hat":"Halkalı - Gebze Marmaray Yüzeysel Raylı Sistem Hattı","hat_turu":"Banliyö","ilce":"Küçükçekmece","mahalle":"Kanarya Mahallesi"}},{"type":"Feature","geometry":{"type":"Point","coordinates":[28.975894,41.015179]},"properties":{"id":"R0055","kategori":"istasyon","ad":"Sirkeci","kaynak":"ibb_rayli","hat":"T1 Kabataş - Bağcılar Tramvay Hattı","hat_turu":"Tramvay","ilce":"Fatih","mahalle":"Hocapaşa Mahallesi"}},{"type":"Feature","geometry":{"type":"Point","coordinates":[28.927157,41.018264]},"properties":{"id":"R0056","kategori":"istasyon","ad":"Pazartekke","kaynak":"ibb_rayli","hat":"T1 Kabataş - Bağcılar Tramvay Hattı","hat_turu":"Tramvay","ilce":"Fatih","mahalle":"Topkapı Mahallesi"}},{"type":"Feature","geometry":{"type":"Point","coordinates":[28.842754,41.033171]},"properties":{"id":"R0057","kategori":"istasyon","ad":"Kirazlı","kaynak":"ibb_rayli","hat":"M1B Yenikapı - Kirazlı Metro Hattı","hat_turu":"Metro","ilce":"Bağcılar","mahalle":"Kirazlı Mahallesi"}},{"type":"Feature","geometry":{"type":"Point","coordinates":[28.920243,41.034096]},"properties":{"id":"R0058","kategori":"istasyon","ad":"Bayrampaşa","kaynak":"ibb_rayli","hat":"M1A Yenikapı - Atatürk Havalimanı Metro Hattı","hat_turu":"Metro","ilce":"Eyüpsultan","mahalle":"Topçular Mahallesi"}},{"type":"Feature","geometry":{"type":"Point","coordinates":[28.935166,41.050471]},"properties":{"id":"R0059","kategori":"istasyon","ad":"Eyüpsultan Teleferik","kaynak":"ibb_rayli","hat":"T5 Eminönü - Alibeyköy Cep Otogarı Tramvay Hattı","hat_turu":"Tramvay","ilce":"Eyüpsultan","mahalle":"Merkez Mahallesi"}},{"type":"Feature","geometry":{"type":"Point","coordinates":[29.020799,41.108093]},"properties":{"id":"R0060","kategori":"istasyon","ad":"İTÜ Ayazağa","kaynak":"ibb_rayli","hat":"M2 Yenikapı Seyrantepe - Hacıosman Metro Hattı","hat_turu":"Metro","ilce":"Sarıyer","mahalle":"Reşitpaşa Mahallesi"}},{"type":"Feature","geometry":{"type":"Point","coordinates":[28.950476,41.005589]},"properties":{"id":"R0061","kategori":"istasyon","ad":"Yenikapı","kaynak":"ibb_rayli","hat":"M1A Yenikapı - Atatürk Havalimanı Metro Hattı","hat_turu":"Metro","ilce":"Fatih","mahalle":"Aksaray Mahallesi"}},{"type":"Feature","geometry":{"type":"Point","coordinates":[29.020752,40.988433]},"properties":{"id":"R0062","kategori":"istasyon","ad":"Damga Sk.","kaynak":"ibb_rayli","hat":"T3 Kadıköy - Moda Nostaljik Tramvay Hattı","hat_turu":"Tramvay","ilce":"Kadıköy","mahalle":"Caferağa Mahallesi"}},{"type":"Feature","geometry":{"type":"Point","coordinates":[29.010924,41.068999]},"properties":{"id":"R0063","kategori":"istasyon","ad":"Gayrettepe","kaynak":"ibb_rayli","hat":"M2 Yenikapı Seyrantepe - Hacıosman Metro Hattı","hat_turu":"Metro","ilce":"Şişli","mahalle":"Esentepe Mahallesi"}},{"type":"Feature","geometry":{"type":"Point","coordinates":[28.933975,41.031439]},"properties":{"id":"R0064","kategori":"istasyon","ad":"Edirnekapı","kaynak":"ibb_rayli","hat":"T4 Topkapı - Mescid-i Selam Tramvay Hattı","hat_turu":"Tramvay","ilce":"Eyüpsultan","mahalle":"Topçular Mahallesi"}},{"type":"Feature","geometry":{"type":"Point","coordinates":[28.99252,41.03426]},"properties":{"id":"R0065","kategori":"istasyon","ad":"Kabataş","kaynak":"ibb_rayli","hat":"T1 Kabataş - Bağcılar Tramvay Hattı","hat_turu":"Tramvay","ilce":"Beyoğlu","mahalle":"Ömer Avni Mahallesi"}},{"type":"Feature","geometry":{"type":"Point","coordinates":[28.99203,41.03398]},"properties":{"id":"R0066","kategori":"istasyon","ad":"Kabataş","kaynak":"ibb_rayli","hat":"F1 Taksim - Kabataş Füniküler Hattı","hat_turu":"Füniküler","ilce":"Beyoğlu","mahalle":"Ömer Avni Mahallesi"}},{"type":"Feature","geometry":{"type":"Point","coordinates":[28.915525,41.046642]},"properties":{"id":"R0067","kategori":"istasyon","ad":"Rami","kaynak":"ibb_rayli","hat":"T4 Topkapı - Mescid-i Selam Tramvay Hattı","hat_turu":"Tramvay","ilce":"Eyüpsultan","mahalle":"Rami Yeni Mahallesi"}},{"type":"Feature","geometry":{"type":"Point","coordinates":[28.895482,41.068564]},"properties":{"id":"R0068","kategori":"istasyon","ad":"Ali Fuat Başgil","kaynak":"ibb_rayli","hat":"T4 Topkapı - Mescid-i Selam Tramvay Hattı","hat_turu":"Tramvay","ilce":"Bayrampaşa","mahalle":"Yıldırım Mahallesi"}},{"type":"Feature","geometry":{"type":"Point","coordinates":[28.836708,40.989313]},"properties":{"id":"R0069","kategori":"istasyon","ad":"Yenibosna","kaynak":"ibb_rayli","hat":"M1A Yenikapı - Atatürk Havalimanı Metro Hattı","hat_turu":"Metro","ilce":"Bakırköy","mahalle":"Ataköy 7-8-9-10. Kısım Mahallesi"}},{"type":"Feature","geometry":{"type":"Point","coordinates":[28.830539,41.054894]},"properties":{"id":"R0070","kategori":"istasyon","ad":"Mahmutbey","kaynak":"ibb_rayli","hat":"M3 Kirazlı - Kayaşehir Merkez Metro Hattı","hat_turu":"Metro","ilce":"Bağcılar","mahalle":"Göztepe Mahallesi"}},{"type":"Feature","geometry":{"type":"Point","coordinates":[28.953864,41.009592]},"properties":{"id":"R0071","kategori":"istasyon","ad":"Aksaray","kaynak":"ibb_rayli","hat":"T1 Kabataş - Bağcılar Tramvay Hattı","hat_turu":"Tramvay","ilce":"Fatih","mahalle":"Mesihpaşa Mahallesi"}},{"type":"Feature","geometry":{"type":"Point","coordinates":[28.91025,41.054136]},"properties":{"id":"R0072","kategori":"istasyon","ad":"Uluyol-Bereç","kaynak":"ibb_rayli","hat":"T4 Topkapı - Mescid-i Selam Tramvay Hattı","hat_turu":"Tramvay","ilce":"Bayrampaşa","mahalle":"Muratpaşa Mahallesi"}},{"type":"Feature","geometry":{"type":"Point","coordinates":[28.864009,41.092832]},"properties":{"id":"R0073","kategori":"istasyon","ad":"Hacı Şükrü","kaynak":"ibb_rayli","hat":"T4 Topkapı - Mescid-i Selam Tramvay Hattı","hat_turu":"Tramvay","ilce":"Sultangazi","mahalle":"50. Yıl Mahallesi"}},{"type":"Feature","geometry":{"type":"Point","coordinates":[28.857811,41.11192]},"properties":{"id":"R0074","kategori":"istasyon","ad":"Cebeci","kaynak":"ibb_rayli","hat":"T4 Topkapı - Mescid-i Selam Tramvay Hattı","hat_turu":"Tramvay","ilce":"Sultangazi","mahalle":"Cebeci Mahallesi"}},{"type":"Feature","geometry":{"type":"Point","coordinates":[28.95979,41.009585]},"properties":{"id":"R0075","kategori":"istasyon","ad":"Üniversite-Laleli","kaynak":"ibb_rayli","hat":"T1 Kabataş - Bağcılar Tramvay Hattı","hat_turu":"Tramvay","ilce":"Fatih","mahalle":"Mimar Kemalettin Mahallesi"}},{"type":"Feature","geometry":{"type":"Point","coordinates":[29.210535,40.884505]},"properties":{"id":"R0076","kategori":"istasyon","ad":"Yunus","kaynak":"ibb_rayli","hat":"Halkalı - Gebze Marmaray Yüzeysel Raylı Sistem Hattı","hat_turu":"Banliyö","ilce":"Kartal","mahalle":"Yunus Mahallesi"}},{"type":"Feature","geometry":{"type":"Point","coordinates":[29.231672,40.880207]},"properties":{"id":"R0077","kategori":"istasyon","ad":"Pendik","kaynak":"ibb_rayli","hat":"Halkalı - Gebze Marmaray Yüzeysel Raylı Sistem Hattı","hat_turu":"Banliyö","ilce":"Pendik","mahalle":"Yeni Mahallesi"}},{"type":"Feature","geometry":{"type":"Point","coordinates":[28.875066,41.08119]},"properties":{"id":"R0078","kategori":"istasyon","ad":"Karadeniz Mah.","kaynak":"ibb_rayli","hat":"M7 Yıldız - Mahmutbey Metro Hattı","hat_turu":"Metro","ilce":"Gaziosmanpaşa","mahalle":"Karadeniz Mahallesi"}},{"type":"Feature","geometry":{"type":"Point","coordinates":[29.118381,41.021541]},"properties":{"id":"R0079","kategori":"istasyon","ad":"Çakmak","kaynak":"ibb_rayli","hat":"M5 Üsküdar - Çekmeköy Metro Hattı","hat_turu":"Metro","ilce":"Ümraniye","mahalle":"Yamanevler Mahallesi"}},{"type":"Feature","geometry":{"type":"Point","coordinates":[28.973301,41.079564]},"properties":{"id":"R0080","kategori":"istasyon","ad":"Kağıthane","kaynak":"ibb_rayli","hat":"M7 Yıldız - Mahmutbey Metro Hattı","hat_turu":"Metro","ilce":"Kâğıthane","mahalle":"Çağlayan Mahallesi"}},{"type":"Feature","geometry":{"type":"Point","coordinates":[29.300061,40.845651]},"properties":{"id":"R0081","kategori":"istasyon","ad":"İçmeler","kaynak":"ibb_rayli","hat":"Halkalı - Gebze Marmaray Yüzeysel Raylı Sistem Hattı","hat_turu":"Banliyö","ilce":"Tuzla","mahalle":"Evliya Çelebi Mahallesi"}},{"type":"Feature","geometry":{"type":"Point","coordinates":[28.995391,41.06523]},"properties":{"id":"R0082","kategori":"istasyon","ad":"Mecidiyeköy","kaynak":"ibb_rayli","hat":"M7 Yıldız - Mahmutbey Metro Hattı","hat_turu":"Metro","ilce":"Şişli","mahalle":"Fulya Mahallesi"}},{"type":"Feature","geometry":{"type":"Point","coordinates":[28.905444,40.985878]},"properties":{"id":"R0083","kategori":"istasyon","ad":"Zeytinburnu","kaynak":"ibb_rayli","hat":"Halkalı - Gebze Marmaray Yüzeysel Raylı Sistem Hattı","hat_turu":"Banliyö","ilce":"Zeytinburnu","mahalle":"Kazlıçeşme Mahallesi"}},{"type":"Feature","geometry":{"type":"Point","coordinates":[28.799374,41.058395]},"properties":{"id":"R0084","kategori":"istasyon","ad":"Bahariye","kaynak":"ibb_rayli","hat":"M9 Bahariye - Olimpiyat Metro Hattı","hat_turu":"Metro","ilce":"Küçükçekmece","mahalle":"Mehmet Akif Mahallesi"}},{"type":"Feature","geometry":{"type":"Point","coordinates":[28.772942,40.988524]},"properties":{"id":"R0085","kategori":"istasyon","ad":"Küçükçekmece","kaynak":"ibb_rayli","hat":"Halkalı - Gebze Marmaray Yüzeysel Raylı Sistem Hattı","hat_turu":"Banliyö","ilce":"Küçükçekmece","mahalle":"Cennet Mahallesi"}},{"type":"Feature","geometry":{"type":"Point","coordinates":[28.797028,40.967766]},"properties":{"id":"R0086","kategori":"istasyon","ad":"Florya Akvaryum","kaynak":"ibb_rayli","hat":"Halkalı - Gebze Marmaray Yüzeysel Raylı Sistem Hattı","hat_turu":"Banliyö","ilce":"Bakırköy","mahalle":"Şenlikköy Mahallesi"}},{"type":"Feature","geometry":{"type":"Point","coordinates":[29.124205,40.92683]},"properties":{"id":"R0087","kategori":"istasyon","ad":"Süreyya Plajı","kaynak":"ibb_rayli","hat":"Halkalı - Gebze Marmaray Yüzeysel Raylı Sistem Hattı","hat_turu":"Banliyö","ilce":"Maltepe","mahalle":"Feyzullah Mahallesi"}},{"type":"Feature","geometry":{"type":"Point","coordinates":[29.025473,40.99109]},"properties":{"id":"R0088","kategori":"istasyon","ad":"Çarşı","kaynak":"ibb_rayli","hat":"T3 Kadıköy - Moda Nostaljik Tramvay Hattı","hat_turu":"Tramvay","ilce":"Kadıköy","mahalle":"Osmanağa Mahallesi"}},{"type":"Feature","geometry":{"type":"Point","coordinates":[29.025129,41.12958]},"properties":{"id":"R0089","kategori":"istasyon","ad":"Darüşşafaka","kaynak":"ibb_rayli","hat":"M2 Yenikapı Seyrantepe - Hacıosman Metro Hattı","hat_turu":"Metro","ilce":"Sarıyer","mahalle":"Çamlıtepe Mahallesi"}},{"type":"Feature","geometry":{"type":"Point","coordinates":[29.024194,41.118256]},"properties":{"id":"R0090","kategori":"istasyon","ad":"Atatürk Oto Sanayi","kaynak":"ibb_rayli","hat":"M2 Yenikapı Seyrantepe - Hacıosman Metro Hattı","hat_turu":"Metro","ilce":"Sarıyer","mahalle":"Maslak Mahallesi"}},{"type":"Feature","geometry":{"type":"Point","coordinates":[29.13956,40.935819]},"properties":{"id":"R0091","kategori":"istasyon","ad":"Maltepe","kaynak":"ibb_rayli","hat":"M4 Kadıköy - SGH Metro Hattı","hat_turu":"Metro","ilce":"Maltepe","mahalle":"Zümrütevler Mahallesi"}},{"type":"Feature","geometry":{"type":"Point","coordinates":[29.027596,40.984886]},"properties":{"id":"R0092","kategori":"istasyon","ad":"Kilise","kaynak":"ibb_rayli","hat":"T3 Kadıköy - Moda Nostaljik Tramvay Hattı","hat_turu":"Tramvay","ilce":"Kadıköy","mahalle":"Caferağa Mahallesi"}},{"type":"Feature","geometry":{"type":"Point","coordinates":[29.026735,40.984091]},"properties":{"id":"R0093","kategori":"istasyon","ad":"Moda İlkokulu","kaynak":"ibb_rayli","hat":"T3 Kadıköy - Moda Nostaljik Tramvay Hattı","hat_turu":"Tramvay","ilce":"Kadıköy","mahalle":"Caferağa Mahallesi"}},{"type":"Feature","geometry":{"type":"Point","coordinates":[28.97113,41.008435]},"properties":{"id":"R0094","kategori":"istasyon","ad":"Çemberlitaş","kaynak":"ibb_rayli","hat":"T1 Kabataş - Bağcılar Tramvay Hattı","hat_turu":"Tramvay","ilce":"Fatih","mahalle":"Molla Fenari Mahallesi"}},{"type":"Feature","geometry":{"type":"Point","coordinates":[28.932031,41.015882]},"properties":{"id":"R0095","kategori":"istasyon","ad":"Çapa","kaynak":"ibb_rayli","hat":"T1 Kabataş - Bağcılar Tramvay Hattı","hat_turu":"Tramvay","ilce":"Fatih","mahalle":"Topkapı Mahallesi"}},{"type":"Feature","geometry":{"type":"Point","coordinates":[28.923378,41.037006]},"properties":{"id":"R0096","kategori":"istasyon","ad":"Demirkapı","kaynak":"ibb_rayli","hat":"T4 Topkapı - Mescid-i Selam Tramvay Hattı","hat_turu":"Tramvay","ilce":"Eyüpsultan","mahalle":"Topçular Mahallesi"}},{"type":"Feature","geometry":{"type":"Point","coordinates":[28.944297,41.010708]},"properties":{"id":"R0097","kategori":"istasyon","ad":"Haseki","kaynak":"ibb_rayli","hat":"T1 Kabataş - Bağcılar Tramvay Hattı","hat_turu":"Tramvay","ilce":"Fatih","mahalle":"Molla Gürani Mahallesi"}},{"type":"Feature","geometry":{"type":"Point","coordinates":[28.900212,41.020651]},"properties":{"id":"R0098","kategori":"istasyon","ad":"Davutpaşa - YTÜ","kaynak":"ibb_rayli","hat":"M1A Yenikapı - Atatürk Havalimanı Metro Hattı","hat_turu":"Metro","ilce":"Esenler","mahalle":"Çifte Havuzlar Mahallesi"}},{"type":"Feature","geometry":{"type":"Point","coordinates":[29.090388,40.984729]},"properties":{"id":"R0099","kategori":"istasyon","ad":"Yenisahra","kaynak":"ibb_rayli","hat":"M4 Kadıköy - SGH Metro Hattı","hat_turu":"Metro","ilce":"Kadıköy","mahalle":"Sahrayıcedit Mahallesi"}},{"type":"Feature","geometry":{"type":"Point","coordinates":[28.986995,41.036611]},"properties":{"id":"R0100","kategori":"istasyon","ad":"Taksim","kaynak":"ibb_rayli","hat":"F1 Taksim - Kabataş Füniküler Hattı","hat_turu":"Füniküler","ilce":"Beyoğlu","mahalle":"Gümüşsuyu Mahallesi"}},{"type":"Feature","geometry":{"type":"Point","coordinates":[28.975587,41.008087]},"properties":{"id":"R0101","kategori":"istasyon","ad":"Sultanahmet","kaynak":"ibb_rayli","hat":"T1 Kabataş - Bağcılar Tramvay Hattı","hat_turu":"Tramvay","ilce":"Fatih","mahalle":"Alemdar Mahallesi"}},{"type":"Feature","geometry":{"type":"Point","coordinates":[28.92936,41.025693]},"properties":{"id":"R0102","kategori":"istasyon","ad":"Vatan","kaynak":"ibb_rayli","hat":"T4 Topkapı - Mescid-i Selam Tramvay Hattı","hat_turu":"Tramvay","ilce":"Eyüpsultan","mahalle":"Topçular Mahallesi"}},{"type":"Feature","geometry":{"type":"Point","coordinates":[28.875404,40.99661]},"properties":{"id":"R0103","kategori":"istasyon","ad":"Bakırköy","kaynak":"ibb_rayli","hat":"M1A Yenikapı - Atatürk Havalimanı Metro Hattı","hat_turu":"Metro","ilce":"Bakırköy","mahalle":"Osmaniye Mahallesi"}},{"type":"Feature","geometry":{"type":"Point","coordinates":[29.030436,41.139773]},"properties":{"id":"R0104","kategori":"istasyon","ad":"Hacıosman","kaynak":"ibb_rayli","hat":"M2 Yenikapı Seyrantepe - Hacıosman Metro Hattı","hat_turu":"Metro","ilce":"Sarıyer","mahalle":"Çamlıtepe Mahallesi"}},{"type":"Feature","geometry":{"type":"Point","coordinates":[28.959835,41.012265]},"properties":{"id":"R0105","kategori":"istasyon","ad":"Vezneciler - İstanbul Ünv.","kaynak":"ibb_rayli","hat":"M2 Yenikapı Seyrantepe - Hacıosman Metro Hattı","hat_turu":"Metro","ilce":"Fatih","mahalle":"Kalenderhane Mahallesi"}},{"type":"Feature","geometry":{"type":"Point","coordinates":[28.835942,41.040355]},"properties":{"id":"R0106","kategori":"istasyon","ad":"Yeni Mahalle","kaynak":"ibb_rayli","hat":"M3 Kirazlı - Kayaşehir Merkez Metro Hattı","hat_turu":"Metro","ilce":"Bağcılar","mahalle":"Yenimahalle Mahallesi"}},{"type":"Feature","geometry":{"type":"Point","coordinates":[28.860651,41.033085]},"properties":{"id":"R0107","kategori":"istasyon","ad":"Bağcılar","kaynak":"ibb_rayli","hat":"T1 Kabataş - Bağcılar Tramvay Hattı","hat_turu":"Tramvay","ilce":"Bağcılar","mahalle":"Merkez Mahallesi"}},{"type":"Feature","geometry":{"type":"Point","coordinates":[28.851263,41.116214]},"properties":{"id":"R0108","kategori":"istasyon","ad":"Mescid-i Selam","kaynak":"ibb_rayli","hat":"T4 Topkapı - Mescid-i Selam Tramvay Hattı","hat_turu":"Tramvay","ilce":"Sultangazi","mahalle":"Cebeci Mahallesi"}},{"type":"Feature","geometry":{"type":"Point","coordinates":[29.10535,40.964578]},"properties":{"id":"R0109","kategori":"istasyon","ad":"Bostancı","kaynak":"ibb_rayli","hat":"M4 Kadıköy - SGH Metro Hattı","hat_turu":"Metro","ilce":"Kadıköy","mahalle":"Bostancı Mahallesi"}},{"type":"Feature","geometry":{"type":"Point","coordinates":[29.084781,41.024624]},"properties":{"id":"R0110","kategori":"istasyon","ad":"Ümraniye","kaynak":"ibb_rayli","hat":"M5 Üsküdar - Çekmeköy Metro Hattı","hat_turu":"Metro","ilce":"Ümraniye","mahalle":"Tantavi Mahallesi"}},{"type":"Feature","geometry":{"type":"Point","coordinates":[29.248837,40.882088]},"properties":{"id":"R0111","kategori":"istasyon","ad":"Tavşantepe","kaynak":"ibb_rayli","hat":"M4 Kadıköy - SGH Metro Hattı","hat_turu":"Metro","ilce":"Pendik","mahalle":"Dumlupınar Mahallesi"}},{"type":"Feature","geometry":{"type":"Point","coordinates":[28.908398,41.085374]},"properties":{"id":"R0112","kategori":"istasyon","ad":"Kazım Karabekir","kaynak":"ibb_rayli","hat":"M7 Yıldız - Mahmutbey Metro Hattı","hat_turu":"Metro","ilce":"Gaziosmanpaşa","mahalle":"Mevlana Mahallesi"}},{"type":"Feature","geometry":{"type":"Point","coordinates":[28.856224,40.980216]},"properties":{"id":"R0113","kategori":"istasyon","ad":"Ataköy","kaynak":"ibb_rayli","hat":"Halkalı - Gebze Marmaray Yüzeysel Raylı Sistem Hattı","hat_turu":"Banliyö","ilce":"Bakırköy","mahalle":"Ataköy 2-5-6. Kısım Mahallesi"}},{"type":"Feature","geometry":{"type":"Point","coordinates":[29.028845,41.028254]},"properties":{"id":"R0114","kategori":"istasyon","ad":"Fıstık Ağacı","kaynak":"ibb_rayli","hat":"M5 Üsküdar - Çekmeköy Metro Hattı","hat_turu":"Metro","ilce":"Üsküdar","mahalle":"İcadiye Mahallesi"}},{"type":"Feature","geometry":{"type":"Point","coordinates":[28.928102,41.079686]},"properties":{"id":"R0115","kategori":"istasyon","ad":"Veysel Karani  - Akşemsettin","kaynak":"ibb_rayli","hat":"M7 Yıldız - Mahmutbey Metro Hattı","hat_turu":"Metro","ilce":"Eyüpsultan","mahalle":"Akşemsettin Mahallesi"}},{"type":"Feature","geometry":{"type":"Point","coordinates":[29.013522,41.0257]},"properties":{"id":"R0116","kategori":"istasyon","ad":"Üsküdar","kaynak":"ibb_rayli","hat":"Halkalı - Gebze Marmaray Yüzeysel Raylı Sistem Hattı","hat_turu":"Banliyö","ilce":"Üsküdar","mahalle":"Mimar Sinan Mahallesi"}},{"type":"Feature","geometry":{"type":"Point","coordinates":[29.036414,41.021915]},"properties":{"id":"R0117","kategori":"istasyon","ad":"Bağlarbaşı","kaynak":"ibb_rayli","hat":"M5 Üsküdar - Çekmeköy Metro Hattı","hat_turu":"Metro","ilce":"Üsküdar","mahalle":"Altunizade Mahallesi"}},{"type":"Feature","geometry":{"type":"Point","coordinates":[28.824893,40.962653]},"properties":{"id":"R0118","kategori":"istasyon","ad":"Yeşilköy","kaynak":"ibb_rayli","hat":"Halkalı - Gebze Marmaray Yüzeysel Raylı Sistem Hattı","hat_turu":"Banliyö","ilce":"Bakırköy","mahalle":"Yeşilköy Mahallesi"}},{"type":"Feature","geometry":{"type":"Point","coordinates":[29.133526,40.920646]},"properties":{"id":"R0119","kategori":"istasyon","ad":"Maltepe","kaynak":"ibb_rayli","hat":"Halkalı - Gebze Marmaray Yüzeysel Raylı Sistem Hattı","hat_turu":"Banliyö","ilce":"Maltepe","mahalle":"Bağlarbaşı Mahallesi"}},{"type":"Feature","geometry":{"type":"Point","coordinates":[28.892687,41.083855]},"properties":{"id":"R0120","kategori":"istasyon","ad":"Yenimahalle","kaynak":"ibb_rayli","hat":"M7 Yıldız - Mahmutbey Metro Hattı","hat_turu":"Metro","ilce":"Gaziosmanpaşa","mahalle":"Karayolları Mahallesi"}},{"type":"Feature","geometry":{"type":"Point","coordinates":[29.106822,40.946257]},"properties":{"id":"R0121","kategori":"istasyon","ad":"Küçükyalı","kaynak":"ibb_rayli","hat":"Halkalı - Gebze Marmaray Yüzeysel Raylı Sistem Hattı","hat_turu":"Banliyö","ilce":"Maltepe","mahalle":"Küçükyalı Merkez Mahallesi"}},{"type":"Feature","geometry":{"type":"Point","coordinates":[28.787473,40.972961]},"properties":{"id":"R0122","kategori":"istasyon","ad":"Florya","kaynak":"ibb_rayli","hat":"Halkalı - Gebze Marmaray Yüzeysel Raylı Sistem Hattı","hat_turu":"Banliyö","ilce":"Bakırköy","mahalle":"Basınköy Mahallesi"}},{"type":"Feature","geometry":{"type":"Point","coordinates":[29.030124,41.000077]},"properties":{"id":"R0123","kategori":"istasyon","ad":"Ayrılık Çeşmesi","kaynak":"ibb_rayli","hat":"Halkalı - Gebze Marmaray Yüzeysel Raylı Sistem Hattı","hat_turu":"Banliyö","ilce":"Kadıköy","mahalle":"Acıbadem Mahallesi"}},{"type":"Feature","geometry":{"type":"Point","coordinates":[28.989442,41.031453]},"properties":{"id":"R0124","kategori":"istasyon","ad":"Fındıklı","kaynak":"ibb_rayli","hat":"T1 Kabataş - Bağcılar Tramvay Hattı","hat_turu":"Tramvay","ilce":"Beyoğlu","mahalle":"Pürtelaş Hasan Efendi Mahallesi"}},{"type":"Feature","geometry":{"type":"Point","coordinates":[28.974688,41.022115]},"properties":{"id":"R0125","kategori":"istasyon","ad":"Karaköy","kaynak":"ibb_rayli","hat":"T1 Kabataş - Bağcılar Tramvay Hattı","hat_turu":"Tramvay","ilce":"Beyoğlu","mahalle":"Arap Cami Mahallesi"}},{"type":"Feature","geometry":{"type":"Point","coordinates":[28.909346,41.007844]},"properties":{"id":"R0126","kategori":"istasyon","ad":"Seyitnizam","kaynak":"ibb_rayli","hat":"T1 Kabataş - Bağcılar Tramvay Hattı","hat_turu":"Tramvay","ilce":"Zeytinburnu","mahalle":"Seyitnizam Mahallesi"}},{"type":"Feature","geometry":{"type":"Point","coordinates":[28.867084,41.020967]},"properties":{"id":"R0127","kategori":"istasyon","ad":"Soğanlı","kaynak":"ibb_rayli","hat":"T1 Kabataş - Bağcılar Tramvay Hattı","hat_turu":"Tramvay","ilce":"Güngören","mahalle":"Mareşal Çakmak Mahallesi"}},{"type":"Feature","geometry":{"type":"Point","coordinates":[29.099693,40.975223]},"properties":{"id":"R0128","kategori":"istasyon","ad":"Kozyatağı","kaynak":"ibb_rayli","hat":"M4 Kadıköy - SGH Metro Hattı","hat_turu":"Metro","ilce":"Ataşehir","mahalle":"İçerenköy Mahallesi"}},{"type":"Feature","geometry":{"type":"Point","coordinates":[29.024408,40.984062]},"properties":{"id":"R0129","kategori":"istasyon","ad":"Moda","kaynak":"ibb_rayli","hat":"T3 Kadıköy - Moda Nostaljik Tramvay Hattı","hat_turu":"Tramvay","ilce":"Kadıköy","mahalle":"Caferağa Mahallesi"}},{"type":"Feature","geometry":{"type":"Point","coordinates":[28.947121,41.009997]},"properties":{"id":"R0130","kategori":"istasyon","ad":"Yusufpaşa","kaynak":"ibb_rayli","hat":"T1 Kabataş - Bağcılar Tramvay Hattı","hat_turu":"Tramvay","ilce":"Fatih","mahalle":"Haseki Sultan Mahallesi"}},{"type":"Feature","geometry":{"type":"Point","coordinates":[28.928257,41.034181]},"properties":{"id":"R0131","kategori":"istasyon","ad":"Şehitlik","kaynak":"ibb_rayli","hat":"T4 Topkapı - Mescid-i Selam Tramvay Hattı","hat_turu":"Tramvay","ilce":"Eyüpsultan","mahalle":"Topçular Mahallesi"}},{"type":"Feature","geometry":{"type":"Point","coordinates":[28.846086,40.991348]},"properties":{"id":"R0132","kategori":"istasyon","ad":"Ataköy - Şirinevler","kaynak":"ibb_rayli","hat":"M1A Yenikapı - Atatürk Havalimanı Metro Hattı","hat_turu":"Metro","ilce":"Bakırköy","mahalle":"Ataköy 7-8-9-10. Kısım Mahallesi"}},{"type":"Feature","geometry":{"type":"Point","coordinates":[29.147008,40.929943]},"properties":{"id":"R0133","kategori":"istasyon","ad":"Huzurevi","kaynak":"ibb_rayli","hat":"M4 Kadıköy - SGH Metro Hattı","hat_turu":"Metro","ilce":"Maltepe","mahalle":"Zümrütevler Mahallesi"}},{"type":"Feature","geometry":{"type":"Point","coordinates":[28.880759,41.011558]},"properties":{"id":"R0134","kategori":"istasyon","ad":"Merter Tekstil Merkezi","kaynak":"ibb_rayli","hat":"T1 Kabataş - Bağcılar Tramvay Hattı","hat_turu":"Tramvay","ilce":"Bahçelievler","mahalle":"Bahçelievler Mahallesi"}},{"type":"Feature","geometry":{"type":"Point","coordinates":[28.878492,41.042757]},"properties":{"id":"R0135","kategori":"istasyon","ad":"Menderes","kaynak":"ibb_rayli","hat":"M1B Yenikapı - Kirazlı Metro Hattı","hat_turu":"Metro","ilce":"Esenler","mahalle":"Menderes Mahallesi"}},{"type":"Feature","geometry":{"type":"Point","coordinates":[28.825963,41.064998]},"properties":{"id":"R0136","kategori":"istasyon","ad":"İstoç","kaynak":"ibb_rayli","hat":"M3 Kirazlı - Kayaşehir Merkez Metro Hattı","hat_turu":"Metro","ilce":"Bağcılar","mahalle":"Mahmutbey Mahallesi"}},{"type":"Feature","geometry":{"type":"Point","coordinates":[28.856175,41.034515]},"properties":{"id":"R0137","kategori":"istasyon","ad":"Bağcılar Meydan","kaynak":"ibb_rayli","hat":"M1B Yenikapı - Kirazlı Metro Hattı","hat_turu":"Metro","ilce":"Bağcılar","mahalle":"Yavuz Selim Mahallesi"}},{"type":"Feature","geometry":{"type":"Point","coordinates":[29.211384,40.906645]},"properties":{"id":"R0138","kategori":"istasyon","ad":"Kartal","kaynak":"ibb_rayli","hat":"M4 Kadıköy - SGH Metro Hattı","hat_turu":"Metro","ilce":"Kartal","mahalle":"Orta Mahallesi"}},{"type":"Feature","geometry":{"type":"Point","coordinates":[29.014527,41.075508]},"properties":{"id":"R0139","kategori":"istasyon","ad":"Levent","kaynak":"ibb_rayli","hat":"M6 Levent - Boğaziçi Ünv./Hisarüstü Metro Hattı","hat_turu":"Metro","ilce":"Şişli","mahalle":"Esentepe Mahallesi"}},{"type":"Feature","geometry":{"type":"Point","coordinates":[29.076244,41.016344]},"properties":{"id":"R0140","kategori":"istasyon","ad":"Bulgurlu","kaynak":"ibb_rayli","hat":"M5 Üsküdar - Çekmeköy Metro Hattı","hat_turu":"Metro","ilce":"Üsküdar","mahalle":"Bulgurlu Mahallesi"}},{"type":"Feature","geometry":{"type":"Point","coordinates":[28.977125,41.013584]},"properties":{"id":"R0141","kategori":"istasyon","ad":"Sirkeci","kaynak":"ibb_rayli","hat":"Halkalı - Gebze Marmaray Yüzeysel Raylı Sistem Hattı","hat_turu":"Banliyö","ilce":"Fatih","mahalle":"Hocapaşa Mahallesi"}},{"type":"Feature","geometry":{"type":"Point","coordinates":[28.866978,41.07149]},"properties":{"id":"R0142","kategori":"istasyon","ad":"Tekstilkent - Giyimkent","kaynak":"ibb_rayli","hat":"M7 Yıldız - Mahmutbey Metro Hattı","hat_turu":"Metro","ilce":"Esenler","mahalle":"15 Temmuz Mahallesi"}},{"type":"Feature","geometry":{"type":"Point","coordinates":[29.062083,41.022183]},"properties":{"id":"R0143","kategori":"istasyon","ad":"Kısıklı","kaynak":"ibb_rayli","hat":"M5 Üsküdar - Çekmeköy Metro Hattı","hat_turu":"Metro","ilce":"Üsküdar","mahalle":"Kısıklı Mahallesi"}},{"type":"Feature","geometry":{"type":"Point","coordinates":[29.169454,40.898588]},"properties":{"id":"R0144","kategori":"istasyon","ad":"Atalar","kaynak":"ibb_rayli","hat":"Halkalı - Gebze Marmaray Yüzeysel Raylı Sistem Hattı","hat_turu":"Banliyö","ilce":"Kartal","mahalle":"Kordonboyu Mahallesi"}},{"type":"Feature","geometry":{"type":"Point","coordinates":[28.980483,41.070657]},"properties":{"id":"R0145","kategori":"istasyon","ad":"Çağlayan","kaynak":"ibb_rayli","hat":"M7 Yıldız - Mahmutbey Metro Hattı","hat_turu":"Metro","ilce":"Kâğıthane","mahalle":"Hürriyet Mahallesi"}},{"type":"Feature","geometry":{"type":"Point","coordinates":[29.162354,41.015267]},"properties":{"id":"R0146","kategori":"istasyon","ad":"Dudullu","kaynak":"ibb_rayli","hat":"M5 Üsküdar - Çekmeköy Metro Hattı","hat_turu":"Metro","ilce":"Ümraniye","mahalle":"Yukarı Dudullu Mahallesi"}},{"type":"Feature","geometry":{"type":"Point","coordinates":[28.821128,40.979541]},"properties":{"id":"R0147","kategori":"istasyon","ad":"Havaalanı","kaynak":"ibb_rayli","hat":"M1A Yenikapı - Atatürk Havalimanı Metro Hattı","hat_turu":"Metro","ilce":"Bakırköy","mahalle":"Yeşilköy Mahallesi"}},{"type":"Feature","geometry":{"type":"Point","coordinates":[28.985659,41.038157]},"properties":{"id":"R0148","kategori":"istasyon","ad":"Taksim","kaynak":"ibb_rayli","hat":"M2 Yenikapı Seyrantepe - Hacıosman Metro Hattı","hat_turu":"Metro","ilce":"Beyoğlu","mahalle":"Gümüşsuyu Mahallesi"}},{"type":"Feature","geometry":{"type":"Point","coordinates":[28.890296,41.001484]},"properties":{"id":"R0149","kategori":"istasyon","ad":"Zeytinburnu","kaynak":"ibb_rayli","hat":"T1 Kabataş - Bağcılar Tramvay Hattı","hat_turu":"Tramvay","ilce":"Bakırköy","mahalle":"Osmaniye Mahallesi"}},{"type":"Feature","geometry":{"type":"Point","coordinates":[28.860954,41.028993]},"properties":{"id":"R0150","kategori":"istasyon","ad":"Güneştepe","kaynak":"ibb_rayli","hat":"T1 Kabataş - Bağcılar Tramvay Hattı","hat_turu":"Tramvay","ilce":"Güngören","mahalle":"Güneştepe Mahallesi"}},{"type":"Feature","geometry":{"type":"Point","coordinates":[28.888426,41.037681]},"properties":{"id":"R0151","kategori":"istasyon","ad":"Esenler","kaynak":"ibb_rayli","hat":"M1B Yenikapı - Kirazlı Metro Hattı","hat_turu":"Metro","ilce":"Esenler","mahalle":"Yavuz Selim Mahallesi"}},{"type":"Feature","geometry":{"type":"Point","coordinates":[29.154623,40.923819]},"properties":{"id":"R0152","kategori":"istasyon","ad":"Gülsuyu","kaynak":"ibb_rayli","hat":"M4 Kadıköy - SGH Metro Hattı","hat_turu":"Metro","ilce":"Maltepe","mahalle":"Cevizli Mahallesi"}},{"type":"Feature","geometry":{"type":"Point","coordinates":[28.939149,41.012355]},"properties":{"id":"R0153","kategori":"istasyon","ad":"Fındıkzade","kaynak":"ibb_rayli","hat":"T1 Kabataş - Bağcılar Tramvay Hattı","hat_turu":"Tramvay","ilce":"Fatih","mahalle":"Molla Gürani Mahallesi"}},{"type":"Feature","geometry":{"type":"Point","coordinates":[28.948037,41.034056]},"properties":{"id":"R0154","kategori":"istasyon","ad":"Balat","kaynak":"ibb_rayli","hat":"T5 Eminönü - Alibeyköy Cep Otogarı Tramvay Hattı","hat_turu":"Tramvay","ilce":"Fatih","mahalle":"Ayvansaray Mahallesi"}},{"type":"Feature","geometry":{"type":"Point","coordinates":[28.875623,41.080228]},"properties":{"id":"R0155","kategori":"istasyon","ad":"Metris","kaynak":"ibb_rayli","hat":"T4 Topkapı - Mescid-i Selam Tramvay Hattı","hat_turu":"Tramvay","ilce":"Esenler","mahalle":"15 Temmuz Mahallesi"}},{"type":"Feature","geometry":{"type":"Point","coordinates":[29.044587,41.0023]},"properties":{"id":"R0156","kategori":"istasyon","ad":"Acıbadem","kaynak":"ibb_rayli","hat":"M4 Kadıköy - SGH Metro Hattı","hat_turu":"Metro","ilce":"Kadıköy","mahalle":"Acıbadem Mahallesi"}},{"type":"Feature","geometry":{"type":"Point","coordinates":[29.045571,41.085351]},"properties":{"id":"R0157","kategori":"istasyon","ad":"Rumeli Hisarüstü","kaynak":"ibb_rayli","hat":"M6 Levent - Boğaziçi Ünv./Hisarüstü Metro Hattı","hat_turu":"Metro","ilce":"Sarıyer","mahalle":"Rumelihisarı Mahallesi"}},{"type":"Feature","geometry":{"type":"Point","coordinates":[28.802333,41.072432]},"properties":{"id":"R0158","kategori":"istasyon","ad":"İkitelli Sanayi","kaynak":"ibb_rayli","hat":"M3 Kirazlı - Kayaşehir Merkez Metro Hattı","hat_turu":"Metro","ilce":"Başakşehir","mahalle":"İkitelli OSB Mahallesi"}},{"type":"Feature","geometry":{"type":"Point","coordinates":[28.801481,41.107588]},"properties":{"id":"R0159","kategori":"istasyon","ad":"Başakşehir - Metrokent","kaynak":"ibb_rayli","hat":"M3 Kirazlı - Kayaşehir Merkez Metro Hattı","hat_turu":"Metro","ilce":"Başakşehir","mahalle":"Başak Mahallesi"}},{"type":"Feature","geometry":{"type":"Point","coordinates":[29.121854,40.94905]},"properties":{"id":"R0160","kategori":"istasyon","ad":"Küçükyalı","kaynak":"ibb_rayli","hat":"M4 Kadıköy - SGH Metro Hattı","hat_turu":"Metro","ilce":"Maltepe","mahalle":"Çınar Mahallesi"}},{"type":"Feature","geometry":{"type":"Point","coordinates":[28.860606,41.106181]},"properties":{"id":"R0161","kategori":"istasyon","ad":"Sultançifliği","kaynak":"ibb_rayli","hat":"T4 Topkapı - Mescid-i Selam Tramvay Hattı","hat_turu":"Tramvay","ilce":"Sultangazi","mahalle":"Cebeci Mahallesi"}},{"type":"Feature","geometry":{"type":"Point","coordinates":[28.972849,41.028291]},"properties":{"id":"R0162","kategori":"istasyon","ad":"Şişhane - Zemin İstanbul","kaynak":"ibb_rayli","hat":"M2 Yenikapı Seyrantepe - Hacıosman Metro Hattı","hat_turu":"Metro","ilce":"Beyoğlu","mahalle":"Evliya Çelebi Mahallesi"}},{"type":"Feature","geometry":{"type":"Point","coordinates":[29.021955,40.990406]},"properties":{"id":"R0163","kategori":"istasyon","ad":"Kadıköy","kaynak":"ibb_rayli","hat":"M4 Kadıköy - SGH Metro Hattı","hat_turu":"Metro","ilce":"Kadıköy","mahalle":"Caferağa Mahallesi"}},{"type":"Feature","geometry":{"type":"Point","coordinates":[28.992674,41.064505]},"properties":{"id":"R0164","kategori":"istasyon","ad":"Şişli","kaynak":"ibb_rayli","hat":"M2 Yenikapı Seyrantepe - Hacıosman Metro Hattı","hat_turu":"Metro","ilce":"Şişli","mahalle":"Merkez Mahallesi"}},{"type":"Feature","geometry":{"type":"Point","coordinates":[29.179206,41.016079]},"properties":{"id":"R0165","kategori":"istasyon","ad":"Necip Fazıl","kaynak":"ibb_rayli","hat":"M5 Üsküdar - Çekmeköy Metro Hattı","hat_turu":"Metro","ilce":"Ümraniye","mahalle":"Necip Fazıl Mahallesi"}},{"type":"Feature","geometry":{"type":"Point","coordinates":[29.19119,40.888613]},"properties":{"id":"R0166","kategori":"istasyon","ad":"Kartal","kaynak":"ibb_rayli","hat":"Halkalı - Gebze Marmaray Yüzeysel Raylı Sistem Hattı","hat_turu":"Banliyö","ilce":"Kartal","mahalle":"Kordonboyu Mahallesi"}},{"type":"Feature","geometry":{"type":"Point","coordinates":[29.037628,40.990902]},"properties":{"id":"R0167","kategori":"istasyon","ad":"Söğütlüçeşme","kaynak":"ibb_rayli","hat":"Halkalı - Gebze Marmaray Yüzeysel Raylı Sistem Hattı","hat_turu":"Banliyö","ilce":"Kadıköy","mahalle":"Zühtüpaşa Mahallesi"}},{"type":"Feature","geometry":{"type":"Point","coordinates":[28.918313,41.082304]},"properties":{"id":"R0168","kategori":"istasyon","ad":"Yeşilpınar","kaynak":"ibb_rayli","hat":"M7 Yıldız - Mahmutbey Metro Hattı","hat_turu":"Metro","ilce":"Eyüpsultan","mahalle":"Yeşilpınar Mahallesi"}},{"type":"Feature","geometry":{"type":"Point","coordinates":[29.151519,41.015963]},"properties":{"id":"R0169","kategori":"istasyon","ad":"İmam Hatip","kaynak":"ibb_rayli","hat":"M5 Üsküdar - Çekmeköy Metro Hattı","hat_turu":"Metro","ilce":"Ümraniye","mahalle":"Adem Yavuz Mahallesi"}},{"type":"Feature","geometry":{"type":"Point","coordinates":[28.916878,40.992686]},"properties":{"id":"R0170","kategori":"istasyon","ad":"Kazlıçeşme","kaynak":"ibb_rayli","hat":"Halkalı - Gebze Marmaray Yüzeysel Raylı Sistem Hattı","hat_turu":"Banliyö","ilce":"Zeytinburnu","mahalle":"Kazlıçeşme Mahallesi"}},{"type":"Feature","geometry":{"type":"Point","coordinates":[29.140562,41.016542]},"properties":{"id":"R0171","kategori":"istasyon","ad":"Altınşehir","kaynak":"ibb_rayli","hat":"M5 Üsküdar - Çekmeköy Metro Hattı","hat_turu":"Metro","ilce":"Ümraniye","mahalle":"Cemil Meriç Mahallesi"}},{"type":"Feature","geometry":{"type":"Point","coordinates":[28.950827,41.00502]},"properties":{"id":"R0172","kategori":"istasyon","ad":"Yenikapı","kaynak":"ibb_rayli","hat":"Halkalı - Gebze Marmaray Yüzeysel Raylı Sistem Hattı","hat_turu":"Banliyö","ilce":"Fatih","mahalle":"Aksaray Mahallesi"}},{"type":"Feature","geometry":{"type":"Point","coordinates":[29.048291,41.021954]},"properties":{"id":"R0173","kategori":"istasyon","ad":"Altunizade","kaynak":"ibb_rayli","hat":"M5 Üsküdar - Çekmeköy Metro Hattı","hat_turu":"Metro","ilce":"Üsküdar","mahalle":"Altunizade Mahallesi"}},{"type":"Feature","geometry":{"type":"Point","coordinates":[29.13047,41.019717]},"properties":{"id":"R0174","kategori":"istasyon","ad":"Ihlamurkuyu","kaynak":"ibb_rayli","hat":"M5 Üsküdar - Çekmeköy Metro Hattı","hat_turu":"Metro","ilce":"Ümraniye","mahalle":"Tepeüstü Mahallesi"}},{"type":"Feature","geometry":{"type":"Point","coordinates":[29.189208,41.014563]},"properties":{"id":"R0175","kategori":"istasyon","ad":"Çekmeköy","kaynak":"ibb_rayli","hat":"M5 Üsküdar - Çekmeköy Metro Hattı","hat_turu":"Metro","ilce":"Çekmeköy","mahalle":"Mehmet Akif Mahallesi"}},{"type":"Feature","geometry":{"type":"Point","coordinates":[29.062559,40.979165]},"properties":{"id":"R0176","kategori":"istasyon","ad":"Göztepe","kaynak":"ibb_rayli","hat":"Halkalı - Gebze Marmaray Yüzeysel Raylı Sistem Hattı","hat_turu":"Banliyö","ilce":"Kadıköy","mahalle":"Göztepe Mahallesi"}},{"type":"Feature","geometry":{"type":"Point","coordinates":[29.32236,40.829952]},"properties":{"id":"R0177","kategori":"istasyon","ad":"Tuzla","kaynak":"ibb_rayli","hat":"Halkalı - Gebze Marmaray Yüzeysel Raylı Sistem Hattı","hat_turu":"Banliyö","ilce":"Tuzla","mahalle":"İstasyon Mahallesi"}},{"type":"Feature","geometry":{"type":"Point","coordinates":[29.020771,40.98991]},"properties":{"id":"R0178","kategori":"istasyon","ad":"İDO","kaynak":"ibb_rayli","hat":"T3 Kadıköy - Moda Nostaljik Tramvay Hattı","hat_turu":"Tramvay","ilce":"Kadıköy","mahalle":"Caferağa Mahallesi"}},{"type":"Feature","geometry":{"type":"Point","coordinates":[29.178772,40.91617]},"properties":{"id":"R0179","kategori":"istasyon","ad":"Hastane - Adliye","kaynak":"ibb_rayli","hat":"M4 Kadıköy - SGH Metro Hattı","hat_turu":"Metro","ilce":"Kartal","mahalle":"Cevizli Mahallesi"}},{"type":"Feature","geometry":{"type":"Point","coordinates":[28.987415,41.052493]},"properties":{"id":"R0180","kategori":"istasyon","ad":"Osmanbey","kaynak":"ibb_rayli","hat":"M2 Yenikapı Seyrantepe - Hacıosman Metro Hattı","hat_turu":"Metro","ilce":"Şişli","mahalle":"Halaskargazi Mahallesi"}},{"type":"Feature","geometry":{"type":"Point","coordinates":[28.930507,41.024023]},"properties":{"id":"R0181","kategori":"istasyon","ad":"Topkapı - Ulubatlı","kaynak":"ibb_rayli","hat":"M1A Yenikapı - Atatürk Havalimanı Metro Hattı","hat_turu":"Metro","ilce":"Fatih","mahalle":"Karagümrük Mahallesi"}},{"type":"Feature","geometry":{"type":"Point","coordinates":[28.896181,41.007644]},"properties":{"id":"R0182","kategori":"istasyon","ad":"Merter","kaynak":"ibb_rayli","hat":"M1A Yenikapı - Atatürk Havalimanı Metro Hattı","hat_turu":"Metro","ilce":"Güngören","mahalle":"Abdurrahman Nafiz Gürman Mahallesi"}},{"type":"Feature","geometry":{"type":"Point","coordinates":[28.911578,41.015954]},"properties":{"id":"R0183","kategori":"istasyon","ad":"Cevizlibağ","kaynak":"ibb_rayli","hat":"T1 Kabataş - Bağcılar Tramvay Hattı","hat_turu":"Tramvay","ilce":"Zeytinburnu","mahalle":"Merkezefendi Mahallesi"}},{"type":"Feature","geometry":{"type":"Point","coordinates":[29.166349,40.920883]},"properties":{"id":"R0184","kategori":"istasyon","ad":"Esenkent","kaynak":"ibb_rayli","hat":"M4 Kadıköy - SGH Metro Hattı","hat_turu":"Metro","ilce":"Maltepe","mahalle":"Esenkent Mahallesi"}},{"type":"Feature","geometry":{"type":"Point","coordinates":[28.78653,41.074482]},"properties":{"id":"R0185","kategori":"istasyon","ad":"Ziya Gökalp Mahallesi","kaynak":"ibb_rayli","hat":"M9 Bahariye - Olimpiyat Metro Hattı","hat_turu":"Metro","ilce":"Başakşehir","mahalle":"Ziya Gökalp Mahallesi"}},{"type":"Feature","geometry":{"type":"Point","coordinates":[29.024249,41.077311]},"properties":{"id":"R0186","kategori":"istasyon","ad":"Nispetiye","kaynak":"ibb_rayli","hat":"M6 Levent - Boğaziçi Ünv./Hisarüstü Metro Hattı","hat_turu":"Metro","ilce":"Beşiktaş","mahalle":"Nisbetiye Mahallesi"}},{"type":"Feature","geometry":{"type":"Point","coordinates":[28.797409,41.081184]},"properties":{"id":"R0187","kategori":"istasyon","ad":"Turgut Özal","kaynak":"ibb_rayli","hat":"M3 Kirazlı - Kayaşehir Merkez Metro Hattı","hat_turu":"Metro","ilce":"Başakşehir","mahalle":"İkitelli OSB Mahallesi"}},{"type":"Feature","geometry":{"type":"Point","coordinates":[28.9396,41.01761]},"properties":{"id":"R0188","kategori":"istasyon","ad":"Emniyet - Fatih","kaynak":"ibb_rayli","hat":"M1A Yenikapı - Atatürk Havalimanı Metro Hattı","hat_turu":"Metro","ilce":"Fatih","mahalle":"Akşemsettin Mahallesi"}},{"type":"Feature","geometry":{"type":"Point","coordinates":[28.902084,41.061836]},"properties":{"id":"R0189","kategori":"istasyon","ad":"Bosna Çukurçeşme","kaynak":"ibb_rayli","hat":"T4 Topkapı - Mescid-i Selam Tramvay Hattı","hat_turu":"Tramvay","ilce":"Bayrampaşa","mahalle":"Yıldırım Mahallesi"}},{"type":"Feature","geometry":{"type":"Point","coordinates":[29.070726,40.994046]},"properties":{"id":"R0190","kategori":"istasyon","ad":"Göztepe","kaynak":"ibb_rayli","hat":"M4 Kadıköy - SGH Metro Hattı","hat_turu":"Metro","ilce":"Üsküdar","mahalle":"Ünalan Mahallesi"}},{"type":"Feature","geometry":{"type":"Point","coordinates":[28.907517,41.004213]},"properties":{"id":"R0191","kategori":"istasyon","ad":"Akşemsettin","kaynak":"ibb_rayli","hat":"T1 Kabataş - Bağcılar Tramvay Hattı","hat_turu":"Tramvay","ilce":"Zeytinburnu","mahalle":"Seyitnizam Mahallesi"}},{"type":"Feature","geometry":{"type":"Point","coordinates":[28.95142,41.005586]},"properties":{"id":"R0192","kategori":"istasyon","ad":"Yenikapı","kaynak":"ibb_rayli","hat":"M2 Yenikapı Seyrantepe - Hacıosman Metro Hattı","hat_turu":"Metro","ilce":"Fatih","mahalle":"Aksaray Mahallesi"}},{"type":"Feature","geometry":{"type":"Point","coordinates":[28.870638,41.03672]},"properties":{"id":"R0193","kategori":"istasyon","ad":"Üçyüzlü","kaynak":"ibb_rayli","hat":"M1B Yenikapı - Kirazlı Metro Hattı","hat_turu":"Metro","ilce":"Bağcılar","mahalle":"Merkez Mahallesi"}},{"type":"Feature","geometry":{"type":"Point","coordinates":[28.966698,41.009067]},"properties":{"id":"R0194","kategori":"istasyon","ad":"Beyazıt","kaynak":"ibb_rayli","hat":"T1 Kabataş - Bağcılar Tramvay Hattı","hat_turu":"Tramvay","ilce":"Fatih","mahalle":"Beyazıt Mahallesi"}},{"type":"Feature","geometry":{"type":"Point","coordinates":[28.889656,41.001699]},"properties":{"id":"R0195","kategori":"istasyon","ad":"Zeytinburnu","kaynak":"ibb_rayli","hat":"M1A Yenikapı - Atatürk Havalimanı Metro Hattı","hat_turu":"Metro","ilce":"Bakırköy","mahalle":"Osmaniye Mahallesi"}},{"type":"Feature","geometry":{"type":"Point","coordinates":[28.871987,41.084153]},"properties":{"id":"R0196","kategori":"istasyon","ad":"Cumhuriyet Mah.","kaynak":"ibb_rayli","hat":"T4 Topkapı - Mescid-i Selam Tramvay Hattı","hat_turu":"Tramvay","ilce":"Esenler","mahalle":"Oruçreis Mahallesi"}},{"type":"Feature","geometry":{"type":"Point","coordinates":[28.828554,40.986644]},"properties":{"id":"R0197","kategori":"istasyon","ad":"Dünya  Ticaret Merkezi","kaynak":"ibb_rayli","hat":"M1A Yenikapı - Atatürk Havalimanı Metro Hattı","hat_turu":"Metro","ilce":"Bakırköy","mahalle":"Yeşilköy Mahallesi"}},{"type":"Feature","geometry":{"type":"Point","coordinates":[29.108778,41.024155]},"properties":{"id":"R0198","kategori":"istasyon","ad":"Yamanevler","kaynak":"ibb_rayli","hat":"M5 Üsküdar - Çekmeköy Metro Hattı","hat_turu":"Metro","ilce":"Ümraniye","mahalle":"Yamanevler Mahallesi"}},{"type":"Feature","geometry":{"type":"Point","coordinates":[29.049008,40.978696]},"properties":{"id":"R0199","kategori":"istasyon","ad":"Feneryolu","kaynak":"ibb_rayli","hat":"Halkalı - Gebze Marmaray Yüzeysel Raylı Sistem Hattı","hat_turu":"Banliyö","ilce":"Kadıköy","mahalle":"Feneryolu Mahallesi"}},{"type":"Feature","geometry":{"type":"Point","coordinates":[29.256034,40.871303]},"properties":{"id":"R0200","kategori":"istasyon","ad":"Kaynarca","kaynak":"ibb_rayli","hat":"Halkalı - Gebze Marmaray Yüzeysel Raylı Sistem Hattı","hat_turu":"Banliyö","ilce":"Pendik","mahalle":"Kaynarca Mahallesi"}},{"type":"Feature","geometry":{"type":"Point","coordinates":[28.963542,41.079765]},"properties":{"id":"R0201","kategori":"istasyon","ad":"Nurtepe","kaynak":"ibb_rayli","hat":"M7 Yıldız - Mahmutbey Metro Hattı","hat_turu":"Metro","ilce":"Kâğıthane","mahalle":"Nurtepe Mahallesi"}},{"type":"Feature","geometry":{"type":"Point","coordinates":[29.293166,40.852289]},"properties":{"id":"R0202","kategori":"istasyon","ad":"Aydıntepe","kaynak":"ibb_rayli","hat":"Halkalı - Gebze Marmaray Yüzeysel Raylı Sistem Hattı","hat_turu":"Banliyö","ilce":"Tuzla","mahalle":"Aydıntepe Mahallesi"}},{"type":"Feature","geometry":{"type":"Point","coordinates":[29.156045,40.910015]},"properties":{"id":"R0203","kategori":"istasyon","ad":"Cevizli","kaynak":"ibb_rayli","hat":"Halkalı - Gebze Marmaray Yüzeysel Raylı Sistem Hattı","hat_turu":"Banliyö","ilce":"Kartal","mahalle":"Orhantepe Mahallesi"}},{"type":"Feature","geometry":{"type":"Point","coordinates":[28.881055,40.981733]},"properties":{"id":"R0204","kategori":"istasyon","ad":"Yenimahalle","kaynak":"ibb_rayli","hat":"Halkalı - Gebze Marmaray Yüzeysel Raylı Sistem Hattı","hat_turu":"Banliyö","ilce":"Bakırköy","mahalle":"Kartaltepe Mahallesi"}},{"type":"Feature","geometry":{"type":"Point","coordinates":[28.949633,41.079115]},"properties":{"id":"R0205","kategori":"istasyon","ad":"Alibeyköy","kaynak":"ibb_rayli","hat":"M7 Yıldız - Mahmutbey Metro Hattı","hat_turu":"Metro","ilce":"Eyüpsultan","mahalle":"Alibeyköy Mahallesi"}},{"type":"Feature","geometry":{"type":"Point","coordinates":[29.177353,40.890559]},"properties":{"id":"R0206","kategori":"istasyon","ad":"Başak","kaynak":"ibb_rayli","hat":"Halkalı - Gebze Marmaray Yüzeysel Raylı Sistem Hattı","hat_turu":"Banliyö","ilce":"Kartal","mahalle":"Kordonboyu Mahallesi"}},{"type":"Feature","geometry":{"type":"Point","coordinates":[28.973214,41.017475]},"properties":{"id":"R0207","kategori":"istasyon","ad":"Eminönü","kaynak":"ibb_rayli","hat":"T1 Kabataş - Bağcılar Tramvay Hattı","hat_turu":"Tramvay","ilce":"Fatih","mahalle":"Hobyar Mahallesi"}},{"type":"Feature","geometry":{"type":"Point","coordinates":[28.919538,41.041619]},"properties":{"id":"R0208","kategori":"istasyon","ad":"Topçular","kaynak":"ibb_rayli","hat":"T4 Topkapı - Mescid-i Selam Tramvay Hattı","hat_turu":"Tramvay","ilce":"Eyüpsultan","mahalle":"Topçular Mahallesi"}},{"type":"Feature","geometry":{"type":"Point","coordinates":[28.86307,40.995351]},"properties":{"id":"R0209","kategori":"istasyon","ad":"Bahçelievler","kaynak":"ibb_rayli","hat":"M1A Yenikapı - Atatürk Havalimanı Metro Hattı","hat_turu":"Metro","ilce":"Bahçelievler","mahalle":"Bahçelievler Mahallesi"}},{"type":"Feature","geometry":{"type":"Point","coordinates":[28.897956,41.03033]},"properties":{"id":"R0210","kategori":"istasyon","ad":"Terazidere","kaynak":"ibb_rayli","hat":"M1A Yenikapı - Atatürk Havalimanı Metro Hattı","hat_turu":"Metro","ilce":"Esenler","mahalle":"Namık Kemal Mahallesi"}},{"type":"Feature","geometry":{"type":"Point","coordinates":[29.023484,40.990876]},"properties":{"id":"R0211","kategori":"istasyon","ad":"İskele","kaynak":"ibb_rayli","hat":"T3 Kadıköy - Moda Nostaljik Tramvay Hattı","hat_turu":"Tramvay","ilce":"Kadıköy","mahalle":"Caferağa Mahallesi"}},{"type":"Feature","geometry":{"type":"Point","coordinates":[28.907239,41.040853]},"properties":{"id":"R0212","kategori":"istasyon","ad":"Sağmalcılar","kaynak":"ibb_rayli","hat":"M1A Yenikapı - Atatürk Havalimanı Metro Hattı","hat_turu":"Metro","ilce":"Bayrampaşa","mahalle":"İsmet Paşa Mahallesi"}},{"type":"Feature","geometry":{"type":"Point","coordinates":[28.866765,41.087908]},"properties":{"id":"R0213","kategori":"istasyon","ad":"50.Yıl","kaynak":"ibb_rayli","hat":"T4 Topkapı - Mescid-i Selam Tramvay Hattı","hat_turu":"Tramvay","ilce":"Sultangazi","mahalle":"50. Yıl Mahallesi"}},{"type":"Feature","geometry":{"type":"Point","coordinates":[29.005531,41.094301]},"properties":{"id":"R0214","kategori":"istasyon","ad":"Sanayi Mah.","kaynak":"ibb_rayli","hat":"M2 Yenikapı Seyrantepe - Hacıosman Metro Hattı","hat_turu":"Metro","ilce":"Beşiktaş","mahalle":"Konaklar Mahallesi"}},{"type":"Feature","geometry":{"type":"Point","coordinates":[29.153357,40.992156]},"properties":{"id":"R0215","kategori":"istasyon","ad":"Mevlana","kaynak":"ibb_rayli","hat":"M8 Bostancı - Dudullu Metro Hattı","hat_turu":"Metro","ilce":"Ataşehir","mahalle":"Mevlana Mahallesi"}},{"type":"Feature","geometry":{"type":"Point","coordinates":[29.007413,41.061994]},"properties":{"id":"R0216","kategori":"istasyon","ad":"Fulya","kaynak":"ibb_rayli","hat":"M7 Yıldız - Mahmutbey Metro Hattı","hat_turu":"Metro","ilce":"Beşiktaş","mahalle":"Gayrettepe Mahallesi"}},{"type":"Feature","geometry":{"type":"Point","coordinates":[29.009678,41.05411]},"properties":{"id":"R0217","kategori":"istasyon","ad":"Yıldız","kaynak":"ibb_rayli","hat":"M7 Yıldız - Mahmutbey Metro Hattı","hat_turu":"Metro","ilce":"Beşiktaş","mahalle":"Yıldız Mahallesi"}},{"type":"Feature","geometry":{"type":"Point","coordinates":[28.996097,41.101113]},"properties":{"id":"R0218","kategori":"istasyon","ad":"Seyrantepe","kaynak":"ibb_rayli","hat":"M2 Yenikapı Seyrantepe - Hacıosman Metro Hattı","hat_turu":"Metro","ilce":"Sarıyer","mahalle":"Huzur Mahallesi"}},{"type":"Feature","geometry":{"type":"Point","coordinates":[28.871035,41.017335]},"properties":{"id":"R0219","kategori":"istasyon","ad":"Akıncılar","kaynak":"ibb_rayli","hat":"T1 Kabataş - Bağcılar Tramvay Hattı","hat_turu":"Tramvay","ilce":"Güngören","mahalle":"Akıncılar Mahallesi"}},{"type":"Feature","geometry":{"type":"Point","coordinates":[28.943949,41.039562]},"properties":{"id":"R0220","kategori":"istasyon","ad":"Ayvansaray","kaynak":"ibb_rayli","hat":"T5 Eminönü - Alibeyköy Cep Otogarı Tramvay Hattı","hat_turu":"Tramvay","ilce":"Fatih","mahalle":"Ayvansaray Mahallesi"}},{"type":"Feature","geometry":{"type":"Point","coordinates":[28.941119,41.05673]},"properties":{"id":"R0221","kategori":"istasyon","ad":"Eyüpsultan Devlet Hastanesi","kaynak":"ibb_rayli","hat":"T5 Eminönü - Alibeyköy Cep Otogarı Tramvay Hattı","hat_turu":"Tramvay","ilce":"Eyüpsultan","mahalle":"Merkez Mahallesi"}},{"type":"Feature","geometry":{"type":"Point","coordinates":[28.942894,41.064777]},"properties":{"id":"R0222","kategori":"istasyon","ad":"Silahtarağa Mahallesi","kaynak":"ibb_rayli","hat":"T5 Eminönü - Alibeyköy Cep Otogarı Tramvay Hattı","hat_turu":"Tramvay","ilce":"Eyüpsultan","mahalle":"Silahtarağa Mahallesi"}},{"type":"Feature","geometry":{"type":"Point","coordinates":[28.974038,41.022773]},"properties":{"id":"R0223","kategori":"istasyon","ad":"Karaköy","kaynak":"ibb_rayli","hat":"F2 Karaköy - Beyoğlu Tünel Füniküler Hattı","hat_turu":"Füniküler","ilce":"Beyoğlu","mahalle":"Arap Cami Mahallesi"}},{"type":"Feature","geometry":{"type":"Point","coordinates":[28.974049,41.028421]},"properties":{"id":"R0224","kategori":"istasyon","ad":"Tünel","kaynak":"ibb_rayli","hat":"F2 Karaköy - Beyoğlu Tünel Füniküler Hattı","hat_turu":"Füniküler","ilce":"Beyoğlu","mahalle":"Şahkulu Mahallesi"}},{"type":"Feature","geometry":{"type":"Point","coordinates":[28.93298,41.054035]},"properties":{"id":"R0225","kategori":"istasyon","ad":"Pier Loti","kaynak":"ibb_rayli","hat":"TF2 Eyüp - Pier Loti Teleferik Hattı","hat_turu":"Teleferik","ilce":"Eyüpsultan","mahalle":"Merkez Mahallesi"}},{"type":"Feature","geometry":{"type":"Point","coordinates":[28.934068,41.050015]},"properties":{"id":"R0226","kategori":"istasyon","ad":"Eyüp","kaynak":"ibb_rayli","hat":"TF2 Eyüp - Pier Loti Teleferik Hattı","hat_turu":"Teleferik","ilce":"Eyüpsultan","mahalle":"Merkez Mahallesi"}},{"type":"Feature","geometry":{"type":"Point","coordinates":[28.99395,41.044737]},"properties":{"id":"R0227","kategori":"istasyon","ad":"Maçka","kaynak":"ibb_rayli","hat":"TF1 Maçka - Taşkışla Teleferik Hattı","hat_turu":"Teleferik","ilce":"Şişli","mahalle":"Harbiye Mahallesi"}},{"type":"Feature","geometry":{"type":"Point","coordinates":[28.990573,41.043632]},"properties":{"id":"R0228","kategori":"istasyon","ad":"Taşkışla","kaynak":"ibb_rayli","hat":"TF1 Maçka - Taşkışla Teleferik Hattı","hat_turu":"Teleferik","ilce":"Şişli","mahalle":"Harbiye Mahallesi"}},{"type":"Feature","geometry":{"type":"Point","coordinates":[28.946846,41.1213]},"properties":{"id":"R0229","kategori":"istasyon","ad":"Hasdal","kaynak":"ibb_rayli","hat":"M11 Gayrettepe - İstanbul Havalimanı Metro Hattı","hat_turu":"Metro","ilce":"Eyüpsultan","mahalle":"Mimar Sinan Mahallesi"}},{"type":"Feature","geometry":{"type":"Point","coordinates":[28.768533,41.256408]},"properties":{"id":"R0230","kategori":"istasyon","ad":"Yeni Havalimanı - 2","kaynak":"ibb_rayli","hat":"M11 Gayrettepe - İstanbul Havalimanı Metro Hattı","hat_turu":"Metro","ilce":"Arnavutköy","mahalle":"İmrahor Mahallesi"}},{"type":"Feature","geometry":{"type":"Point","coordinates":[28.712767,41.255433]},"properties":{"id":"R0231","kategori":"istasyon","ad":"Yeni Havalimanı - 3","kaynak":"ibb_rayli","hat":"M11 Gayrettepe - İstanbul Havalimanı Metro Hattı","hat_turu":"Metro","ilce":"Arnavutköy","mahalle":"Tayakadın Mahallesi"}},{"type":"Feature","geometry":{"type":"Point","coordinates":[28.742639,41.255936]},"properties":{"id":"R0232","kategori":"istasyon","ad":"Yeni Havalimanı - 1","kaynak":"ibb_rayli","hat":"M11 Gayrettepe - İstanbul Havalimanı Metro Hattı","hat_turu":"Metro","ilce":"Arnavutköy","mahalle":"İmrahor Mahallesi"}},{"type":"Feature","geometry":{"type":"Point","coordinates":[28.883667,41.176956]},"properties":{"id":"R0233","kategori":"istasyon","ad":"Göktürk","kaynak":"ibb_rayli","hat":"M11 Gayrettepe - İstanbul Havalimanı Metro Hattı","hat_turu":"Metro","ilce":"Eyüpsultan","mahalle":"Göktürk Merkez Mahallesi"}},{"type":"Feature","geometry":{"type":"Point","coordinates":[28.808929,41.24296]},"properties":{"id":"R0234","kategori":"istasyon","ad":"İhsaniye","kaynak":"ibb_rayli","hat":"M11 Gayrettepe - İstanbul Havalimanı Metro Hattı","hat_turu":"Metro","ilce":"Eyüpsultan","mahalle":"İhsaniye Mahallesi"}},{"type":"Feature","geometry":{"type":"Point","coordinates":[28.910227,41.15913]},"properties":{"id":"R0235","kategori":"istasyon","ad":"Kemerburgaz","kaynak":"ibb_rayli","hat":"M11 Gayrettepe - İstanbul Havalimanı Metro Hattı","hat_turu":"Metro","ilce":"Eyüpsultan","mahalle":"Mithatpaşa Mahallesi"}},{"type":"Feature","geometry":{"type":"Point","coordinates":[28.976364,41.080165]},"properties":{"id":"R0236","kategori":"istasyon","ad":"Kağıthane","kaynak":"ibb_rayli","hat":"M11 Gayrettepe - İstanbul Havalimanı Metro Hattı","hat_turu":"Metro","ilce":"Kâğıthane","mahalle":"Çağlayan Mahallesi"}},{"type":"Feature","geometry":{"type":"Point","coordinates":[29.010907,41.06719]},"properties":{"id":"R0237","kategori":"istasyon","ad":"Gayrettepe","kaynak":"ibb_rayli","hat":"Gayrettepe - İstanbul Havalimanı Metro Hattı","hat_turu":"Metro","ilce":"Şişli","mahalle":"Esentepe Mahallesi"}},{"type":"Feature","geometry":{"type":"Point","coordinates":[29.311424,40.906545]},"properties":{"id":"R0238","kategori":"istasyon","ad":"Sabiha Gökçen","kaynak":"ibb_rayli","hat":"M4 Kadıköy - SGH Metro Hattı","hat_turu":"Metro","ilce":"Pendik","mahalle":"Sanayi Mahallesi"}},{"type":"Feature","geometry":{"type":"Point","coordinates":[29.296283,40.910134]},"properties":{"id":"R0239","kategori":"istasyon","ad":"Kurtköy","kaynak":"ibb_rayli","hat":"M4 Kadıköy - SGH Metro Hattı","hat_turu":"Metro","ilce":"Pendik","mahalle":"Kurtköy Mahallesi"}},{"type":"Feature","geometry":{"type":"Point","coordinates":[29.275119,40.903741]},"properties":{"id":"R0240","kategori":"istasyon","ad":"Yayalar - Şeyhli","kaynak":"ibb_rayli","hat":"M4 Kadıköy - SGH Metro Hattı","hat_turu":"Metro","ilce":"Pendik","mahalle":"Yayalar Mahallesi"}},{"type":"Feature","geometry":{"type":"Point","coordinates":[29.262404,40.888642]},"properties":{"id":"R0241","kategori":"istasyon","ad":"Fevzi Çakmak - Hastane","kaynak":"ibb_rayli","hat":"M4 Kadıköy - SGH Metro Hattı","hat_turu":"Metro","ilce":"Pendik","mahalle":"Fevzi Çakmak Mahallesi"}},{"type":"Feature","geometry":{"type":"Point","coordinates":[29.156212,41.000148]},"properties":{"id":"R0242","kategori":"istasyon","ad":"İmes","kaynak":"ibb_rayli","hat":"M8 Bostancı - Dudullu Metro Hattı","hat_turu":"Metro","ilce":"Ümraniye","mahalle":"Dudullu OSB Mahallesi"}},{"type":"Feature","geometry":{"type":"Point","coordinates":[29.152667,41.031243]},"properties":{"id":"R0243","kategori":"istasyon","ad":"Parseller","kaynak":"ibb_rayli","hat":"M8 Bostancı - Dudullu Metro Hattı","hat_turu":"Metro","ilce":"Ümraniye","mahalle":"Parseller Mahallesi"}},{"type":"Feature","geometry":{"type":"Point","coordinates":[29.159551,41.022634]},"properties":{"id":"R0244","kategori":"istasyon","ad":"Huzur","kaynak":"ibb_rayli","hat":"M8 Bostancı - Dudullu Metro Hattı","hat_turu":"Metro","ilce":"Ümraniye","mahalle":"Adem Yavuz Mahallesi"}},{"type":"Feature","geometry":{"type":"Point","coordinates":[28.963307,41.020908]},"properties":{"id":"R0245","kategori":"istasyon","ad":"Küçükpazar","kaynak":"ibb_rayli","hat":"T5 Eminönü - Alibeyköy Cep Otogarı Tramvay Hattı","hat_turu":"Tramvay","ilce":"Fatih","mahalle":"Sarıdemir Mahallesi"}},{"type":"Feature","geometry":{"type":"Point","coordinates":[29.126425,40.978985]},"properties":{"id":"R0246","kategori":"istasyon","ad":"İçerenköy","kaynak":"ibb_rayli","hat":"M8 Bostancı - Dudullu Metro Hattı","hat_turu":"Metro","ilce":"Ataşehir","mahalle":"İçerenköy Mahallesi"}},{"type":"Feature","geometry":{"type":"Point","coordinates":[29.0999,40.977502]},"properties":{"id":"R0247","kategori":"istasyon","ad":"Kozyatağı","kaynak":"ibb_rayli","hat":"M8 Bostancı - Dudullu Metro Hattı","hat_turu":"Metro","ilce":"Ataşehir","mahalle":"İçerenköy Mahallesi"}},{"type":"Feature","geometry":{"type":"Point","coordinates":[29.086718,40.966777]},"properties":{"id":"R0248","kategori":"istasyon","ad":"Ayşe Kadın","kaynak":"ibb_rayli","hat":"M8 Bostancı - Dudullu Metro Hattı","hat_turu":"Metro","ilce":"Kadıköy","mahalle":"19 Mayıs Mahallesi"}},{"type":"Feature","geometry":{"type":"Point","coordinates":[29.097723,40.950964]},"properties":{"id":"R0249","kategori":"istasyon","ad":"Bostancı","kaynak":"ibb_rayli","hat":"M8 Bostancı - Dudullu Metro Hattı","hat_turu":"Metro","ilce":"Maltepe","mahalle":"Altıntepe Mahallesi"}},{"type":"Feature","geometry":{"type":"Point","coordinates":[29.093708,40.960547]},"properties":{"id":"R0250","kategori":"istasyon","ad":"Emin Ali Paşa","kaynak":"ibb_rayli","hat":"M8 Bostancı - Dudullu Metro Hattı","hat_turu":"Metro","ilce":"Kadıköy","mahalle":"Bostancı Mahallesi"}},{"type":"Feature","geometry":{"type":"Point","coordinates":[29.137731,40.98469]},"properties":{"id":"R0251","kategori":"istasyon","ad":"Kayışdağı","kaynak":"ibb_rayli","hat":"M8 Bostancı - Dudullu Metro Hattı","hat_turu":"Metro","ilce":"Ataşehir","mahalle":"Kayışdağı Mahallesi"}},{"type":"Feature","geometry":{"type":"Point","coordinates":[29.163287,41.015233]},"properties":{"id":"R0252","kategori":"istasyon","ad":"Dudullu","kaynak":"ibb_rayli","hat":"M8 Bostancı - Dudullu Metro Hattı","hat_turu":"Metro","ilce":"Ümraniye","mahalle":"Yukarı Dudullu Mahallesi"}},{"type":"Feature","geometry":{"type":"Point","coordinates":[29.111741,40.978918]},"properties":{"id":"R0253","kategori":"istasyon","ad":"Küçükbakkalköy","kaynak":"ibb_rayli","hat":"M8 Bostancı - Dudullu Metro Hattı","hat_turu":"Metro","ilce":"Ataşehir","mahalle":"İçerenköy Mahallesi"}},{"type":"Feature","geometry":{"type":"Point","coordinates":[29.161855,41.007188]},"properties":{"id":"R0254","kategori":"istasyon","ad":"Modoko - Keyap","kaynak":"ibb_rayli","hat":"M8 Bostancı - Dudullu Metro Hattı","hat_turu":"Metro","ilce":"Ümraniye","mahalle":"Esenşehir Mahallesi"}},{"type":"Feature","geometry":{"type":"Point","coordinates":[28.97005,41.018251]},"properties":{"id":"R0255","kategori":"istasyon","ad":"Eminönü","kaynak":"ibb_rayli","hat":"T5 Eminönü - Alibeyköy Cep Otogarı Tramvay Hattı","hat_turu":"Tramvay","ilce":"Fatih","mahalle":"Rüstempaşa Mahallesi"}},{"type":"Feature","geometry":{"type":"Point","coordinates":[28.790453,41.113356]},"properties":{"id":"R0256","kategori":"istasyon","ad":"Onurkent","kaynak":"ibb_rayli","hat":"M3 Kirazlı - Kayaşehir Merkez Metro Hattı","hat_turu":"Metro","ilce":"Başakşehir","mahalle":"Başakşehir Mahallesi"}},{"type":"Feature","geometry":{"type":"Point","coordinates":[28.777879,41.10331]},"properties":{"id":"R0257","kategori":"istasyon","ad":"Şehir Hastanesi","kaynak":"ibb_rayli","hat":"M3 Kirazlı - Kayaşehir Merkez Metro Hattı","hat_turu":"Metro","ilce":"Başakşehir","mahalle":"Başakşehir Mahallesi"}},{"type":"Feature","geometry":{"type":"Point","coordinates":[28.767871,41.107395]},"properties":{"id":"R0258","kategori":"istasyon","ad":"Toplu Konutlar","kaynak":"ibb_rayli","hat":"M3 Kirazlı - Kayaşehir Merkez Metro Hattı","hat_turu":"Metro","ilce":"Başakşehir","mahalle":"Kayabaşı Mahallesi"}},{"type":"Feature","geometry":{"type":"Point","coordinates":[28.766509,41.119551]},"properties":{"id":"R0259","kategori":"istasyon","ad":"Kayaşehir Merkez","kaynak":"ibb_rayli","hat":"M3 Kirazlı - Kayaşehir Merkez Metro Hattı","hat_turu":"Metro","ilce":"Başakşehir","mahalle":"Kayabaşı Mahallesi"}},{"type":"Feature","geometry":{"type":"Point","coordinates":[28.93796,41.045517]},"properties":{"id":"R0260","kategori":"istasyon","ad":"Feshane","kaynak":"ibb_rayli","hat":"T5 Eminönü - Alibeyköy Cep Otogarı Tramvay Hattı","hat_turu":"Tramvay","ilce":"Eyüpsultan","mahalle":"Nişancı Mahallesi"}}]}