{"type":"FeatureCollection","kaynak":"OpenStreetMap katkıcıları, ODbL 1.0, Overpass API ile çekildi","cekim_tarihi":"2026-09-18","features":[{"type":"Feature","geometry":{"type":"Point","coordinates":[28.876585,41.015976]},"properties":{"osm_id":"node/3128898837","kategori":"doviz","ad":"Atılım Döviz"}},{"type":"Feature","geometry":{"type":"Point","coordinates":[28.94698,41.01995]},"properties":{"osm_id":"node/3498778695","kategori":"doviz","ad":"Fatih Döviz"}},{"type":"Feature","geometry":{"type":"Point","coordinates":[28.959199,41.00975]},"properties":{"osm_id":"node/3499005706","kategori":"doviz","ad":null}},{"type":"Feature","geometry":{"type":"Point","coordinates":[28.967592,41.008905]},"properties":{"osm_id":"node/3499019222","kategori":"doviz","ad":"Beyazit Döviz"}},{"type":"Feature","geometry":{"type":"Point","coordinates":[28.979423,41.010093]},"properties":{"osm_id":"node/3499181496","kategori":"doviz","ad":null}},{"type":"Feature","geometry":{"type":"Point","coordinates":[28.797455,41.004653]},"properties":{"osm_id":"node/3671734272","kategori":"doviz","ad":null}},{"type":"Feature","geometry":{"type":"Point","coordinates":[28.9591,41.006545]},"properties":{"osm_id":"node/4129048089","kategori":"doviz","ad":"Sirin Doviz"}},{"type":"Feature","geometry":{"type":"Point","coordinates":[28.97542,41.014979]},"properties":{"osm_id":"node/4154257189","kategori":"doviz","ad":"Poyraz & Aksa"}},{"type":"Feature","geometry":{"type":"Point","coordinates":[28.954601,41.009334]},"properties":{"osm_id":"node/4286623823","kategori":"doviz","ad":"Dövizci"}},{"type":"Feature","geometry":{"type":"Point","coordinates":[28.859816,41.002879]},"properties":{"osm_id":"node/4430466297","kategori":"doviz","ad":"Ulusu Döviz"}},{"type":"Feature","geometry":{"type":"Point","coordinates":[28.888963,41.071956]},"properties":{"osm_id":"node/4562247186","kategori":"doviz","ad":"Barış Döviz"}},{"type":"Feature","geometry":{"type":"Point","coordinates":[29.131647,40.924346]},"properties":{"osm_id":"node/4562265799","kategori":"doviz","ad":"Çakmakçı Döviz"}},{"type":"Feature","geometry":{"type":"Point","coordinates":[29.133293,40.923382]},"properties":{"osm_id":"node/4564042373","kategori":"doviz","ad":"Diyet Döviz"}},{"type":"Feature","geometry":{"type":"Point","coordinates":[28.913277,41.058682]},"properties":{"osm_id":"node/4569277998","kategori":"doviz","ad":"Anadolu"}},{"type":"Feature","geometry":{"type":"Point","coordinates":[29.093558,41.094574]},"properties":{"osm_id":"node/4581492770","kategori":"doviz","ad":"Koza Döviz"}},{"type":"Feature","geometry":{"type":"Point","coordinates":[29.097794,41.095056]},"properties":{"osm_id":"node/4583755633","kategori":"doviz","ad":null}},{"type":"Feature","geometry":{"type":"Point","coordinates":[28.87143,40.989648]},"properties":{"osm_id":"node/4605636603","kategori":"doviz","ad":"Bulut Döviz"}},{"type":"Feature","geometry":{"type":"Point","coordinates":[28.983472,41.051395]},"properties":{"osm_id":"node/4764877344","kategori":"doviz","ad":"Arı Döviz"}},{"type":"Feature","geometry":{"type":"Point","coordinates":[28.984265,41.052447]},"properties":{"osm_id":"node/4767637036","kategori":"doviz","ad":"Alp Doviz"}},{"type":"Feature","geometry":{"type":"Point","coordinates":[28.942755,41.024088]},"properties":{"osm_id":"node/4838556723","kategori":"doviz","ad":"مكتب الغباني"}},{"type":"Feature","geometry":{"type":"Point","coordinates":[28.946564,41.013477]},"properties":{"osm_id":"node/5073094757","kategori":"doviz","ad":"Altan Döviz"}},{"type":"Feature","geometry":{"type":"Point","coordinates":[28.946432,41.010431]},"properties":{"osm_id":"node/5075929050","kategori":"doviz","ad":"Adirhan Doviz"}},{"type":"Feature","geometry":{"type":"Point","coordinates":[28.947638,41.010192]},"properties":{"osm_id":"node/5075929056","kategori":"doviz","ad":"Iznik Doviz"}},{"type":"Feature","geometry":{"type":"Point","coordinates":[28.949786,41.011804]},"properties":{"osm_id":"node/5075962040","kategori":"doviz","ad":"doviz"}},{"type":"Feature","geometry":{"type":"Point","coordinates":[28.950035,41.011477]},"properties":{"osm_id":"node/5075962043","kategori":"doviz","ad":"Kulunkoglu doviz"}},{"type":"Feature","geometry":{"type":"Point","coordinates":[28.9548,41.009728]},"properties":{"osm_id":"node/5106111905","kategori":"doviz","ad":"Elmacıoğlu Döviz"}},{"type":"Feature","geometry":{"type":"Point","coordinates":[28.955317,41.009714]},"properties":{"osm_id":"node/5106111911","kategori":"doviz","ad":"Uygur Döviz"}},{"type":"Feature","geometry":{"type":"Point","coordinates":[28.956929,41.009695]},"properties":{"osm_id":"node/5106111914","kategori":"doviz","ad":"Olgaç Döviz"}},{"type":"Feature","geometry":{"type":"Point","coordinates":[28.956013,41.012532]},"properties":{"osm_id":"node/5106118277","kategori":"doviz","ad":"Cengizler Döviz"}},{"type":"Feature","geometry":{"type":"Point","coordinates":[28.953909,41.009798]},"properties":{"osm_id":"node/5106118310","kategori":"doviz","ad":"Gürcan Döviz"}},{"type":"Feature","geometry":{"type":"Point","coordinates":[28.938641,41.011572]},"properties":{"osm_id":"node/5106133720","kategori":"doviz","ad":"Alim Döviz"}},{"type":"Feature","geometry":{"type":"Point","coordinates":[28.97651,41.014204]},"properties":{"osm_id":"node/5108837442","kategori":"doviz","ad":"Sembol Döviz"}},{"type":"Feature","geometry":{"type":"Point","coordinates":[28.975777,41.008184]},"properties":{"osm_id":"node/5108843043","kategori":"doviz","ad":"Arkent Doviz"}},{"type":"Feature","geometry":{"type":"Point","coordinates":[28.976154,41.008091]},"properties":{"osm_id":"node/5108843050","kategori":"doviz","ad":"Change Office"}},{"type":"Feature","geometry":{"type":"Point","coordinates":[28.974639,41.008273]},"properties":{"osm_id":"node/5108843750","kategori":"doviz","ad":"Çağatay Döviz A. Ş."}},{"type":"Feature","geometry":{"type":"Point","coordinates":[28.933423,41.014474]},"properties":{"osm_id":"node/5109654687","kategori":"doviz","ad":"Funda Döviz"}},{"type":"Feature","geometry":{"type":"Point","coordinates":[28.958095,41.012918]},"properties":{"osm_id":"node/5110342197","kategori":"doviz","ad":"Gökşen döviz"}},{"type":"Feature","geometry":{"type":"Point","coordinates":[28.975462,41.014905]},"properties":{"osm_id":"node/5110345250","kategori":"doviz","ad":"Döviz"}},{"type":"Feature","geometry":{"type":"Point","coordinates":[28.973756,41.015696]},"properties":{"osm_id":"node/5110345259","kategori":"doviz","ad":"Döviz"}},{"type":"Feature","geometry":{"type":"Point","coordinates":[28.972325,41.015398]},"properties":{"osm_id":"node/5110345278","kategori":"doviz","ad":"Zeki döviz"}},{"type":"Feature","geometry":{"type":"Point","coordinates":[28.971295,41.014891]},"properties":{"osm_id":"node/5110345315","kategori":"doviz","ad":"Angün döviz"}},{"type":"Feature","geometry":{"type":"Point","coordinates":[28.974972,41.015043]},"properties":{"osm_id":"node/5110347249","kategori":"doviz","ad":"Ozmernler döviz"}},{"type":"Feature","geometry":{"type":"Point","coordinates":[28.95966,41.009261]},"properties":{"osm_id":"node/5111222095","kategori":"doviz","ad":"Taç Döviz"}},{"type":"Feature","geometry":{"type":"Point","coordinates":[28.959553,41.009277]},"properties":{"osm_id":"node/5111222096","kategori":"doviz","ad":"Martur doviz"}},{"type":"Feature","geometry":{"type":"Point","coordinates":[28.957686,41.009512]},"properties":{"osm_id":"node/5111222105","kategori":"doviz","ad":"Emre gold"}},{"type":"Feature","geometry":{"type":"Point","coordinates":[28.95745,41.009496]},"properties":{"osm_id":"node/5111222106","kategori":"doviz","ad":"Ats doviz"}},{"type":"Feature","geometry":{"type":"Point","coordinates":[28.959218,41.009848]},"properties":{"osm_id":"node/5112728902","kategori":"doviz","ad":"Gürler Döviz"}},{"type":"Feature","geometry":{"type":"Point","coordinates":[28.969651,41.014764]},"properties":{"osm_id":"node/5112736049","kategori":"doviz","ad":"Aypek Döviz"}},{"type":"Feature","geometry":{"type":"Point","coordinates":[28.967587,41.013567]},"properties":{"osm_id":"node/5112739258","kategori":"doviz","ad":"Ak Döviz"}},{"type":"Feature","geometry":{"type":"Point","coordinates":[28.951698,41.007551]},"properties":{"osm_id":"node/5112834034","kategori":"doviz","ad":"Döviz"}},{"type":"Feature","geometry":{"type":"Point","coordinates":[28.95293,41.008184]},"properties":{"osm_id":"node/5112834075","kategori":"doviz","ad":"Koç döviz"}},{"type":"Feature","geometry":{"type":"Point","coordinates":[28.951656,41.008993]},"properties":{"osm_id":"node/5112834108","kategori":"doviz","ad":"Ergün döviz"}},{"type":"Feature","geometry":{"type":"Point","coordinates":[28.953281,41.0076]},"properties":{"osm_id":"node/5112966987","kategori":"doviz","ad":"Lider döviz"}},{"type":"Feature","geometry":{"type":"Point","coordinates":[28.953709,41.008113]},"properties":{"osm_id":"node/5113128231","kategori":"doviz","ad":"Tosunlar Döviz"}},{"type":"Feature","geometry":{"type":"Point","coordinates":[28.95372,41.00779]},"properties":{"osm_id":"node/5113128247","kategori":"doviz","ad":"Yılmaz Döviz"}},{"type":"Feature","geometry":{"type":"Point","coordinates":[28.953835,41.007547]},"properties":{"osm_id":"node/5113128250","kategori":"doviz","ad":"Kiziroğlu Haşimioğlu"}},{"type":"Feature","geometry":{"type":"Point","coordinates":[28.951056,41.016725]},"properties":{"osm_id":"node/5113500803","kategori":"doviz","ad":"Semen döviz"}},{"type":"Feature","geometry":{"type":"Point","coordinates":[28.978728,41.008765]},"properties":{"osm_id":"node/5113620617","kategori":"doviz","ad":"Change excahnge"}},{"type":"Feature","geometry":{"type":"Point","coordinates":[28.966495,41.009467]},"properties":{"osm_id":"node/5115929115","kategori":"doviz","ad":"Beyazıt Döviz"}},{"type":"Feature","geometry":{"type":"Point","coordinates":[28.931804,41.003794]},"properties":{"osm_id":"node/5115933215","kategori":"doviz","ad":"mo-su 08:00-20:00"}},{"type":"Feature","geometry":{"type":"Point","coordinates":[28.969907,41.010163]},"properties":{"osm_id":"node/5115939927","kategori":"doviz","ad":"Yıldız Döviz"}},{"type":"Feature","geometry":{"type":"Point","coordinates":[28.969729,41.010865]},"properties":{"osm_id":"node/5115939935","kategori":"doviz","ad":"Borsa Gold"}},{"type":"Feature","geometry":{"type":"Point","coordinates":[28.969705,41.011014]},"properties":{"osm_id":"node/5115939936","kategori":"doviz","ad":"Guven Doviz"}},{"type":"Feature","geometry":{"type":"Point","coordinates":[28.968095,41.012157]},"properties":{"osm_id":"node/5115939945","kategori":"doviz","ad":"Mako Döviz"}},{"type":"Feature","geometry":{"type":"Point","coordinates":[28.954261,41.007875]},"properties":{"osm_id":"node/5130434312","kategori":"doviz","ad":"Hakel Döviz"}},{"type":"Feature","geometry":{"type":"Point","coordinates":[28.946996,41.019942]},"properties":{"osm_id":"node/5243949924","kategori":"doviz","ad":"Fatih Döviz"}},{"type":"Feature","geometry":{"type":"Point","coordinates":[28.946275,41.020682]},"properties":{"osm_id":"node/5243949942","kategori":"doviz","ad":"Doviz"}},{"type":"Feature","geometry":{"type":"Point","coordinates":[28.968921,41.016335]},"properties":{"osm_id":"node/5244795878","kategori":"doviz","ad":"Sancak Döviz"}},{"type":"Feature","geometry":{"type":"Point","coordinates":[28.969606,41.015315]},"properties":{"osm_id":"node/5244796197","kategori":"doviz","ad":"Narin Döviz"}},{"type":"Feature","geometry":{"type":"Point","coordinates":[28.971268,41.009594]},"properties":{"osm_id":"node/5244807390","kategori":"doviz","ad":"ALB Döviz"}},{"type":"Feature","geometry":{"type":"Point","coordinates":[28.969889,41.010236]},"properties":{"osm_id":"node/5244807396","kategori":"doviz","ad":"Yıldız Döviz"}},{"type":"Feature","geometry":{"type":"Point","coordinates":[28.969081,41.0085]},"properties":{"osm_id":"node/5244807875","kategori":"doviz","ad":"Ağaoğlu Döviz"}},{"type":"Feature","geometry":{"type":"Point","coordinates":[28.969118,41.011154]},"properties":{"osm_id":"node/5244811473","kategori":"doviz","ad":"Nadir Döviz"}},{"type":"Feature","geometry":{"type":"Point","coordinates":[28.96831,41.012069]},"properties":{"osm_id":"node/5244811479","kategori":"doviz","ad":"Atlas Döviz"}},{"type":"Feature","geometry":{"type":"Point","coordinates":[29.094651,40.954916]},"properties":{"osm_id":"node/5272473023","kategori":"doviz","ad":null}},{"type":"Feature","geometry":{"type":"Point","coordinates":[29.025774,40.990891]},"properties":{"osm_id":"node/5291750322","kategori":"doviz","ad":null}},{"type":"Feature","geometry":{"type":"Point","coordinates":[29.274213,40.973265]},"properties":{"osm_id":"node/5329311687","kategori":"doviz","ad":"Kolay"}},{"type":"Feature","geometry":{"type":"Point","coordinates":[29.270019,40.962993]},"properties":{"osm_id":"node/5329337927","kategori":"doviz","ad":"Alharam"}},{"type":"Feature","geometry":{"type":"Point","coordinates":[28.974343,41.00826]},"properties":{"osm_id":"node/5372736552","kategori":"doviz","ad":"Karaman Döviz"}},{"type":"Feature","geometry":{"type":"Point","coordinates":[28.968596,41.011106]},"properties":{"osm_id":"node/5451290925","kategori":"doviz","ad":null}},{"type":"Feature","geometry":{"type":"Point","coordinates":[28.976253,41.032375]},"properties":{"osm_id":"node/5665685226","kategori":"doviz","ad":"Günaydın Döviz"}},{"type":"Feature","geometry":{"type":"Point","coordinates":[28.983423,41.035826]},"properties":{"osm_id":"node/5666215777","kategori":"doviz","ad":"King Travel"}},{"type":"Feature","geometry":{"type":"Point","coordinates":[28.913815,41.021287]},"properties":{"osm_id":"node/5667618796","kategori":"doviz","ad":"Esra Döviz"}},{"type":"Feature","geometry":{"type":"Point","coordinates":[28.904592,40.999689]},"properties":{"osm_id":"node/5667634517","kategori":"doviz","ad":"fettahaoğlu Döviz"}},{"type":"Feature","geometry":{"type":"Point","coordinates":[28.907125,41.004281]},"properties":{"osm_id":"node/5667637472","kategori":"doviz","ad":"Atapark Döviz"}},{"type":"Feature","geometry":{"type":"Point","coordinates":[28.908492,41.004477]},"properties":{"osm_id":"node/5667640740","kategori":"doviz","ad":"döviz"}},{"type":"Feature","geometry":{"type":"Point","coordinates":[28.912578,40.999424]},"properties":{"osm_id":"node/5667642946","kategori":"doviz","ad":"IRMAK DÖVİZ"}},{"type":"Feature","geometry":{"type":"Point","coordinates":[28.904187,40.988441]},"properties":{"osm_id":"node/5667659685","kategori":"doviz","ad":"Irmak"}},{"type":"Feature","geometry":{"type":"Point","coordinates":[28.904005,40.991974]},"properties":{"osm_id":"node/5667661379","kategori":"doviz","ad":"Arabaoğlu"}},{"type":"Feature","geometry":{"type":"Point","coordinates":[28.904029,40.992342]},"properties":{"osm_id":"node/5667661743","kategori":"doviz","ad":"Kristal Döviz"}},{"type":"Feature","geometry":{"type":"Point","coordinates":[28.903664,40.994524]},"properties":{"osm_id":"node/5667662153","kategori":"doviz","ad":"Döviz"}},{"type":"Feature","geometry":{"type":"Point","coordinates":[28.855167,41.062992]},"properties":{"osm_id":"node/5667672712","kategori":"doviz","ad":"İfa Döviz"}},{"type":"Feature","geometry":{"type":"Point","coordinates":[28.838365,41.054148]},"properties":{"osm_id":"node/5667674992","kategori":"doviz","ad":"KOZA DÖVIZ"}},{"type":"Feature","geometry":{"type":"Point","coordinates":[28.837974,41.053726]},"properties":{"osm_id":"node/5667675011","kategori":"doviz","ad":"Koza"}},{"type":"Feature","geometry":{"type":"Point","coordinates":[28.847284,41.043047]},"properties":{"osm_id":"node/5667702815","kategori":"doviz","ad":"Piyadeoğlu"}},{"type":"Feature","geometry":{"type":"Point","coordinates":[28.859577,41.040526]},"properties":{"osm_id":"node/5667722101","kategori":"doviz","ad":"Volkan Döviz"}},{"type":"Feature","geometry":{"type":"Point","coordinates":[28.858311,41.034529]},"properties":{"osm_id":"node/5667722105","kategori":"doviz","ad":"Döviz"}},{"type":"Feature","geometry":{"type":"Point","coordinates":[28.857271,41.023268]},"properties":{"osm_id":"node/5667748646","kategori":"doviz","ad":"Döviz"}},{"type":"Feature","geometry":{"type":"Point","coordinates":[28.983419,41.035894]},"properties":{"osm_id":"node/5710047223","kategori":"doviz","ad":"Hakki Zade 1864"}},{"type":"Feature","geometry":{"type":"Point","coordinates":[28.973649,41.025889]},"properties":{"osm_id":"node/5715211322","kategori":"doviz","ad":null}},{"type":"Feature","geometry":{"type":"Point","coordinates":[28.980766,41.034837]},"properties":{"osm_id":"node/5715714442","kategori":"doviz","ad":null}},{"type":"Feature","geometry":{"type":"Point","coordinates":[28.985285,41.03633]},"properties":{"osm_id":"node/5715720937","kategori":"doviz","ad":null}},{"type":"Feature","geometry":{"type":"Point","coordinates":[28.984107,41.036032]},"properties":{"osm_id":"node/5715720938","kategori":"doviz","ad":"Nizam Döviz"}},{"type":"Feature","geometry":{"type":"Point","coordinates":[28.975298,41.030128]},"properties":{"osm_id":"node/5718181834","kategori":"doviz","ad":null}},{"type":"Feature","geometry":{"type":"Point","coordinates":[28.779244,40.991743]},"properties":{"osm_id":"node/5825443453","kategori":"doviz","ad":"Topallıoğlu Döviz"}},{"type":"Feature","geometry":{"type":"Point","coordinates":[28.956098,41.012249]},"properties":{"osm_id":"node/5956947987","kategori":"doviz","ad":null}},{"type":"Feature","geometry":{"type":"Point","coordinates":[29.1212,40.978332]},"properties":{"osm_id":"node/6018139567","kategori":"doviz","ad":"Rafine Döviz"}},{"type":"Feature","geometry":{"type":"Point","coordinates":[28.98384,41.035955]},"properties":{"osm_id":"node/6185588864","kategori":"doviz","ad":"Çetin Döviz"}},{"type":"Feature","geometry":{"type":"Point","coordinates":[28.984061,41.036019]},"properties":{"osm_id":"node/6185756948","kategori":"doviz","ad":"Change exchange wechsel cambio"}},{"type":"Feature","geometry":{"type":"Point","coordinates":[28.974885,41.025413]},"properties":{"osm_id":"node/6185937311","kategori":"doviz","ad":null}},{"type":"Feature","geometry":{"type":"Point","coordinates":[28.975143,41.024125]},"properties":{"osm_id":"node/6185937329","kategori":"doviz","ad":"Sayar"}},{"type":"Feature","geometry":{"type":"Point","coordinates":[28.971968,41.008461]},"properties":{"osm_id":"node/6255578648","kategori":"doviz","ad":"Biblos"}},{"type":"Feature","geometry":{"type":"Point","coordinates":[28.798112,41.004341]},"properties":{"osm_id":"node/6262843887","kategori":"doviz","ad":null}},{"type":"Feature","geometry":{"type":"Point","coordinates":[28.797415,41.004936]},"properties":{"osm_id":"node/6263471485","kategori":"doviz","ad":null}},{"type":"Feature","geometry":{"type":"Point","coordinates":[28.796426,40.986104]},"properties":{"osm_id":"node/6264767486","kategori":"doviz","ad":null}},{"type":"Feature","geometry":{"type":"Point","coordinates":[28.874471,40.978991]},"properties":{"osm_id":"node/6383694284","kategori":"doviz","ad":"Mikro Döviz"}},{"type":"Feature","geometry":{"type":"Point","coordinates":[28.874526,40.978718]},"properties":{"osm_id":"node/6383694901","kategori":"doviz","ad":"Ordu Döviz"}},{"type":"Feature","geometry":{"type":"Point","coordinates":[28.966249,41.008934]},"properties":{"osm_id":"node/6454239685","kategori":"doviz","ad":"Artvin Döviz"}},{"type":"Feature","geometry":{"type":"Point","coordinates":[28.962884,41.009189]},"properties":{"osm_id":"node/6461554485","kategori":"doviz","ad":"Servet Döviz"}},{"type":"Feature","geometry":{"type":"Point","coordinates":[28.96924,41.010687]},"properties":{"osm_id":"node/6518576187","kategori":"doviz","ad":null}},{"type":"Feature","geometry":{"type":"Point","coordinates":[28.967364,41.009805]},"properties":{"osm_id":"node/6518579985","kategori":"doviz","ad":null}},{"type":"Feature","geometry":{"type":"Point","coordinates":[29.003646,41.043561]},"properties":{"osm_id":"node/6775524685","kategori":"doviz","ad":"Zirve Döviz"}},{"type":"Feature","geometry":{"type":"Point","coordinates":[28.975514,41.015006]},"properties":{"osm_id":"node/6961502688","kategori":"doviz","ad":"Döviz"}},{"type":"Feature","geometry":{"type":"Point","coordinates":[28.580975,41.021332]},"properties":{"osm_id":"node/6961666529","kategori":"doviz","ad":"Öker Döviz"}},{"type":"Feature","geometry":{"type":"Point","coordinates":[28.739639,41.262164]},"properties":{"osm_id":"node/7068105745","kategori":"doviz","ad":null}},{"type":"Feature","geometry":{"type":"Point","coordinates":[28.985536,41.036575]},"properties":{"osm_id":"node/7626012877","kategori":"doviz","ad":"Plevne Döviz"}},{"type":"Feature","geometry":{"type":"Point","coordinates":[29.094367,40.954778]},"properties":{"osm_id":"node/7626319174","kategori":"doviz","ad":"Kuroğlu Döviz"}},{"type":"Feature","geometry":{"type":"Point","coordinates":[29.023974,40.992106]},"properties":{"osm_id":"node/7652665257","kategori":"doviz","ad":"Şatır Döviz"}},{"type":"Feature","geometry":{"type":"Point","coordinates":[28.984212,41.040109]},"properties":{"osm_id":"node/8143422417","kategori":"doviz","ad":null}},{"type":"Feature","geometry":{"type":"Point","coordinates":[29.006551,41.043091]},"properties":{"osm_id":"node/8319691857","kategori":"doviz","ad":"başak döviz"}},{"type":"Feature","geometry":{"type":"Point","coordinates":[29.112898,40.980094]},"properties":{"osm_id":"node/8520648990","kategori":"doviz","ad":"Hakan Döviz"}},{"type":"Feature","geometry":{"type":"Point","coordinates":[29.113391,40.97907]},"properties":{"osm_id":"node/8562278131","kategori":"doviz","ad":"Asyıldız Döviz"}},{"type":"Feature","geometry":{"type":"Point","coordinates":[29.084563,40.981573]},"properties":{"osm_id":"node/8742327180","kategori":"doviz","ad":"Sentez Döviz"}},{"type":"Feature","geometry":{"type":"Point","coordinates":[28.747426,41.261375]},"properties":{"osm_id":"node/8957915917","kategori":"doviz","ad":null}},{"type":"Feature","geometry":{"type":"Point","coordinates":[28.984444,41.03904]},"properties":{"osm_id":"node/9078431617","kategori":"doviz","ad":null}},{"type":"Feature","geometry":{"type":"Point","coordinates":[28.911898,41.035898]},"properties":{"osm_id":"node/9141480660","kategori":"doviz","ad":"Mehmetler Döviz"}},{"type":"Feature","geometry":{"type":"Point","coordinates":[29.100566,41.025]},"properties":{"osm_id":"node/9143901219","kategori":"doviz","ad":"Akgül Döviz Altın"}},{"type":"Feature","geometry":{"type":"Point","coordinates":[29.006397,41.04307]},"properties":{"osm_id":"node/9255339826","kategori":"doviz","ad":"Başak Döviz"}},{"type":"Feature","geometry":{"type":"Point","coordinates":[29.076489,40.97982]},"properties":{"osm_id":"node/9259642502","kategori":"doviz","ad":"Çimpaş Döviz"}},{"type":"Feature","geometry":{"type":"Point","coordinates":[28.967571,41.009092]},"properties":{"osm_id":"node/9293970196","kategori":"doviz","ad":"Change Office"}},{"type":"Feature","geometry":{"type":"Point","coordinates":[28.721846,40.979947]},"properties":{"osm_id":"node/9455371802","kategori":"doviz","ad":"Porsuk Döviz"}},{"type":"Feature","geometry":{"type":"Point","coordinates":[29.232026,40.879471]},"properties":{"osm_id":"node/9484013740","kategori":"doviz","ad":"Sedef Döviz & Altın"}},{"type":"Feature","geometry":{"type":"Point","coordinates":[29.131756,40.9818]},"properties":{"osm_id":"node/9498241828","kategori":"doviz","ad":"Bereket Döviz"}},{"type":"Feature","geometry":{"type":"Point","coordinates":[28.97448,41.028146]},"properties":{"osm_id":"node/9619863017","kategori":"doviz","ad":null}},{"type":"Feature","geometry":{"type":"Point","coordinates":[28.971402,41.008744]},"properties":{"osm_id":"node/9670693024","kategori":"doviz","ad":null}},{"type":"Feature","geometry":{"type":"Point","coordinates":[28.979411,41.004948]},"properties":{"osm_id":"node/9718412474","kategori":"doviz","ad":"Özbar döviz"}},{"type":"Feature","geometry":{"type":"Point","coordinates":[29.213902,41.008622]},"properties":{"osm_id":"node/9907143646","kategori":"doviz","ad":"Reel Döviz"}},{"type":"Feature","geometry":{"type":"Point","coordinates":[28.973885,41.081591]},"properties":{"osm_id":"node/9933684486","kategori":"doviz","ad":"Okurlar Döviz"}},{"type":"Feature","geometry":{"type":"Point","coordinates":[28.983752,41.03767]},"properties":{"osm_id":"node/9975406076","kategori":"doviz","ad":null}},{"type":"Feature","geometry":{"type":"Point","coordinates":[28.460092,41.143488]},"properties":{"osm_id":"node/10101012873","kategori":"doviz","ad":"Yaşar Döviz"}},{"type":"Feature","geometry":{"type":"Point","coordinates":[28.916328,41.08191]},"properties":{"osm_id":"node/10104720038","kategori":"doviz","ad":"Singer Döviz"}},{"type":"Feature","geometry":{"type":"Point","coordinates":[29.111347,40.945665]},"properties":{"osm_id":"node/10169090591","kategori":"doviz","ad":"Yurt döviz"}},{"type":"Feature","geometry":{"type":"Point","coordinates":[29.016395,41.024236]},"properties":{"osm_id":"node/10209390124","kategori":"doviz","ad":"Dilrubam Döviz"}},{"type":"Feature","geometry":{"type":"Point","coordinates":[28.953948,41.010288]},"properties":{"osm_id":"node/10239391609","kategori":"doviz","ad":null}},{"type":"Feature","geometry":{"type":"Point","coordinates":[29.309311,40.904144]},"properties":{"osm_id":"node/10670574506","kategori":"doviz","ad":null}},{"type":"Feature","geometry":{"type":"Point","coordinates":[28.722296,40.981131]},"properties":{"osm_id":"node/10718796714","kategori":"doviz","ad":"Pundi X Avcılar - Crypto Exchange"}},{"type":"Feature","geometry":{"type":"Point","coordinates":[28.953131,41.008499]},"properties":{"osm_id":"node/10744918905","kategori":"doviz","ad":null}},{"type":"Feature","geometry":{"type":"Point","coordinates":[28.90852,41.044642]},"properties":{"osm_id":"node/10794831465","kategori":"doviz","ad":"Memiş Döviz"}},{"type":"Feature","geometry":{"type":"Point","coordinates":[28.971103,41.010675]},"properties":{"osm_id":"node/10855599805","kategori":"doviz","ad":null}},{"type":"Feature","geometry":{"type":"Point","coordinates":[28.977546,41.008768]},"properties":{"osm_id":"node/11010236616","kategori":"doviz","ad":null}},{"type":"Feature","geometry":{"type":"Point","coordinates":[28.923409,41.074121]},"properties":{"osm_id":"node/11022039176","kategori":"doviz","ad":null}},{"type":"Feature","geometry":{"type":"Point","coordinates":[29.028098,40.990632]},"properties":{"osm_id":"node/11171659337","kategori":"doviz","ad":null}},{"type":"Feature","geometry":{"type":"Point","coordinates":[28.748363,41.265329]},"properties":{"osm_id":"node/11200644979","kategori":"doviz","ad":"global exchange"}},{"type":"Feature","geometry":{"type":"Point","coordinates":[29.131514,40.924838]},"properties":{"osm_id":"node/11417540350","kategori":"doviz","ad":"Tunçbilek Döviz"}},{"type":"Feature","geometry":{"type":"Point","coordinates":[28.970446,41.008403]},"properties":{"osm_id":"node/11465488070","kategori":"doviz","ad":null}},{"type":"Feature","geometry":{"type":"Point","coordinates":[28.622308,41.073771]},"properties":{"osm_id":"node/11688942438","kategori":"doviz","ad":"Halil Döviz Altın"}},{"type":"Feature","geometry":{"type":"Point","coordinates":[29.315075,40.906569]},"properties":{"osm_id":"node/11799454231","kategori":"doviz","ad":null}},{"type":"Feature","geometry":{"type":"Point","coordinates":[28.982556,41.035689]},"properties":{"osm_id":"node/11800199769","kategori":"doviz","ad":"Akas döviz yetkili müessese (B grubu)"}},{"type":"Feature","geometry":{"type":"Point","coordinates":[28.828771,41.03043]},"properties":{"osm_id":"node/12014791546","kategori":"doviz","ad":null}},{"type":"Feature","geometry":{"type":"Point","coordinates":[28.978248,41.033794]},"properties":{"osm_id":"node/12063837469","kategori":"doviz","ad":null}},{"type":"Feature","geometry":{"type":"Point","coordinates":[28.984641,41.035572]},"properties":{"osm_id":"node/12083770970","kategori":"doviz","ad":null}},{"type":"Feature","geometry":{"type":"Point","coordinates":[28.903969,40.987493]},"properties":{"osm_id":"node/12169687028","kategori":"doviz","ad":"Kapalıçarşı Döviz"}},{"type":"Feature","geometry":{"type":"Point","coordinates":[28.976548,41.032535]},"properties":{"osm_id":"node/12347693513","kategori":"doviz","ad":null}},{"type":"Feature","geometry":{"type":"Point","coordinates":[28.98546,41.038743]},"properties":{"osm_id":"node/12510981390","kategori":"doviz","ad":null}},{"type":"Feature","geometry":{"type":"Point","coordinates":[28.98539,41.040355]},"properties":{"osm_id":"node/12510989008","kategori":"doviz","ad":null}},{"type":"Feature","geometry":{"type":"Point","coordinates":[28.983329,41.040542]},"properties":{"osm_id":"node/12510989020","kategori":"doviz","ad":null}},{"type":"Feature","geometry":{"type":"Point","coordinates":[28.984201,41.037838]},"properties":{"osm_id":"node/12510989064","kategori":"doviz","ad":"Medya Döviz Ve Altın Ticareti Yetkili Müessese"}},{"type":"Feature","geometry":{"type":"Point","coordinates":[28.984585,41.038449]},"properties":{"osm_id":"node/12510989087","kategori":"doviz","ad":null}},{"type":"Feature","geometry":{"type":"Point","coordinates":[28.976084,41.023098]},"properties":{"osm_id":"node/12512834703","kategori":"doviz","ad":null}},{"type":"Feature","geometry":{"type":"Point","coordinates":[29.024231,40.990158]},"properties":{"osm_id":"node/12533473301","kategori":"doviz","ad":"Kaymak Doviz"}},{"type":"Feature","geometry":{"type":"Point","coordinates":[28.974408,41.022554]},"properties":{"osm_id":"node/12729285847","kategori":"doviz","ad":null}},{"type":"Feature","geometry":{"type":"Point","coordinates":[28.741078,41.184106]},"properties":{"osm_id":"node/12800214602","kategori":"doviz","ad":"Dem Döviz"}},{"type":"Feature","geometry":{"type":"Point","coordinates":[28.967513,41.012374]},"properties":{"osm_id":"node/12841005961","kategori":"doviz","ad":null}},{"type":"Feature","geometry":{"type":"Point","coordinates":[29.009278,41.065447]},"properties":{"osm_id":"node/13118720001","kategori":"doviz","ad":null}},{"type":"Feature","geometry":{"type":"Point","coordinates":[28.983517,41.026742]},"properties":{"osm_id":"node/13245401494","kategori":"doviz","ad":"Çözüm Döviz"}},{"type":"Feature","geometry":{"type":"Point","coordinates":[28.973929,41.010373]},"properties":{"osm_id":"node/13299789101","kategori":"doviz","ad":"Обмен валют и криптовалют 2Change"}},{"type":"Feature","geometry":{"type":"Point","coordinates":[28.992684,41.062793]},"properties":{"osm_id":"node/13300876204","kategori":"doviz","ad":null}},{"type":"Feature","geometry":{"type":"Point","coordinates":[28.975485,41.02413]},"properties":{"osm_id":"node/13300880001","kategori":"doviz","ad":null}},{"type":"Feature","geometry":{"type":"Point","coordinates":[29.032446,41.110225]},"properties":{"osm_id":"node/13300896001","kategori":"doviz","ad":null}},{"type":"Feature","geometry":{"type":"Point","coordinates":[28.987226,41.106992]},"properties":{"osm_id":"node/13301059515","kategori":"doviz","ad":null}},{"type":"Feature","geometry":{"type":"Point","coordinates":[29.015585,41.023922]},"properties":{"osm_id":"node/13301061101","kategori":"doviz","ad":null}},{"type":"Feature","geometry":{"type":"Point","coordinates":[29.039267,41.020891]},"properties":{"osm_id":"node/13301100103","kategori":"doviz","ad":null}},{"type":"Feature","geometry":{"type":"Point","coordinates":[29.016568,41.066829]},"properties":{"osm_id":"node/13301179001","kategori":"doviz","ad":null}},{"type":"Feature","geometry":{"type":"Point","coordinates":[28.9773,41.008013]},"properties":{"osm_id":"node/13301179005","kategori":"doviz","ad":null}},{"type":"Feature","geometry":{"type":"Point","coordinates":[28.80698,41.062735]},"properties":{"osm_id":"node/13301215701","kategori":"doviz","ad":null}},{"type":"Feature","geometry":{"type":"Point","coordinates":[29.317237,40.815923]},"properties":{"osm_id":"node/13301218304","kategori":"doviz","ad":"Viaport Marina ATM"}},{"type":"Feature","geometry":{"type":"Point","coordinates":[29.071505,41.002989]},"properties":{"osm_id":"node/13301218503","kategori":"doviz","ad":null}},{"type":"Feature","geometry":{"type":"Point","coordinates":[28.944932,41.014395]},"properties":{"osm_id":"node/13301238501","kategori":"doviz","ad":null}},{"type":"Feature","geometry":{"type":"Point","coordinates":[29.040409,40.98334]},"properties":{"osm_id":"node/13410598522","kategori":"doviz","ad":"Saygın Döviz"}},{"type":"Feature","geometry":{"type":"Point","coordinates":[29.133809,40.923387]},"properties":{"osm_id":"node/13526266824","kategori":"doviz","ad":"Anadolu Döviz"}},{"type":"Feature","geometry":{"type":"Point","coordinates":[28.975396,41.030116]},"properties":{"osm_id":"node/13734540901","kategori":"doviz","ad":"DÖVIZ change office"}},{"type":"Feature","geometry":{"type":"Point","coordinates":[28.969038,41.010391]},"properties":{"osm_id":"node/13909802602","kategori":"doviz","ad":"Cavis"}},{"type":"Feature","geometry":{"type":"Point","coordinates":[28.863471,41.097116]},"properties":{"osm_id":"node/13910125044","kategori":"doviz","ad":null}},{"type":"Feature","geometry":{"type":"Point","coordinates":[29.267734,40.878461]},"properties":{"osm_id":"node/14129085452","kategori":"doviz","ad":"Türker Sarrafiye"}}]}