{"type":"FeatureCollection","kaynak":"OpenStreetMap katkıcıları, ODbL 1.0, Overpass API ile çekildi","cekim_tarihi":"2026-09-18","features":[{"type":"Feature","geometry":{"type":"Point","coordinates":[28.858503,40.998867]},"properties":{"osm_id":"node/4585061290","kategori":"meydan","ad":"UEFA Kupası Meydanı"}},{"type":"Feature","geometry":{"type":"Point","coordinates":[28.832402,41.132889]},"properties":{"osm_id":"node/5295118539","kategori":"meydan","ad":"Habibler Meydanı"}},{"type":"Feature","geometry":{"type":"Point","coordinates":[29.300072,40.815951]},"properties":{"osm_id":"node/6339306415","kategori":"meydan","ad":"Tuzla Sahil"}},{"type":"Feature","geometry":{"type":"Point","coordinates":[29.021595,40.991247]},"properties":{"osm_id":"node/6458152384","kategori":"meydan","ad":"Rıhtım Meydanı"}},{"type":"Feature","geometry":{"type":"Point","coordinates":[29.612846,41.177602]},"properties":{"osm_id":"node/6514783517","kategori":"meydan","ad":"Şile Demokrasi Meydanı"}},{"type":"Feature","geometry":{"type":"Point","coordinates":[28.913066,41.058068]},"properties":{"osm_id":"node/8732076154","kategori":"meydan","ad":"Gaziosmanpaşa Meydanı"}},{"type":"Feature","geometry":{"type":"Point","coordinates":[28.903308,41.073216]},"properties":{"osm_id":"node/9051062174","kategori":"meydan","ad":"Küçükköy Meydanı"}},{"type":"Feature","geometry":{"type":"Point","coordinates":[28.993782,40.86517]},"properties":{"osm_id":"node/9098863656","kategori":"meydan","ad":"Demokrasi Meydanı"}},{"type":"Feature","geometry":{"type":"Point","coordinates":[28.608536,41.130268]},"properties":{"osm_id":"node/9656038648","kategori":"meydan","ad":"Yeşilbayır Meydanı"}},{"type":"Feature","geometry":{"type":"Point","coordinates":[28.998703,41.115361]},"properties":{"osm_id":"node/9739749798","kategori":"meydan","ad":"Ayazağa Meydanı"}},{"type":"Feature","geometry":{"type":"Point","coordinates":[28.170385,41.156368]},"properties":{"osm_id":"node/10030434644","kategori":"meydan","ad":"Seymen Meydanı"}},{"type":"Feature","geometry":{"type":"Point","coordinates":[29.115133,40.968831]},"properties":{"osm_id":"node/10287979020","kategori":"meydan","ad":"İçerenköy Meydanı"}},{"type":"Feature","geometry":{"type":"Point","coordinates":[28.651249,41.011817]},"properties":{"osm_id":"node/11554479628","kategori":"meydan","ad":"Beylikdüzü 100. Yıl Meydanı"}},{"type":"Feature","geometry":{"type":"Point","coordinates":[28.986473,41.027455]},"properties":{"osm_id":"node/13248353908","kategori":"meydan","ad":"Doğuş Meydanı"}},{"type":"Feature","geometry":{"type":"Point","coordinates":[28.976053,41.006521]},"properties":{"osm_id":"way/25512790","kategori":"meydan","ad":"Sultanahmet Meydanı"}},{"type":"Feature","geometry":{"type":"Point","coordinates":[28.977268,41.033216]},"properties":{"osm_id":"way/25562645","kategori":"meydan","ad":"Galatasaray Meydanı"}},{"type":"Feature","geometry":{"type":"Point","coordinates":[29.260379,41.128996]},"properties":{"osm_id":"way/75800759","kategori":"meydan","ad":"Cumhuriyet Meydanı"}},{"type":"Feature","geometry":{"type":"Point","coordinates":[29.131217,40.925086]},"properties":{"osm_id":"way/178773179","kategori":"meydan","ad":"Maltepe Sanat"}},{"type":"Feature","geometry":{"type":"Point","coordinates":[29.073308,41.20532]},"properties":{"osm_id":"way/280666843","kategori":"meydan","ad":"Koç Meydanı"}},{"type":"Feature","geometry":{"type":"Point","coordinates":[29.029192,40.990456]},"properties":{"osm_id":"way/285574893","kategori":"meydan","ad":"Altıyol Meydanı"}},{"type":"Feature","geometry":{"type":"Point","coordinates":[29.058119,41.168578]},"properties":{"osm_id":"way/307165747","kategori":"meydan","ad":"Sarıyer Meydanı"}},{"type":"Feature","geometry":{"type":"Point","coordinates":[28.987692,41.060989]},"properties":{"osm_id":"way/307589199","kategori":"meydan","ad":"Şişli Meydanı"}},{"type":"Feature","geometry":{"type":"Point","coordinates":[28.845545,40.992206]},"properties":{"osm_id":"way/325861790","kategori":"meydan","ad":"Şirinevler Meydanı"}},{"type":"Feature","geometry":{"type":"Point","coordinates":[28.966471,41.009263]},"properties":{"osm_id":"way/376839103","kategori":"meydan","ad":"Beyazıt Meydanı"}},{"type":"Feature","geometry":{"type":"Point","coordinates":[29.128611,40.874179]},"properties":{"osm_id":"way/401616775","kategori":"meydan","ad":"Araba Meydanı"}},{"type":"Feature","geometry":{"type":"Point","coordinates":[29.126656,40.873897]},"properties":{"osm_id":"way/401616776","kategori":"meydan","ad":"Rıhtım Meydanı"}},{"type":"Feature","geometry":{"type":"Point","coordinates":[28.679626,41.034574]},"properties":{"osm_id":"way/409768191","kategori":"meydan","ad":"Esenyurt Meydanı"}},{"type":"Feature","geometry":{"type":"Point","coordinates":[28.950218,41.010722]},"properties":{"osm_id":"way/429506217","kategori":"meydan","ad":"Aksaray Meydanı"}},{"type":"Feature","geometry":{"type":"Point","coordinates":[28.952686,40.998966]},"properties":{"osm_id":"way/440309320","kategori":"meydan","ad":null}},{"type":"Feature","geometry":{"type":"Point","coordinates":[28.903396,40.995339]},"properties":{"osm_id":"way/467226072","kategori":"meydan","ad":"Zeytinburnu Adliye Meydanı"}},{"type":"Feature","geometry":{"type":"Point","coordinates":[28.959666,41.012466]},"properties":{"osm_id":"way/485315872","kategori":"meydan","ad":null}},{"type":"Feature","geometry":{"type":"Point","coordinates":[28.064377,41.242532]},"properties":{"osm_id":"way/485839232","kategori":"meydan","ad":"Büyükçavuşlu Kasaba Meydanı"}},{"type":"Feature","geometry":{"type":"Point","coordinates":[28.963601,41.016443]},"properties":{"osm_id":"way/524005340","kategori":"meydan","ad":null}},{"type":"Feature","geometry":{"type":"Point","coordinates":[28.939377,41.024923]},"properties":{"osm_id":"way/527426114","kategori":"meydan","ad":"Karagümrük Meydanı"}},{"type":"Feature","geometry":{"type":"Point","coordinates":[29.0922,41.025689]},"properties":{"osm_id":"way/569208144","kategori":"meydan","ad":null}},{"type":"Feature","geometry":{"type":"Point","coordinates":[28.933434,41.047506]},"properties":{"osm_id":"way/600269984","kategori":"meydan","ad":"Eyüpsultan Meydanı"}},{"type":"Feature","geometry":{"type":"Point","coordinates":[28.882453,41.037701]},"properties":{"osm_id":"way/621225880","kategori":"meydan","ad":"Dörtyol Meydanı"}},{"type":"Feature","geometry":{"type":"Point","coordinates":[29.225484,40.918779]},"properties":{"osm_id":"way/647459075","kategori":"meydan","ad":null}},{"type":"Feature","geometry":{"type":"Point","coordinates":[29.854502,41.13889]},"properties":{"osm_id":"way/649141541","kategori":"meydan","ad":"Ağva Meydanı"}},{"type":"Feature","geometry":{"type":"Point","coordinates":[29.297125,40.909997]},"properties":{"osm_id":"way/676095655","kategori":"meydan","ad":"Kurtköy Metro Meydanı"}},{"type":"Feature","geometry":{"type":"Point","coordinates":[28.904428,40.985604]},"properties":{"osm_id":"way/679201052","kategori":"meydan","ad":"Zeytinburnu Meydan"}},{"type":"Feature","geometry":{"type":"Point","coordinates":[29.23523,40.876087]},"properties":{"osm_id":"way/680633713","kategori":"meydan","ad":"Pendik Sahil Meydanı"}},{"type":"Feature","geometry":{"type":"Point","coordinates":[28.862756,41.10471]},"properties":{"osm_id":"way/692413641","kategori":"meydan","ad":"15 Temmuz Demokrasi ve Şehitler Meydanı"}},{"type":"Feature","geometry":{"type":"Point","coordinates":[29.036326,40.993371]},"properties":{"osm_id":"way/710988391","kategori":"meydan","ad":null}},{"type":"Feature","geometry":{"type":"Point","coordinates":[29.068739,41.027528]},"properties":{"osm_id":"way/716598668","kategori":"meydan","ad":null}},{"type":"Feature","geometry":{"type":"Point","coordinates":[28.771361,41.119478]},"properties":{"osm_id":"way/792165007","kategori":"meydan","ad":"Başakşehir Kent Meydanı"}},{"type":"Feature","geometry":{"type":"Point","coordinates":[29.12434,40.920406]},"properties":{"osm_id":"way/863750612","kategori":"meydan","ad":"Miting alanı"}},{"type":"Feature","geometry":{"type":"Point","coordinates":[28.927153,41.021105]},"properties":{"osm_id":"way/886032539","kategori":"meydan","ad":"Topkapı Kaleiçi Meydanı"}},{"type":"Feature","geometry":{"type":"Point","coordinates":[29.604631,41.175496]},"properties":{"osm_id":"way/886938215","kategori":"meydan","ad":"Şile Meydanı"}},{"type":"Feature","geometry":{"type":"Point","coordinates":[28.792789,41.00812]},"properties":{"osm_id":"way/903578127","kategori":"meydan","ad":"Fevzi Çakmak Meydanı"}},{"type":"Feature","geometry":{"type":"Point","coordinates":[29.091633,41.024505]},"properties":{"osm_id":"way/908660719","kategori":"meydan","ad":"Ümraniye 15 Temmuz Şehitler Meydanı"}},{"type":"Feature","geometry":{"type":"Point","coordinates":[28.771265,40.990929]},"properties":{"osm_id":"way/922173631","kategori":"meydan","ad":"Küçükçekmece Meydanı"}},{"type":"Feature","geometry":{"type":"Point","coordinates":[28.95264,41.018412]},"properties":{"osm_id":"way/998954145","kategori":"meydan","ad":"Tarihi At Pazarı Meydanı"}},{"type":"Feature","geometry":{"type":"Point","coordinates":[28.995384,41.066487]},"properties":{"osm_id":"way/1007293783","kategori":"meydan","ad":"Mecidiyeköy Meydanı"}},{"type":"Feature","geometry":{"type":"Point","coordinates":[29.608952,41.173727]},"properties":{"osm_id":"way/1007455589","kategori":"meydan","ad":"Şile Meydanı"}},{"type":"Feature","geometry":{"type":"Point","coordinates":[28.515743,41.088654]},"properties":{"osm_id":"way/1029660974","kategori":"meydan","ad":"Ahmediye Meydanı"}},{"type":"Feature","geometry":{"type":"Point","coordinates":[28.634346,41.01149]},"properties":{"osm_id":"way/1032058175","kategori":"meydan","ad":null}},{"type":"Feature","geometry":{"type":"Point","coordinates":[29.126203,41.023572]},"properties":{"osm_id":"way/1037830762","kategori":"meydan","ad":null}},{"type":"Feature","geometry":{"type":"Point","coordinates":[28.971619,41.08035]},"properties":{"osm_id":"way/1044550626","kategori":"meydan","ad":"Kağıthane Meydanı"}},{"type":"Feature","geometry":{"type":"Point","coordinates":[29.304928,40.814469]},"properties":{"osm_id":"way/1046518442","kategori":"meydan","ad":"Tören Alanı"}},{"type":"Feature","geometry":{"type":"Point","coordinates":[29.217928,41.223976]},"properties":{"osm_id":"way/1046614512","kategori":"meydan","ad":"Riva Meydanı"}},{"type":"Feature","geometry":{"type":"Point","coordinates":[29.309612,40.811937]},"properties":{"osm_id":"way/1046841275","kategori":"meydan","ad":null}},{"type":"Feature","geometry":{"type":"Point","coordinates":[28.843734,40.991004]},"properties":{"osm_id":"way/1050581997","kategori":"meydan","ad":null}},{"type":"Feature","geometry":{"type":"Point","coordinates":[29.229753,40.985655]},"properties":{"osm_id":"way/1067146447","kategori":"meydan","ad":null}},{"type":"Feature","geometry":{"type":"Point","coordinates":[28.779134,41.03728]},"properties":{"osm_id":"way/1079263727","kategori":"meydan","ad":"Özgürlük Meydanı"}},{"type":"Feature","geometry":{"type":"Point","coordinates":[29.018624,41.019935]},"properties":{"osm_id":"way/1087468137","kategori":"meydan","ad":null}},{"type":"Feature","geometry":{"type":"Point","coordinates":[29.108812,40.994017]},"properties":{"osm_id":"way/1092631709","kategori":"meydan","ad":"Cumhuriyet Meydanı"}},{"type":"Feature","geometry":{"type":"Point","coordinates":[29.265717,40.967424]},"properties":{"osm_id":"way/1098355341","kategori":"meydan","ad":"Sultanbeyli Meydanı"}},{"type":"Feature","geometry":{"type":"Point","coordinates":[28.644993,40.975093]},"properties":{"osm_id":"way/1113158783","kategori":"meydan","ad":null}},{"type":"Feature","geometry":{"type":"Point","coordinates":[28.647418,40.979287]},"properties":{"osm_id":"way/1113158794","kategori":"meydan","ad":null}},{"type":"Feature","geometry":{"type":"Point","coordinates":[28.94723,41.073757]},"properties":{"osm_id":"way/1151957243","kategori":"meydan","ad":null}},{"type":"Feature","geometry":{"type":"Point","coordinates":[28.717479,40.971376]},"properties":{"osm_id":"way/1184710047","kategori":"meydan","ad":"Avcılar Sahil Meydanı"}},{"type":"Feature","geometry":{"type":"Point","coordinates":[29.13885,40.869857]},"properties":{"osm_id":"way/1189615271","kategori":"meydan","ad":null}},{"type":"Feature","geometry":{"type":"Point","coordinates":[29.020116,41.01883]},"properties":{"osm_id":"way/1207823565","kategori":"meydan","ad":null}},{"type":"Feature","geometry":{"type":"Point","coordinates":[29.133014,40.923591]},"properties":{"osm_id":"way/1210823511","kategori":"meydan","ad":"Maltepe Cumhuriyet Meydanı"}},{"type":"Feature","geometry":{"type":"Point","coordinates":[28.584353,41.020543]},"properties":{"osm_id":"way/1214835966","kategori":"meydan","ad":"Kuvâ-yi Milliye Meydanı"}},{"type":"Feature","geometry":{"type":"Point","coordinates":[29.006988,41.041728]},"properties":{"osm_id":"way/1225939454","kategori":"meydan","ad":"Beşiktaş Meydanı"}},{"type":"Feature","geometry":{"type":"Point","coordinates":[29.030456,40.99335]},"properties":{"osm_id":"way/1245747194","kategori":"meydan","ad":null}},{"type":"Feature","geometry":{"type":"Point","coordinates":[28.666662,41.028247]},"properties":{"osm_id":"way/1270387389","kategori":"meydan","ad":"Yaşar Kemal Meydanı"}},{"type":"Feature","geometry":{"type":"Point","coordinates":[29.033216,41.139095]},"properties":{"osm_id":"way/1279748052","kategori":"meydan","ad":null}},{"type":"Feature","geometry":{"type":"Point","coordinates":[28.98231,41.016788]},"properties":{"osm_id":"way/1280188859","kategori":"meydan","ad":null}},{"type":"Feature","geometry":{"type":"Point","coordinates":[29.025249,41.129845]},"properties":{"osm_id":"way/1290399559","kategori":"meydan","ad":null}},{"type":"Feature","geometry":{"type":"Point","coordinates":[28.850729,41.164102]},"properties":{"osm_id":"way/1315701348","kategori":"meydan","ad":"Pirinççi Camii Avlusu"}},{"type":"Feature","geometry":{"type":"Point","coordinates":[29.138894,40.950471]},"properties":{"osm_id":"way/1316089194","kategori":"meydan","ad":null}},{"type":"Feature","geometry":{"type":"Point","coordinates":[28.974638,41.055325]},"properties":{"osm_id":"way/1319212668","kategori":"meydan","ad":null}},{"type":"Feature","geometry":{"type":"Point","coordinates":[28.714158,40.973486]},"properties":{"osm_id":"way/1322983324","kategori":"meydan","ad":"Ambarlı Köy Meydanı"}},{"type":"Feature","geometry":{"type":"Point","coordinates":[28.624097,41.053573]},"properties":{"osm_id":"way/1330882275","kategori":"meydan","ad":"Çakmaklı Meydanı"}},{"type":"Feature","geometry":{"type":"Point","coordinates":[28.714593,40.974213]},"properties":{"osm_id":"way/1334514006","kategori":"meydan","ad":"Ambarlı Meydanı"}},{"type":"Feature","geometry":{"type":"Point","coordinates":[29.297659,40.831806]},"properties":{"osm_id":"way/1359329098","kategori":"meydan","ad":null}},{"type":"Feature","geometry":{"type":"Point","coordinates":[29.020454,41.020294]},"properties":{"osm_id":"way/1361079597","kategori":"meydan","ad":null}},{"type":"Feature","geometry":{"type":"Point","coordinates":[28.745722,41.21556]},"properties":{"osm_id":"way/1369157794","kategori":"meydan","ad":"İmrahor Meydanı"}},{"type":"Feature","geometry":{"type":"Point","coordinates":[28.643714,40.999659]},"properties":{"osm_id":"way/1383026132","kategori":"meydan","ad":null}},{"type":"Feature","geometry":{"type":"Point","coordinates":[29.228864,40.985858]},"properties":{"osm_id":"way/1383067820","kategori":"meydan","ad":"Samandıra Meydan"}},{"type":"Feature","geometry":{"type":"Point","coordinates":[28.970914,41.009039]},"properties":{"osm_id":"way/1385142579","kategori":"meydan","ad":null}},{"type":"Feature","geometry":{"type":"Point","coordinates":[28.97711,41.006615]},"properties":{"osm_id":"way/1385142580","kategori":"meydan","ad":"Sultanahmet Meydanı"}},{"type":"Feature","geometry":{"type":"Point","coordinates":[29.159802,41.011079]},"properties":{"osm_id":"way/1386122121","kategori":"meydan","ad":null}},{"type":"Feature","geometry":{"type":"Point","coordinates":[29.143066,40.990416]},"properties":{"osm_id":"way/1386464322","kategori":"meydan","ad":null}},{"type":"Feature","geometry":{"type":"Point","coordinates":[28.460748,41.143776]},"properties":{"osm_id":"way/1415337771","kategori":"meydan","ad":"Cumhuriyet Meydanı"}},{"type":"Feature","geometry":{"type":"Point","coordinates":[29.033852,41.139609]},"properties":{"osm_id":"way/1417957252","kategori":"meydan","ad":null}},{"type":"Feature","geometry":{"type":"Point","coordinates":[29.131834,40.994297]},"properties":{"osm_id":"way/1425564608","kategori":"meydan","ad":null}},{"type":"Feature","geometry":{"type":"Point","coordinates":[29.087265,41.148188]},"properties":{"osm_id":"way/1427484147","kategori":"meydan","ad":"Ortaçeşme Meydanı"}},{"type":"Feature","geometry":{"type":"Point","coordinates":[29.052017,41.050982]},"properties":{"osm_id":"way/1451584246","kategori":"meydan","ad":null}},{"type":"Feature","geometry":{"type":"Point","coordinates":[29.023316,41.103012]},"properties":{"osm_id":"way/1453091086","kategori":"meydan","ad":"250. Yıl Meydanı"}},{"type":"Feature","geometry":{"type":"Point","coordinates":[29.021898,41.106586]},"properties":{"osm_id":"way/1453344199","kategori":"meydan","ad":null}},{"type":"Feature","geometry":{"type":"Point","coordinates":[28.953777,41.006981]},"properties":{"osm_id":"way/1468421216","kategori":"meydan","ad":null}},{"type":"Feature","geometry":{"type":"Point","coordinates":[29.118468,40.992293]},"properties":{"osm_id":"way/1470273053","kategori":"meydan","ad":null}},{"type":"Feature","geometry":{"type":"Point","coordinates":[29.122068,40.992573]},"properties":{"osm_id":"way/1470273055","kategori":"meydan","ad":null}},{"type":"Feature","geometry":{"type":"Point","coordinates":[29.01862,41.020355]},"properties":{"osm_id":"way/1472906679","kategori":"meydan","ad":null}},{"type":"Feature","geometry":{"type":"Point","coordinates":[29.360991,40.915859]},"properties":{"osm_id":"way/1514077252","kategori":"meydan","ad":null}},{"type":"Feature","geometry":{"type":"Point","coordinates":[29.199544,41.003926]},"properties":{"osm_id":"way/1531438892","kategori":"meydan","ad":"Emek Kent Meydanı"}},{"type":"Feature","geometry":{"type":"Point","coordinates":[29.039853,41.122644]},"properties":{"osm_id":"way/1540048310","kategori":"meydan","ad":null}},{"type":"Feature","geometry":{"type":"Point","coordinates":[29.025014,41.129491]},"properties":{"osm_id":"way/1540107115","kategori":"meydan","ad":null}},{"type":"Feature","geometry":{"type":"Point","coordinates":[29.029296,41.129616]},"properties":{"osm_id":"way/1540130496","kategori":"meydan","ad":null}},{"type":"Feature","geometry":{"type":"Point","coordinates":[29.126886,40.994036]},"properties":{"osm_id":"way/1552303309","kategori":"meydan","ad":null}},{"type":"Feature","geometry":{"type":"Point","coordinates":[29.098047,41.126323]},"properties":{"osm_id":"way/1553978449","kategori":"meydan","ad":null}},{"type":"Feature","geometry":{"type":"Point","coordinates":[28.256494,41.079012]},"properties":{"osm_id":"way/1558857392","kategori":"meydan","ad":null}}]}