{"type":"FeatureCollection","kaynak":"OpenStreetMap katkıcıları, ODbL 1.0, Overpass API ile çekildi","cekim_tarihi":"2026-09-18","features":[{"type":"Feature","geometry":{"type":"Point","coordinates":[28.977359,41.03302]},"properties":{"osm_id":"node/269365937","kategori":"kargo","ad":"PTT Beyoğlu"}},{"type":"Feature","geometry":{"type":"Point","coordinates":[29.02531,41.047876]},"properties":{"osm_id":"node/502792191","kategori":"kargo","ad":null}},{"type":"Feature","geometry":{"type":"Point","coordinates":[29.036712,41.0083]},"properties":{"osm_id":"node/769896040","kategori":"kargo","ad":"PTT Koşuyolu"}},{"type":"Feature","geometry":{"type":"Point","coordinates":[28.856568,41.012288]},"properties":{"osm_id":"node/976511680","kategori":"kargo","ad":"PTT"}},{"type":"Feature","geometry":{"type":"Point","coordinates":[28.796111,41.005796]},"properties":{"osm_id":"node/1407273053","kategori":"kargo","ad":"Ptt Sefaköy Şubesi"}},{"type":"Feature","geometry":{"type":"Point","coordinates":[29.129247,40.874753]},"properties":{"osm_id":"node/1459165915","kategori":"kargo","ad":null}},{"type":"Feature","geometry":{"type":"Point","coordinates":[29.024184,41.107276]},"properties":{"osm_id":"node/1587702795","kategori":"kargo","ad":"PTT"}},{"type":"Feature","geometry":{"type":"Point","coordinates":[29.070104,41.000802]},"properties":{"osm_id":"node/1690847750","kategori":"kargo","ad":"Soyak PTT"}},{"type":"Feature","geometry":{"type":"Point","coordinates":[29.038668,40.984042]},"properties":{"osm_id":"node/1757632999","kategori":"kargo","ad":"PTT Kızıltoprak"}},{"type":"Feature","geometry":{"type":"Point","coordinates":[29.074444,40.973255]},"properties":{"osm_id":"node/1866928803","kategori":"kargo","ad":"PTT Erenköy"}},{"type":"Feature","geometry":{"type":"Point","coordinates":[29.044264,41.043718]},"properties":{"osm_id":"node/1964731888","kategori":"kargo","ad":"PTT Beylerbeyi Şubesi"}},{"type":"Feature","geometry":{"type":"Point","coordinates":[28.944165,41.018308]},"properties":{"osm_id":"node/2111987910","kategori":"kargo","ad":"Yurtiçi Kargo Balipaşa Şb."}},{"type":"Feature","geometry":{"type":"Point","coordinates":[29.055832,41.169683]},"properties":{"osm_id":"node/2201664091","kategori":"kargo","ad":"Sarıyer Postanesi"}},{"type":"Feature","geometry":{"type":"Point","coordinates":[29.19179,41.018]},"properties":{"osm_id":"node/2270768838","kategori":"kargo","ad":"PTT Çekmeköy Şubesi"}},{"type":"Feature","geometry":{"type":"Point","coordinates":[29.001736,41.068101]},"properties":{"osm_id":"node/2274989180","kategori":"kargo","ad":"Aras Kargo"}},{"type":"Feature","geometry":{"type":"Point","coordinates":[28.624569,40.99922]},"properties":{"osm_id":"node/2277398776","kategori":"kargo","ad":"PTT Carium"}},{"type":"Feature","geometry":{"type":"Point","coordinates":[28.64889,41.01172]},"properties":{"osm_id":"node/2277590228","kategori":"kargo","ad":"PTT Beylicium"}},{"type":"Feature","geometry":{"type":"Point","coordinates":[28.914869,41.058619]},"properties":{"osm_id":"node/2381737562","kategori":"kargo","ad":"PTT Gaziosmanpaşa"}},{"type":"Feature","geometry":{"type":"Point","coordinates":[29.182448,41.029845]},"properties":{"osm_id":"node/2641194829","kategori":"kargo","ad":"PTT Mimar Sinan Şubesi"}},{"type":"Feature","geometry":{"type":"Point","coordinates":[28.654132,41.014209]},"properties":{"osm_id":"node/2661363125","kategori":"kargo","ad":"Yurtiçi Kargo"}},{"type":"Feature","geometry":{"type":"Point","coordinates":[28.651125,41.018931]},"properties":{"osm_id":"node/2661363126","kategori":"kargo","ad":"Aras Kargo Beymer"}},{"type":"Feature","geometry":{"type":"Point","coordinates":[29.256974,40.899546]},"properties":{"osm_id":"node/3002834761","kategori":"kargo","ad":"Aras Kargo"}},{"type":"Feature","geometry":{"type":"Point","coordinates":[28.873375,41.016345]},"properties":{"osm_id":"node/3128936742","kategori":"kargo","ad":"PTT Akıncılar"}},{"type":"Feature","geometry":{"type":"Point","coordinates":[28.974318,41.022366]},"properties":{"osm_id":"node/3132625399","kategori":"kargo","ad":"PTT Karaköy"}},{"type":"Feature","geometry":{"type":"Point","coordinates":[28.966998,41.011096]},"properties":{"osm_id":"node/3188739866","kategori":"kargo","ad":null}},{"type":"Feature","geometry":{"type":"Point","coordinates":[28.96935,41.014353]},"properties":{"osm_id":"node/3461609138","kategori":"kargo","ad":"FedEx"}},{"type":"Feature","geometry":{"type":"Point","coordinates":[29.382475,40.89181]},"properties":{"osm_id":"node/3465616423","kategori":"kargo","ad":"Post Office"}},{"type":"Feature","geometry":{"type":"Point","coordinates":[28.949414,41.017483]},"properties":{"osm_id":"node/3498778691","kategori":"kargo","ad":"Fatih PTT Merkezi"}},{"type":"Feature","geometry":{"type":"Point","coordinates":[28.464683,41.140099]},"properties":{"osm_id":"node/3745341181","kategori":"kargo","ad":"MNG Kargo"}},{"type":"Feature","geometry":{"type":"Point","coordinates":[29.049876,41.089162]},"properties":{"osm_id":"node/3824376319","kategori":"kargo","ad":"PTT Bebek Hisarüstü Şubesi"}},{"type":"Feature","geometry":{"type":"Point","coordinates":[29.130507,40.87397]},"properties":{"osm_id":"node/4040300217","kategori":"kargo","ad":"FedEx"}},{"type":"Feature","geometry":{"type":"Point","coordinates":[29.094265,40.954546]},"properties":{"osm_id":"node/4068064207","kategori":"kargo","ad":"PTT Bostancı"}},{"type":"Feature","geometry":{"type":"Point","coordinates":[28.957839,41.005236]},"properties":{"osm_id":"node/4129048290","kategori":"kargo","ad":"Kargo"}},{"type":"Feature","geometry":{"type":"Point","coordinates":[29.031393,41.033532]},"properties":{"osm_id":"node/4161590406","kategori":"kargo","ad":"Kuzguncuk PTT"}},{"type":"Feature","geometry":{"type":"Point","coordinates":[28.818069,40.977715]},"properties":{"osm_id":"node/4358833891","kategori":"kargo","ad":"Ptt Post Office"}},{"type":"Feature","geometry":{"type":"Point","coordinates":[28.824666,40.962312]},"properties":{"osm_id":"node/4397739796","kategori":"kargo","ad":"DHL Express Istanbul"}},{"type":"Feature","geometry":{"type":"Point","coordinates":[28.541951,41.002272]},"properties":{"osm_id":"node/4419105495","kategori":"kargo","ad":"Yurtiçi Kargo Mimaroba"}},{"type":"Feature","geometry":{"type":"Point","coordinates":[28.955956,41.004915]},"properties":{"osm_id":"node/4472707720","kategori":"kargo","ad":"Gloriya Kargo"}},{"type":"Feature","geometry":{"type":"Point","coordinates":[28.539041,41.006785]},"properties":{"osm_id":"node/4527976475","kategori":"kargo","ad":"PTT-Batıköy Şubesi"}},{"type":"Feature","geometry":{"type":"Point","coordinates":[28.819009,41.017404]},"properties":{"osm_id":"node/4549349221","kategori":"kargo","ad":"Ptt"}},{"type":"Feature","geometry":{"type":"Point","coordinates":[28.550067,41.010909]},"properties":{"osm_id":"node/4559180524","kategori":"kargo","ad":"Aras Kargo - Mimaroba"}},{"type":"Feature","geometry":{"type":"Point","coordinates":[29.091978,40.959988]},"properties":{"osm_id":"node/4561221849","kategori":"kargo","ad":"Mng Kargo"}},{"type":"Feature","geometry":{"type":"Point","coordinates":[28.871641,41.007671]},"properties":{"osm_id":"node/4567346089","kategori":"kargo","ad":"PTT"}},{"type":"Feature","geometry":{"type":"Point","coordinates":[29.133968,40.930906]},"properties":{"osm_id":"node/4571569804","kategori":"kargo","ad":"Yurtiçi Kargo Maltepe Şubesi"}},{"type":"Feature","geometry":{"type":"Point","coordinates":[29.116987,40.978428]},"properties":{"osm_id":"node/4577408984","kategori":"kargo","ad":"Yurtiçi Kargo"}},{"type":"Feature","geometry":{"type":"Point","coordinates":[29.21727,41.008029]},"properties":{"osm_id":"node/4584291180","kategori":"kargo","ad":"Sancaktepe PTT"}},{"type":"Feature","geometry":{"type":"Point","coordinates":[28.859411,40.999193]},"properties":{"osm_id":"node/4586993083","kategori":"kargo","ad":"MNG Kargo"}},{"type":"Feature","geometry":{"type":"Point","coordinates":[29.089558,41.093938]},"properties":{"osm_id":"node/4691931863","kategori":"kargo","ad":"Yurtiçi Kargo"}},{"type":"Feature","geometry":{"type":"Point","coordinates":[28.82515,40.960239]},"properties":{"osm_id":"node/4704338092","kategori":"kargo","ad":"Yeşilköy Postanesi"}},{"type":"Feature","geometry":{"type":"Point","coordinates":[29.031434,40.987548]},"properties":{"osm_id":"node/4732822051","kategori":"kargo","ad":"Sürat Kargo"}},{"type":"Feature","geometry":{"type":"Point","coordinates":[28.794221,41.047956]},"properties":{"osm_id":"node/4890136374","kategori":"kargo","ad":"PTT"}},{"type":"Feature","geometry":{"type":"Point","coordinates":[28.786344,41.041395]},"properties":{"osm_id":"node/4913507888","kategori":"kargo","ad":null}},{"type":"Feature","geometry":{"type":"Point","coordinates":[29.272633,40.87878]},"properties":{"osm_id":"node/4927027527","kategori":"kargo","ad":"Ptt"}},{"type":"Feature","geometry":{"type":"Point","coordinates":[28.817346,41.035052]},"properties":{"osm_id":"node/4956536809","kategori":"kargo","ad":"MNG Kargo"}},{"type":"Feature","geometry":{"type":"Point","coordinates":[28.816925,41.03286]},"properties":{"osm_id":"node/4966093132","kategori":"kargo","ad":"Yurtiçi Kargo"}},{"type":"Feature","geometry":{"type":"Point","coordinates":[28.796031,40.99352]},"properties":{"osm_id":"node/5039237326","kategori":"kargo","ad":"MNG Kargo"}},{"type":"Feature","geometry":{"type":"Point","coordinates":[28.937797,41.0134]},"properties":{"osm_id":"node/5075929022","kategori":"kargo","ad":"PTT"}},{"type":"Feature","geometry":{"type":"Point","coordinates":[28.940606,41.012515]},"properties":{"osm_id":"node/5081264717","kategori":"kargo","ad":"Aras Kargo"}},{"type":"Feature","geometry":{"type":"Point","coordinates":[28.941394,41.012152]},"properties":{"osm_id":"node/5081265937","kategori":"kargo","ad":"Surat Kargo"}},{"type":"Feature","geometry":{"type":"Point","coordinates":[28.954521,41.026805]},"properties":{"osm_id":"node/5081445042","kategori":"kargo","ad":"MNG Kargo"}},{"type":"Feature","geometry":{"type":"Point","coordinates":[28.954627,41.026897]},"properties":{"osm_id":"node/5081445043","kategori":"kargo","ad":"Sürat Kargo"}},{"type":"Feature","geometry":{"type":"Point","coordinates":[28.954189,41.026677]},"properties":{"osm_id":"node/5081445046","kategori":"kargo","ad":"Yurtiçi Kargo Balat"}},{"type":"Feature","geometry":{"type":"Point","coordinates":[28.923866,40.998925]},"properties":{"osm_id":"node/5081616954","kategori":"kargo","ad":"Ptt Yedi Kule"}},{"type":"Feature","geometry":{"type":"Point","coordinates":[28.953855,41.024905]},"properties":{"osm_id":"node/5086061101","kategori":"kargo","ad":"PTT"}},{"type":"Feature","geometry":{"type":"Point","coordinates":[28.183775,41.410758]},"properties":{"osm_id":"node/5088462085","kategori":"kargo","ad":"PTT Binkılıç Şubesi"}},{"type":"Feature","geometry":{"type":"Point","coordinates":[28.926887,41.020829]},"properties":{"osm_id":"node/5103810758","kategori":"kargo","ad":"PTT Topkapı Kaleiçi"}},{"type":"Feature","geometry":{"type":"Point","coordinates":[28.953703,41.011213]},"properties":{"osm_id":"node/5106112131","kategori":"kargo","ad":"Alborz Tur & Kargo"}},{"type":"Feature","geometry":{"type":"Point","coordinates":[28.953674,41.010824]},"properties":{"osm_id":"node/5106112132","kategori":"kargo","ad":"Hadi Kargo"}},{"type":"Feature","geometry":{"type":"Point","coordinates":[28.955884,41.012353]},"properties":{"osm_id":"node/5106118278","kategori":"kargo","ad":"Cevahir Tekstil"}},{"type":"Feature","geometry":{"type":"Point","coordinates":[28.934759,41.01244]},"properties":{"osm_id":"node/5106133698","kategori":"kargo","ad":"Mng Kargo"}},{"type":"Feature","geometry":{"type":"Point","coordinates":[28.932075,41.006714]},"properties":{"osm_id":"node/5107245380","kategori":"kargo","ad":"Yurtiçi Kargo"}},{"type":"Feature","geometry":{"type":"Point","coordinates":[28.976917,41.014286]},"properties":{"osm_id":"node/5108828637","kategori":"kargo","ad":"Mng Kargo - Nöbethane"}},{"type":"Feature","geometry":{"type":"Point","coordinates":[28.977599,41.008567]},"properties":{"osm_id":"node/5108843119","kategori":"kargo","ad":"DHL Express"}},{"type":"Feature","geometry":{"type":"Point","coordinates":[28.975181,41.010795]},"properties":{"osm_id":"node/5108843356","kategori":"kargo","ad":"Sürat Kargo"}},{"type":"Feature","geometry":{"type":"Point","coordinates":[28.976688,41.01001]},"properties":{"osm_id":"node/5108843384","kategori":"kargo","ad":"Tnt Kargo"}},{"type":"Feature","geometry":{"type":"Point","coordinates":[28.957429,41.015592]},"properties":{"osm_id":"node/5110342185","kategori":"kargo","ad":"Mng kargo"}},{"type":"Feature","geometry":{"type":"Point","coordinates":[28.959585,41.01902]},"properties":{"osm_id":"node/5110347218","kategori":"kargo","ad":"Sürat kargo"}},{"type":"Feature","geometry":{"type":"Point","coordinates":[28.975022,41.016154]},"properties":{"osm_id":"node/5110347230","kategori":"kargo","ad":"Yurtiçi Kargo"}},{"type":"Feature","geometry":{"type":"Point","coordinates":[28.974833,41.016147]},"properties":{"osm_id":"node/5110347231","kategori":"kargo","ad":"Sürat kargo"}},{"type":"Feature","geometry":{"type":"Point","coordinates":[28.9746,41.016166]},"properties":{"osm_id":"node/5110347232","kategori":"kargo","ad":"Mng kargo"}},{"type":"Feature","geometry":{"type":"Point","coordinates":[28.97451,41.016185]},"properties":{"osm_id":"node/5110347233","kategori":"kargo","ad":"Aras kargo"}},{"type":"Feature","geometry":{"type":"Point","coordinates":[28.929367,41.004167]},"properties":{"osm_id":"node/5113125934","kategori":"kargo","ad":"Ptt Kocamostafapaşa"}},{"type":"Feature","geometry":{"type":"Point","coordinates":[28.923993,41.0067]},"properties":{"osm_id":"node/5113472206","kategori":"kargo","ad":"Global 777 cargo"}},{"type":"Feature","geometry":{"type":"Point","coordinates":[28.966794,41.015686]},"properties":{"osm_id":"node/5113485104","kategori":"kargo","ad":"PTT"}},{"type":"Feature","geometry":{"type":"Point","coordinates":[28.937535,41.027835]},"properties":{"osm_id":"node/5113495941","kategori":"kargo","ad":"Ptt"}},{"type":"Feature","geometry":{"type":"Point","coordinates":[28.94646,41.00978]},"properties":{"osm_id":"node/5113557368","kategori":"kargo","ad":"PTT"}},{"type":"Feature","geometry":{"type":"Point","coordinates":[28.934091,41.006888]},"properties":{"osm_id":"node/5115937357","kategori":"kargo","ad":"Ptt-cerrahpaşa Şubesi"}},{"type":"Feature","geometry":{"type":"Point","coordinates":[28.932083,41.00134]},"properties":{"osm_id":"node/5115940970","kategori":"kargo","ad":"PTT"}},{"type":"Feature","geometry":{"type":"Point","coordinates":[28.653948,41.012303]},"properties":{"osm_id":"node/5132843154","kategori":"kargo","ad":"MNG Kargo Şubesi"}},{"type":"Feature","geometry":{"type":"Point","coordinates":[28.944332,41.018081]},"properties":{"osm_id":"node/5243951980","kategori":"kargo","ad":"Yurtiçi kargo"}},{"type":"Feature","geometry":{"type":"Point","coordinates":[28.943181,41.01921]},"properties":{"osm_id":"node/5243952001","kategori":"kargo","ad":"MNG kargo"}},{"type":"Feature","geometry":{"type":"Point","coordinates":[28.942625,41.020043]},"properties":{"osm_id":"node/5243952015","kategori":"kargo","ad":"Surat kargo"}},{"type":"Feature","geometry":{"type":"Point","coordinates":[28.94522,41.014977]},"properties":{"osm_id":"node/5243952790","kategori":"kargo","ad":"PTT"}},{"type":"Feature","geometry":{"type":"Point","coordinates":[28.96929,41.016586]},"properties":{"osm_id":"node/5244795916","kategori":"kargo","ad":"Sürat Kargo"}},{"type":"Feature","geometry":{"type":"Point","coordinates":[28.973852,41.010787]},"properties":{"osm_id":"node/5244805884","kategori":"kargo","ad":"Yurtiçi Kargo"}},{"type":"Feature","geometry":{"type":"Point","coordinates":[28.964604,41.019191]},"properties":{"osm_id":"node/5244812072","kategori":"kargo","ad":"Aras Kargo"}},{"type":"Feature","geometry":{"type":"Point","coordinates":[29.160034,40.999963]},"properties":{"osm_id":"node/5259665247","kategori":"kargo","ad":"Yurtiçi Kargo"}},{"type":"Feature","geometry":{"type":"Point","coordinates":[29.221691,41.023748]},"properties":{"osm_id":"node/5261485463","kategori":"kargo","ad":"Yurtiçi Kargo Taşdelen Şubesi"}},{"type":"Feature","geometry":{"type":"Point","coordinates":[29.190095,41.015912]},"properties":{"osm_id":"node/5262246754","kategori":"kargo","ad":"MNG Kargo Çekmeköy Şubesi"}},{"type":"Feature","geometry":{"type":"Point","coordinates":[29.172584,41.032075]},"properties":{"osm_id":"node/5262274008","kategori":"kargo","ad":"Sürat Kargo Çekmeköy Şubesi"}},{"type":"Feature","geometry":{"type":"Point","coordinates":[29.17063,41.026605]},"properties":{"osm_id":"node/5262274009","kategori":"kargo","ad":"TNT Kargo Çekmeköy Şubesi"}},{"type":"Feature","geometry":{"type":"Point","coordinates":[29.236915,41.043622]},"properties":{"osm_id":"node/5263177182","kategori":"kargo","ad":"PTT 15. Füze Üssü Şubesi"}},{"type":"Feature","geometry":{"type":"Point","coordinates":[29.108622,40.947433]},"properties":{"osm_id":"node/5271346272","kategori":"kargo","ad":"Küçükyalı PTT"}},{"type":"Feature","geometry":{"type":"Point","coordinates":[28.89514,41.049541]},"properties":{"osm_id":"node/5293044464","kategori":"kargo","ad":"PTT Posta Banka Lojistik"}},{"type":"Feature","geometry":{"type":"Point","coordinates":[28.858231,41.110693]},"properties":{"osm_id":"node/5295117700","kategori":"kargo","ad":"MNG Kargo"}},{"type":"Feature","geometry":{"type":"Point","coordinates":[28.866961,41.109226]},"properties":{"osm_id":"node/5295861953","kategori":"kargo","ad":"Ptt"}},{"type":"Feature","geometry":{"type":"Point","coordinates":[29.241218,41.047746]},"properties":{"osm_id":"node/5303260408","kategori":"kargo","ad":"PTT Alemdağ Şubesi"}},{"type":"Feature","geometry":{"type":"Point","coordinates":[29.224024,41.022534]},"properties":{"osm_id":"node/5303260420","kategori":"kargo","ad":"PTT Cumhuriyet Mahallesi Şubesi"}},{"type":"Feature","geometry":{"type":"Point","coordinates":[29.097692,41.007932]},"properties":{"osm_id":"node/5303352239","kategori":"kargo","ad":"PTT"}},{"type":"Feature","geometry":{"type":"Point","coordinates":[29.09531,40.987412]},"properties":{"osm_id":"node/5314646992","kategori":"kargo","ad":"Aras Kargo"}},{"type":"Feature","geometry":{"type":"Point","coordinates":[29.273984,40.97321]},"properties":{"osm_id":"node/5329311009","kategori":"kargo","ad":"Ptt"}},{"type":"Feature","geometry":{"type":"Point","coordinates":[29.263645,40.973157]},"properties":{"osm_id":"node/5329311689","kategori":"kargo","ad":"MNG Kargo"}},{"type":"Feature","geometry":{"type":"Point","coordinates":[29.264395,40.973479]},"properties":{"osm_id":"node/5329311704","kategori":"kargo","ad":"Yurtiçi Kargo"}},{"type":"Feature","geometry":{"type":"Point","coordinates":[29.264853,40.980732]},"properties":{"osm_id":"node/5329319581","kategori":"kargo","ad":"ISMMMO"}},{"type":"Feature","geometry":{"type":"Point","coordinates":[29.270384,40.963098]},"properties":{"osm_id":"node/5329337949","kategori":"kargo","ad":"PTT"}},{"type":"Feature","geometry":{"type":"Point","coordinates":[29.269719,40.96586]},"properties":{"osm_id":"node/5329337953","kategori":"kargo","ad":"PTT"}},{"type":"Feature","geometry":{"type":"Point","coordinates":[29.18184,41.040565]},"properties":{"osm_id":"node/5450403319","kategori":"kargo","ad":"PTT Merkez Mahallesi"}},{"type":"Feature","geometry":{"type":"Point","coordinates":[28.970352,41.016865]},"properties":{"osm_id":"node/5482975729","kategori":"kargo","ad":"PTT"}},{"type":"Feature","geometry":{"type":"Point","coordinates":[28.946191,41.044689]},"properties":{"osm_id":"node/5482986021","kategori":"kargo","ad":"Ptt"}},{"type":"Feature","geometry":{"type":"Point","coordinates":[28.994642,41.047743]},"properties":{"osm_id":"node/5493659822","kategori":"kargo","ad":"Ptt"}},{"type":"Feature","geometry":{"type":"Point","coordinates":[29.266462,40.981388]},"properties":{"osm_id":"node/5542883189","kategori":"kargo","ad":"PTT"}},{"type":"Feature","geometry":{"type":"Point","coordinates":[29.24859,40.972279]},"properties":{"osm_id":"node/5542883323","kategori":"kargo","ad":"PTT Hasanpaşa"}},{"type":"Feature","geometry":{"type":"Point","coordinates":[29.257278,40.959986]},"properties":{"osm_id":"node/5542891480","kategori":"kargo","ad":"PTT Abdurrahmangazi Şubesi"}},{"type":"Feature","geometry":{"type":"Point","coordinates":[29.010445,41.090319]},"properties":{"osm_id":"node/5580720934","kategori":"kargo","ad":"PTT Yenilevent Şube"}},{"type":"Feature","geometry":{"type":"Point","coordinates":[28.913391,41.009955]},"properties":{"osm_id":"node/5666802362","kategori":"kargo","ad":"PTT"}},{"type":"Feature","geometry":{"type":"Point","coordinates":[28.909502,41.024527]},"properties":{"osm_id":"node/5667618160","kategori":"kargo","ad":"Aras Kargo"}},{"type":"Feature","geometry":{"type":"Point","coordinates":[28.90356,41.020045]},"properties":{"osm_id":"node/5667618403","kategori":"kargo","ad":"Aras Kargo"}},{"type":"Feature","geometry":{"type":"Point","coordinates":[28.909407,41.027363]},"properties":{"osm_id":"node/5667618634","kategori":"kargo","ad":"Sürat Kargo"}},{"type":"Feature","geometry":{"type":"Point","coordinates":[28.912789,41.029736]},"properties":{"osm_id":"node/5667618758","kategori":"kargo","ad":"Yurtiçi Kargo"}},{"type":"Feature","geometry":{"type":"Point","coordinates":[28.902615,41.020557]},"properties":{"osm_id":"node/5667618793","kategori":"kargo","ad":"MNG Kargo"}},{"type":"Feature","geometry":{"type":"Point","coordinates":[28.908786,41.020574]},"properties":{"osm_id":"node/5667619221","kategori":"kargo","ad":"Sürat Kargo"}},{"type":"Feature","geometry":{"type":"Point","coordinates":[28.898275,41.006685]},"properties":{"osm_id":"node/5667640759","kategori":"kargo","ad":"MELISSA KARGO"}},{"type":"Feature","geometry":{"type":"Point","coordinates":[28.913353,40.999984]},"properties":{"osm_id":"node/5667641585","kategori":"kargo","ad":"PTT"}},{"type":"Feature","geometry":{"type":"Point","coordinates":[28.910431,40.998899]},"properties":{"osm_id":"node/5667642066","kategori":"kargo","ad":"Sürat Kargo"}},{"type":"Feature","geometry":{"type":"Point","coordinates":[28.905259,40.98981]},"properties":{"osm_id":"node/5667655673","kategori":"kargo","ad":"Ptt"}},{"type":"Feature","geometry":{"type":"Point","coordinates":[28.893289,40.983534]},"properties":{"osm_id":"node/5667660908","kategori":"kargo","ad":"MNG Kargo"}},{"type":"Feature","geometry":{"type":"Point","coordinates":[28.830369,41.051705]},"properties":{"osm_id":"node/5667668991","kategori":"kargo","ad":"Aras Kargo"}},{"type":"Feature","geometry":{"type":"Point","coordinates":[28.813027,41.05726]},"properties":{"osm_id":"node/5667669002","kategori":"kargo","ad":"Yurtiçi Kargo"}},{"type":"Feature","geometry":{"type":"Point","coordinates":[28.829554,41.068979]},"properties":{"osm_id":"node/5667669992","kategori":"kargo","ad":"Çağrı kargo"}},{"type":"Feature","geometry":{"type":"Point","coordinates":[28.829219,41.068716]},"properties":{"osm_id":"node/5667670043","kategori":"kargo","ad":"Aras Kargo"}},{"type":"Feature","geometry":{"type":"Point","coordinates":[28.85015,41.059665]},"properties":{"osm_id":"node/5667673436","kategori":"kargo","ad":"Aras Cargo"}},{"type":"Feature","geometry":{"type":"Point","coordinates":[28.849418,41.053045]},"properties":{"osm_id":"node/5667673452","kategori":"kargo","ad":"PTT"}},{"type":"Feature","geometry":{"type":"Point","coordinates":[28.834258,41.053573]},"properties":{"osm_id":"node/5667675013","kategori":"kargo","ad":"PTT"}},{"type":"Feature","geometry":{"type":"Point","coordinates":[28.830361,41.051539]},"properties":{"osm_id":"node/5667675020","kategori":"kargo","ad":"Yurtiçi Kargo"}},{"type":"Feature","geometry":{"type":"Point","coordinates":[28.827502,41.030745]},"properties":{"osm_id":"node/5667684473","kategori":"kargo","ad":"PTT"}},{"type":"Feature","geometry":{"type":"Point","coordinates":[28.840594,41.030527]},"properties":{"osm_id":"node/5667686366","kategori":"kargo","ad":"Ptt"}},{"type":"Feature","geometry":{"type":"Point","coordinates":[28.836213,41.031075]},"properties":{"osm_id":"node/5667686391","kategori":"kargo","ad":"Sürat Kargo"}},{"type":"Feature","geometry":{"type":"Point","coordinates":[28.828875,41.031262]},"properties":{"osm_id":"node/5667688681","kategori":"kargo","ad":"Aras Kargo"}},{"type":"Feature","geometry":{"type":"Point","coordinates":[28.832556,41.041657]},"properties":{"osm_id":"node/5667701610","kategori":"kargo","ad":"Ptt"}},{"type":"Feature","geometry":{"type":"Point","coordinates":[28.860882,41.033406]},"properties":{"osm_id":"node/5667722032","kategori":"kargo","ad":"PTT"}},{"type":"Feature","geometry":{"type":"Point","coordinates":[28.849755,41.030958]},"properties":{"osm_id":"node/5667748009","kategori":"kargo","ad":"Ptt Yıldıztepe"}},{"type":"Feature","geometry":{"type":"Point","coordinates":[28.984327,41.033896]},"properties":{"osm_id":"node/5713866523","kategori":"kargo","ad":"PTT Taksim"}},{"type":"Feature","geometry":{"type":"Point","coordinates":[29.136748,41.005961]},"properties":{"osm_id":"node/5729024165","kategori":"kargo","ad":"Yurtiçi Kargo"}},{"type":"Feature","geometry":{"type":"Point","coordinates":[28.988417,41.061284]},"properties":{"osm_id":"node/5753791521","kategori":"kargo","ad":"Ptt"}},{"type":"Feature","geometry":{"type":"Point","coordinates":[29.32847,40.870125]},"properties":{"osm_id":"node/5898711474","kategori":"kargo","ad":"Ptt - Aydınlı Şubesi"}},{"type":"Feature","geometry":{"type":"Point","coordinates":[29.328102,40.865018]},"properties":{"osm_id":"node/5914862442","kategori":"kargo","ad":"Aydınlı PTT Merkez Müdürlüğü"}},{"type":"Feature","geometry":{"type":"Point","coordinates":[29.345581,40.881375]},"properties":{"osm_id":"node/5942892960","kategori":"kargo","ad":"Aras Kargo"}},{"type":"Feature","geometry":{"type":"Point","coordinates":[29.228611,40.901899]},"properties":{"osm_id":"node/5951614365","kategori":"kargo","ad":"PTT"}},{"type":"Feature","geometry":{"type":"Point","coordinates":[29.3565,40.895321]},"properties":{"osm_id":"node/5969777225","kategori":"kargo","ad":"Ptt Orhanlı Şubesi"}},{"type":"Feature","geometry":{"type":"Point","coordinates":[29.856979,41.138903]},"properties":{"osm_id":"node/6049893606","kategori":"kargo","ad":"Ptt - Ağva Şubesi"}},{"type":"Feature","geometry":{"type":"Point","coordinates":[28.963212,41.00686]},"properties":{"osm_id":"node/6072311186","kategori":"kargo","ad":"PTT"}},{"type":"Feature","geometry":{"type":"Point","coordinates":[29.225379,40.918881]},"properties":{"osm_id":"node/6080364500","kategori":"kargo","ad":null}},{"type":"Feature","geometry":{"type":"Point","coordinates":[29.004677,41.085812]},"properties":{"osm_id":"node/6116206893","kategori":"kargo","ad":"PTT Emniyet Evleri Mahallesi"}},{"type":"Feature","geometry":{"type":"Point","coordinates":[29.203138,41.008469]},"properties":{"osm_id":"node/6133573947","kategori":"kargo","ad":"Yurtiçi Kargo"}},{"type":"Feature","geometry":{"type":"Point","coordinates":[29.299063,40.867832]},"properties":{"osm_id":"node/6164277225","kategori":"kargo","ad":"Ptt"}},{"type":"Feature","geometry":{"type":"Point","coordinates":[29.082359,41.004781]},"properties":{"osm_id":"node/6172027520","kategori":"kargo","ad":"PTT"}},{"type":"Feature","geometry":{"type":"Point","coordinates":[29.113935,40.981941]},"properties":{"osm_id":"node/6183213960","kategori":"kargo","ad":"DHL eCommerce"}},{"type":"Feature","geometry":{"type":"Point","coordinates":[29.043159,41.067888]},"properties":{"osm_id":"node/6206649085","kategori":"kargo","ad":"Ptt"}},{"type":"Feature","geometry":{"type":"Point","coordinates":[29.137739,41.009086]},"properties":{"osm_id":"node/6206806385","kategori":"kargo","ad":"Ptt"}},{"type":"Feature","geometry":{"type":"Point","coordinates":[29.332255,40.818735]},"properties":{"osm_id":"node/6208674571","kategori":"kargo","ad":"Ptt - Piyade Okulu Şube Şefliği"}},{"type":"Feature","geometry":{"type":"Point","coordinates":[29.304466,40.818354]},"properties":{"osm_id":"node/6208674576","kategori":"kargo","ad":"Tuzla Ptt"}},{"type":"Feature","geometry":{"type":"Point","coordinates":[29.311145,40.831228]},"properties":{"osm_id":"node/6208674577","kategori":"kargo","ad":"Ptt - Tuzla Yayla Şubesi"}},{"type":"Feature","geometry":{"type":"Point","coordinates":[29.300742,40.840119]},"properties":{"osm_id":"node/6208684252","kategori":"kargo","ad":"Tuzla Posta Dağıtım Merkez Müdürlüğü"}},{"type":"Feature","geometry":{"type":"Point","coordinates":[29.300783,40.851119]},"properties":{"osm_id":"node/6208684253","kategori":"kargo","ad":"Ptt - İçmeler Şubesi"}},{"type":"Feature","geometry":{"type":"Point","coordinates":[29.361552,40.834154]},"properties":{"osm_id":"node/6208685879","kategori":"kargo","ad":"Ptt - Tuzla Mimarsinan Şubesi"}},{"type":"Feature","geometry":{"type":"Point","coordinates":[29.219433,40.909548]},"properties":{"osm_id":"node/6244604908","kategori":"kargo","ad":"PTT"}},{"type":"Feature","geometry":{"type":"Point","coordinates":[29.220693,40.909047]},"properties":{"osm_id":"node/6246088967","kategori":"kargo","ad":"Yurtiçi Kargo"}},{"type":"Feature","geometry":{"type":"Point","coordinates":[28.794524,41.00079]},"properties":{"osm_id":"node/6260586108","kategori":"kargo","ad":"Kemalpaşa Mahallesi PTT"}},{"type":"Feature","geometry":{"type":"Point","coordinates":[29.067018,40.96826]},"properties":{"osm_id":"node/6288072675","kategori":"kargo","ad":"Caddebostan PTT"}},{"type":"Feature","geometry":{"type":"Point","coordinates":[29.279418,40.915359]},"properties":{"osm_id":"node/6317600227","kategori":"kargo","ad":"Ptt"}},{"type":"Feature","geometry":{"type":"Point","coordinates":[29.229657,40.879237]},"properties":{"osm_id":"node/6387281152","kategori":"kargo","ad":"Ptt"}},{"type":"Feature","geometry":{"type":"Point","coordinates":[29.036326,40.9938]},"properties":{"osm_id":"node/6400616341","kategori":"kargo","ad":"Aras Kargo"}},{"type":"Feature","geometry":{"type":"Point","coordinates":[29.297132,40.844076]},"properties":{"osm_id":"node/6408842742","kategori":"kargo","ad":"Sürat Kargo"}},{"type":"Feature","geometry":{"type":"Point","coordinates":[29.301373,40.865266]},"properties":{"osm_id":"node/6475590358","kategori":"kargo","ad":"Ptt"}},{"type":"Feature","geometry":{"type":"Point","coordinates":[29.300452,40.914383]},"properties":{"osm_id":"node/6475590359","kategori":"kargo","ad":"Ptt"}},{"type":"Feature","geometry":{"type":"Point","coordinates":[29.275086,40.895467]},"properties":{"osm_id":"node/6475590360","kategori":"kargo","ad":"Ptt"}},{"type":"Feature","geometry":{"type":"Point","coordinates":[29.286656,40.880179]},"properties":{"osm_id":"node/6475590361","kategori":"kargo","ad":"Ptt"}},{"type":"Feature","geometry":{"type":"Point","coordinates":[29.025146,40.985449]},"properties":{"osm_id":"node/6525503130","kategori":"kargo","ad":"Aras - Moda"}},{"type":"Feature","geometry":{"type":"Point","coordinates":[29.279363,40.905882]},"properties":{"osm_id":"node/6531677479","kategori":"kargo","ad":"Ptt Kurtköy Posta Dağıtım Müdürlüğü"}},{"type":"Feature","geometry":{"type":"Point","coordinates":[29.298209,40.913773]},"properties":{"osm_id":"node/6532153497","kategori":"kargo","ad":"Ptt"}},{"type":"Feature","geometry":{"type":"Point","coordinates":[29.296273,40.931291]},"properties":{"osm_id":"node/6532153573","kategori":"kargo","ad":"Sürat Kargo"}},{"type":"Feature","geometry":{"type":"Point","coordinates":[28.83096,40.985998]},"properties":{"osm_id":"node/6543138546","kategori":"kargo","ad":"Ptt"}},{"type":"Feature","geometry":{"type":"Point","coordinates":[28.166684,41.111765]},"properties":{"osm_id":"node/6546308723","kategori":"kargo","ad":"Kınalı PTT HGS Dolum"}},{"type":"Feature","geometry":{"type":"Point","coordinates":[29.069201,40.880808]},"properties":{"osm_id":"node/6637556132","kategori":"kargo","ad":"Ptt"}},{"type":"Feature","geometry":{"type":"Point","coordinates":[29.022153,41.004673]},"properties":{"osm_id":"node/6669804334","kategori":"kargo","ad":"Ptt"}},{"type":"Feature","geometry":{"type":"Point","coordinates":[29.035482,40.993281]},"properties":{"osm_id":"node/6683999287","kategori":"kargo","ad":"PTT"}},{"type":"Feature","geometry":{"type":"Point","coordinates":[29.04062,40.992151]},"properties":{"osm_id":"node/6684365408","kategori":"kargo","ad":"MNG Kargo"}},{"type":"Feature","geometry":{"type":"Point","coordinates":[28.896225,41.015204]},"properties":{"osm_id":"node/6749940276","kategori":"kargo","ad":"Tozkoparan sosyal konutlar PTT"}},{"type":"Feature","geometry":{"type":"Point","coordinates":[28.882966,41.015473]},"properties":{"osm_id":"node/6753294533","kategori":"kargo","ad":"PTT Merter Keresteciler Şubesi"}},{"type":"Feature","geometry":{"type":"Point","coordinates":[29.183979,40.90075]},"properties":{"osm_id":"node/6806288584","kategori":"kargo","ad":"Ptt - Karlıktepe"}},{"type":"Feature","geometry":{"type":"Point","coordinates":[29.256417,40.902603]},"properties":{"osm_id":"node/6833798496","kategori":"kargo","ad":"Ptt - Velibaba"}},{"type":"Feature","geometry":{"type":"Point","coordinates":[28.912366,41.031483]},"properties":{"osm_id":"node/6854402245","kategori":"kargo","ad":"Ptt"}},{"type":"Feature","geometry":{"type":"Point","coordinates":[29.015946,41.021908]},"properties":{"osm_id":"node/6872628700","kategori":"kargo","ad":"Ptt Üsküdar Şubesi"}},{"type":"Feature","geometry":{"type":"Point","coordinates":[28.788684,41.1098]},"properties":{"osm_id":"node/6874291252","kategori":"kargo","ad":"PTT Olimpa"}},{"type":"Feature","geometry":{"type":"Point","coordinates":[29.030413,41.027341]},"properties":{"osm_id":"node/6877031850","kategori":"kargo","ad":"Ptt - Fıstıkağacı Şubesi"}},{"type":"Feature","geometry":{"type":"Point","coordinates":[29.087147,41.142744]},"properties":{"osm_id":"node/6920997895","kategori":"kargo","ad":"PTT"}},{"type":"Feature","geometry":{"type":"Point","coordinates":[29.08719,41.142395]},"properties":{"osm_id":"node/6922027279","kategori":"kargo","ad":"MNG Kargo"}},{"type":"Feature","geometry":{"type":"Point","coordinates":[29.091227,40.988666]},"properties":{"osm_id":"node/6924867021","kategori":"kargo","ad":"Ptt - Yenisahra Şubesi"}},{"type":"Feature","geometry":{"type":"Point","coordinates":[28.759319,41.10529]},"properties":{"osm_id":"node/6939087412","kategori":"kargo","ad":"Kayaşehir PTT"}},{"type":"Feature","geometry":{"type":"Point","coordinates":[29.115024,40.978885]},"properties":{"osm_id":"node/6965190669","kategori":"kargo","ad":"PTT Ataşehir"}},{"type":"Feature","geometry":{"type":"Point","coordinates":[28.792031,41.095949]},"properties":{"osm_id":"node/6976444484","kategori":"kargo","ad":"Sürat Kargo Tümsan"}},{"type":"Feature","geometry":{"type":"Point","coordinates":[28.793942,41.103127]},"properties":{"osm_id":"node/6976968521","kategori":"kargo","ad":"Ptt Başakşehir"}},{"type":"Feature","geometry":{"type":"Point","coordinates":[28.785825,41.055923]},"properties":{"osm_id":"node/7029938301","kategori":"kargo","ad":"PTT Şubesi"}},{"type":"Feature","geometry":{"type":"Point","coordinates":[29.117934,41.020634]},"properties":{"osm_id":"node/7090453198","kategori":"kargo","ad":"PTT Armağanevler"}},{"type":"Feature","geometry":{"type":"Point","coordinates":[29.109414,41.020764]},"properties":{"osm_id":"node/7096226108","kategori":"kargo","ad":"Ptt Ümraniye Posta Dağıtım Merkezi Müdürlüğü"}},{"type":"Feature","geometry":{"type":"Point","coordinates":[28.993831,41.057288]},"properties":{"osm_id":"node/7131226063","kategori":"kargo","ad":"Aras Kargo"}},{"type":"Feature","geometry":{"type":"Point","coordinates":[28.991948,41.057789]},"properties":{"osm_id":"node/7131240967","kategori":"kargo","ad":"MNG Kargo"}},{"type":"Feature","geometry":{"type":"Point","coordinates":[29.085487,41.014517]},"properties":{"osm_id":"node/7132896837","kategori":"kargo","ad":"Ptt Çamlıca"}},{"type":"Feature","geometry":{"type":"Point","coordinates":[29.214701,40.918435]},"properties":{"osm_id":"node/7590628607","kategori":"kargo","ad":"Yurtiçi Kargo"}},{"type":"Feature","geometry":{"type":"Point","coordinates":[28.709925,40.998575]},"properties":{"osm_id":"node/7592436154","kategori":"kargo","ad":"PTT"}},{"type":"Feature","geometry":{"type":"Point","coordinates":[29.118531,40.980799]},"properties":{"osm_id":"node/7635726139","kategori":"kargo","ad":"PTT Ataşehir Posta Dağıtım Merkez Müdürlüğü"}},{"type":"Feature","geometry":{"type":"Point","coordinates":[28.613113,40.991494]},"properties":{"osm_id":"node/7698901248","kategori":"kargo","ad":"PTT Gürpınar Şübesi"}},{"type":"Feature","geometry":{"type":"Point","coordinates":[29.070938,40.980916]},"properties":{"osm_id":"node/7743105977","kategori":"kargo","ad":"Aras Kargo"}},{"type":"Feature","geometry":{"type":"Point","coordinates":[28.57909,41.020836]},"properties":{"osm_id":"node/7889339019","kategori":"kargo","ad":"PTT Büyükçekmece"}},{"type":"Feature","geometry":{"type":"Point","coordinates":[29.109146,40.979324]},"properties":{"osm_id":"node/8043960796","kategori":"kargo","ad":"Yurtiçi Kargo"}},{"type":"Feature","geometry":{"type":"Point","coordinates":[29.02672,40.993838]},"properties":{"osm_id":"node/8071541660","kategori":"kargo","ad":"MNG Kargo"}},{"type":"Feature","geometry":{"type":"Point","coordinates":[29.109856,40.969389]},"properties":{"osm_id":"node/8510769971","kategori":"kargo","ad":"Aras Kargo"}},{"type":"Feature","geometry":{"type":"Point","coordinates":[29.114975,40.979104]},"properties":{"osm_id":"node/8581425239","kategori":"kargo","ad":"PTT"}},{"type":"Feature","geometry":{"type":"Point","coordinates":[29.199651,41.013937]},"properties":{"osm_id":"node/8637847983","kategori":"kargo","ad":"Sürat Kargo"}},{"type":"Feature","geometry":{"type":"Point","coordinates":[28.920643,41.049216]},"properties":{"osm_id":"node/8773904523","kategori":"kargo","ad":"PTT"}},{"type":"Feature","geometry":{"type":"Point","coordinates":[28.914447,41.045234]},"properties":{"osm_id":"node/8776769463","kategori":"kargo","ad":"Aras Kargo"}},{"type":"Feature","geometry":{"type":"Point","coordinates":[28.914727,41.045079]},"properties":{"osm_id":"node/8776769464","kategori":"kargo","ad":"MNG Kargo"}},{"type":"Feature","geometry":{"type":"Point","coordinates":[28.737371,40.977247]},"properties":{"osm_id":"node/8815788095","kategori":"kargo","ad":"PTT Denizköşkler"}},{"type":"Feature","geometry":{"type":"Point","coordinates":[29.090127,40.980795]},"properties":{"osm_id":"node/9108208696","kategori":"kargo","ad":"PTT"}},{"type":"Feature","geometry":{"type":"Point","coordinates":[28.643952,41.009803]},"properties":{"osm_id":"node/9112361192","kategori":"kargo","ad":"PTT"}},{"type":"Feature","geometry":{"type":"Point","coordinates":[28.911507,41.035842]},"properties":{"osm_id":"node/9141476429","kategori":"kargo","ad":"PTT"}},{"type":"Feature","geometry":{"type":"Point","coordinates":[29.136583,41.003995]},"properties":{"osm_id":"node/9143872324","kategori":"kargo","ad":"DHL eCommerce"}},{"type":"Feature","geometry":{"type":"Point","coordinates":[29.063111,40.982896]},"properties":{"osm_id":"node/9149456591","kategori":"kargo","ad":"MNG Kargo"}},{"type":"Feature","geometry":{"type":"Point","coordinates":[28.999471,41.115868]},"properties":{"osm_id":"node/9166902589","kategori":"kargo","ad":"Yurtiçi Kargo"}},{"type":"Feature","geometry":{"type":"Point","coordinates":[28.672692,41.056717]},"properties":{"osm_id":"node/9299724765","kategori":"kargo","ad":"Aras Kargo"}},{"type":"Feature","geometry":{"type":"Point","coordinates":[29.214134,40.881968]},"properties":{"osm_id":"node/9308433311","kategori":"kargo","ad":"PTT Pendik Posta Dağıtım Merkezi"}},{"type":"Feature","geometry":{"type":"Point","coordinates":[29.21488,40.881993]},"properties":{"osm_id":"node/9308433312","kategori":"kargo","ad":"PTT Kartal Posta Dağıtım Merkezi"}},{"type":"Feature","geometry":{"type":"Point","coordinates":[28.91493,41.045201]},"properties":{"osm_id":"node/9322063909","kategori":"kargo","ad":"Yurtiçi Kargo"}},{"type":"Feature","geometry":{"type":"Point","coordinates":[29.026801,41.08127]},"properties":{"osm_id":"node/9363528173","kategori":"kargo","ad":null}},{"type":"Feature","geometry":{"type":"Point","coordinates":[29.114824,40.968263]},"properties":{"osm_id":"node/9443881191","kategori":"kargo","ad":"İçerenköy PTT"}},{"type":"Feature","geometry":{"type":"Point","coordinates":[29.102487,40.969959]},"properties":{"osm_id":"node/9472256987","kategori":"kargo","ad":null}},{"type":"Feature","geometry":{"type":"Point","coordinates":[28.25378,41.072409]},"properties":{"osm_id":"node/9473418655","kategori":"kargo","ad":"Aras Kargo"}},{"type":"Feature","geometry":{"type":"Point","coordinates":[28.926693,41.039801]},"properties":{"osm_id":"node/9512208502","kategori":"kargo","ad":"MNG Kargo"}},{"type":"Feature","geometry":{"type":"Point","coordinates":[28.954916,41.058881]},"properties":{"osm_id":"node/9516089238","kategori":"kargo","ad":"PTT Örnekttepe Şubesi"}},{"type":"Feature","geometry":{"type":"Point","coordinates":[29.318903,40.829378]},"properties":{"osm_id":"node/9516445431","kategori":"kargo","ad":null}},{"type":"Feature","geometry":{"type":"Point","coordinates":[28.997259,41.118198]},"properties":{"osm_id":"node/9670043533","kategori":"kargo","ad":"MNG Kargo"}},{"type":"Feature","geometry":{"type":"Point","coordinates":[29.111351,40.981071]},"properties":{"osm_id":"node/9685610310","kategori":"kargo","ad":"Aras Kargo"}},{"type":"Feature","geometry":{"type":"Point","coordinates":[29.111026,40.981256]},"properties":{"osm_id":"node/9685661790","kategori":"kargo","ad":"Sürat Kargo"}},{"type":"Feature","geometry":{"type":"Point","coordinates":[29.12971,40.951135]},"properties":{"osm_id":"node/9908190518","kategori":"kargo","ad":"Yurtiçi Kargo Aydınevler Şubesi"}},{"type":"Feature","geometry":{"type":"Point","coordinates":[28.988061,41.032525]},"properties":{"osm_id":"node/9911098027","kategori":"kargo","ad":"MNG Kargo"}},{"type":"Feature","geometry":{"type":"Point","coordinates":[28.98798,41.032612]},"properties":{"osm_id":"node/9911098028","kategori":"kargo","ad":"Yurtiçicargo"}},{"type":"Feature","geometry":{"type":"Point","coordinates":[28.863722,41.095571]},"properties":{"osm_id":"node/9915302827","kategori":"kargo","ad":null}},{"type":"Feature","geometry":{"type":"Point","coordinates":[28.974169,41.083291]},"properties":{"osm_id":"node/9933676004","kategori":"kargo","ad":"PTT"}},{"type":"Feature","geometry":{"type":"Point","coordinates":[28.968824,41.034382]},"properties":{"osm_id":"node/9983062330","kategori":"kargo","ad":"PTT Kasimpaşa"}},{"type":"Feature","geometry":{"type":"Point","coordinates":[29.099749,40.877569]},"properties":{"osm_id":"node/9990534062","kategori":"kargo","ad":"PTT"}},{"type":"Feature","geometry":{"type":"Point","coordinates":[28.908211,41.033176]},"properties":{"osm_id":"node/10029601209","kategori":"kargo","ad":"MNG Kargo"}},{"type":"Feature","geometry":{"type":"Point","coordinates":[29.085027,41.006346]},"properties":{"osm_id":"node/10030749113","kategori":"kargo","ad":"MNG Kargo"}},{"type":"Feature","geometry":{"type":"Point","coordinates":[29.108172,41.024015]},"properties":{"osm_id":"node/10031383649","kategori":"kargo","ad":"Sürat Kargo"}},{"type":"Feature","geometry":{"type":"Point","coordinates":[29.110896,41.023471]},"properties":{"osm_id":"node/10132733401","kategori":"kargo","ad":"Yurtiçi Kargo"}},{"type":"Feature","geometry":{"type":"Point","coordinates":[28.912659,41.049502]},"properties":{"osm_id":"node/10142484176","kategori":"kargo","ad":"MNG Kargo"}},{"type":"Feature","geometry":{"type":"Point","coordinates":[28.969634,41.005245]},"properties":{"osm_id":"node/10178438658","kategori":"kargo","ad":null}},{"type":"Feature","geometry":{"type":"Point","coordinates":[28.912501,41.077838]},"properties":{"osm_id":"node/10212854817","kategori":"kargo","ad":null}},{"type":"Feature","geometry":{"type":"Point","coordinates":[28.918837,41.042422]},"properties":{"osm_id":"node/10226561587","kategori":"kargo","ad":"Yurtiçi Kargo"}},{"type":"Feature","geometry":{"type":"Point","coordinates":[28.911488,41.049758]},"properties":{"osm_id":"node/10226561588","kategori":"kargo","ad":"Yurtiçi Kargo"}},{"type":"Feature","geometry":{"type":"Point","coordinates":[28.867057,41.108295]},"properties":{"osm_id":"node/10231726555","kategori":"kargo","ad":"Aras Kargo"}},{"type":"Feature","geometry":{"type":"Point","coordinates":[29.033571,41.155651]},"properties":{"osm_id":"node/10289295659","kategori":"kargo","ad":"Çayırbaşı PTT"}},{"type":"Feature","geometry":{"type":"Point","coordinates":[29.117325,40.992233]},"properties":{"osm_id":"node/10294826509","kategori":"kargo","ad":"PTT"}},{"type":"Feature","geometry":{"type":"Point","coordinates":[28.697596,41.000948]},"properties":{"osm_id":"node/10541522677","kategori":"kargo","ad":"PTT Pınarlı Şubesi"}},{"type":"Feature","geometry":{"type":"Point","coordinates":[28.697416,41.000954]},"properties":{"osm_id":"node/10541522678","kategori":"kargo","ad":"PTT Esenyurt Posta Dağıtım Merkezi"}},{"type":"Feature","geometry":{"type":"Point","coordinates":[28.963295,41.055071]},"properties":{"osm_id":"node/10575332752","kategori":"kargo","ad":null}},{"type":"Feature","geometry":{"type":"Point","coordinates":[28.683991,41.02071]},"properties":{"osm_id":"node/10692778482","kategori":"kargo","ad":"Esenyurt Zafer Mahallesi Yurtiçi Kargo"}},{"type":"Feature","geometry":{"type":"Point","coordinates":[29.117794,40.99203]},"properties":{"osm_id":"node/10718549153","kategori":"kargo","ad":"Aras Kargo"}},{"type":"Feature","geometry":{"type":"Point","coordinates":[29.12112,40.992494]},"properties":{"osm_id":"node/10718549159","kategori":"kargo","ad":"DHL E-Commerce (MNG Kargo)"}},{"type":"Feature","geometry":{"type":"Point","coordinates":[29.061535,40.970315]},"properties":{"osm_id":"node/10772997208","kategori":"kargo","ad":"DHL"}},{"type":"Feature","geometry":{"type":"Point","coordinates":[28.979348,41.007524]},"properties":{"osm_id":"node/10789644905","kategori":"kargo","ad":"Ptt"}},{"type":"Feature","geometry":{"type":"Point","coordinates":[29.049213,40.976838]},"properties":{"osm_id":"node/10983122462","kategori":"kargo","ad":null}},{"type":"Feature","geometry":{"type":"Point","coordinates":[28.977659,41.008654]},"properties":{"osm_id":"node/11010255143","kategori":"kargo","ad":"DHL"}},{"type":"Feature","geometry":{"type":"Point","coordinates":[29.042614,40.980622]},"properties":{"osm_id":"node/11273099253","kategori":"kargo","ad":"PTT Fenerbahçe"}},{"type":"Feature","geometry":{"type":"Point","coordinates":[28.911454,41.055393]},"properties":{"osm_id":"node/11297643817","kategori":"kargo","ad":"Sürat Kargo"}},{"type":"Feature","geometry":{"type":"Point","coordinates":[29.049587,41.007492]},"properties":{"osm_id":"node/11365126546","kategori":"kargo","ad":null}},{"type":"Feature","geometry":{"type":"Point","coordinates":[28.868926,41.091698]},"properties":{"osm_id":"node/11585271797","kategori":"kargo","ad":null}},{"type":"Feature","geometry":{"type":"Point","coordinates":[28.084295,41.079067]},"properties":{"osm_id":"node/11683582172","kategori":"kargo","ad":"PTT Çanta"}},{"type":"Feature","geometry":{"type":"Point","coordinates":[28.368236,41.055228]},"properties":{"osm_id":"node/11863226332","kategori":"kargo","ad":"PTT Selimpaşa"}},{"type":"Feature","geometry":{"type":"Point","coordinates":[28.244955,41.074513]},"properties":{"osm_id":"node/11875775164","kategori":"kargo","ad":"PTT Çarşı"}},{"type":"Feature","geometry":{"type":"Point","coordinates":[29.125405,40.934599]},"properties":{"osm_id":"node/11949969985","kategori":"kargo","ad":"Aras Kargo - Süreyyapaşa"}},{"type":"Feature","geometry":{"type":"Point","coordinates":[29.052079,40.992684]},"properties":{"osm_id":"node/11978867998","kategori":"kargo","ad":null}},{"type":"Feature","geometry":{"type":"Point","coordinates":[28.833862,41.034933]},"properties":{"osm_id":"node/12016451421","kategori":"kargo","ad":null}},{"type":"Feature","geometry":{"type":"Point","coordinates":[28.758493,41.05669]},"properties":{"osm_id":"node/12051429447","kategori":"kargo","ad":"Yurtiçi Olimpiyat Şubesi"}},{"type":"Feature","geometry":{"type":"Point","coordinates":[29.129831,40.951248]},"properties":{"osm_id":"node/12140162701","kategori":"kargo","ad":"Yurtiçi Kargo Yasemin DDN"}},{"type":"Feature","geometry":{"type":"Point","coordinates":[28.873358,40.997025]},"properties":{"osm_id":"node/12242089232","kategori":"kargo","ad":null}},{"type":"Feature","geometry":{"type":"Point","coordinates":[28.98191,41.05483]},"properties":{"osm_id":"node/12307331403","kategori":"kargo","ad":"PTT Ferikoy"}},{"type":"Feature","geometry":{"type":"Point","coordinates":[28.630104,40.990449]},"properties":{"osm_id":"node/12337895775","kategori":"kargo","ad":"Ptt Dağıtım Merkezi"}},{"type":"Feature","geometry":{"type":"Point","coordinates":[29.07441,41.005505]},"properties":{"osm_id":"node/12355342983","kategori":"kargo","ad":"PTT"}},{"type":"Feature","geometry":{"type":"Point","coordinates":[28.736451,41.189276]},"properties":{"osm_id":"node/12399639771","kategori":"kargo","ad":null}},{"type":"Feature","geometry":{"type":"Point","coordinates":[29.021382,41.017614]},"properties":{"osm_id":"node/12570682776","kategori":"kargo","ad":"Yurtiçi Kargo Üsküdar"}},{"type":"Feature","geometry":{"type":"Point","coordinates":[29.048921,40.993071]},"properties":{"osm_id":"node/12668660982","kategori":"kargo","ad":"pudoPOINT"}},{"type":"Feature","geometry":{"type":"Point","coordinates":[29.235381,40.986683]},"properties":{"osm_id":"node/12669721148","kategori":"kargo","ad":"PTT Sancaktepe Posta Dağıtım Müdürlüğü"}},{"type":"Feature","geometry":{"type":"Point","coordinates":[28.765927,41.201286]},"properties":{"osm_id":"node/12679684640","kategori":"kargo","ad":"PTT Mavigöl Şubesi"}},{"type":"Feature","geometry":{"type":"Point","coordinates":[28.71467,41.193942]},"properties":{"osm_id":"node/12684609754","kategori":"kargo","ad":"MNG Kargo Taşoluk Şubesi"}},{"type":"Feature","geometry":{"type":"Point","coordinates":[29.216868,40.909883]},"properties":{"osm_id":"node/12703912549","kategori":"kargo","ad":"MNG Kargo"}},{"type":"Feature","geometry":{"type":"Point","coordinates":[29.03875,40.984889]},"properties":{"osm_id":"node/12710248949","kategori":"kargo","ad":"Aras Kargo"}},{"type":"Feature","geometry":{"type":"Point","coordinates":[29.20435,40.915021]},"properties":{"osm_id":"node/12728317268","kategori":"kargo","ad":"Aras Kargo"}},{"type":"Feature","geometry":{"type":"Point","coordinates":[28.540816,41.018692]},"properties":{"osm_id":"node/12733625316","kategori":"kargo","ad":"MNG Kargo-Mimaroba"}},{"type":"Feature","geometry":{"type":"Point","coordinates":[29.212977,40.907199]},"properties":{"osm_id":"node/12735240100","kategori":"kargo","ad":"Trendyol Express"}},{"type":"Feature","geometry":{"type":"Point","coordinates":[29.08128,41.021549]},"properties":{"osm_id":"node/12736856917","kategori":"kargo","ad":"DHL e-Commerce Çamlıca Şubesi"}},{"type":"Feature","geometry":{"type":"Point","coordinates":[29.081549,41.020309]},"properties":{"osm_id":"node/12741653933","kategori":"kargo","ad":"Yurtiçi Kargo Çamlıca"}},{"type":"Feature","geometry":{"type":"Point","coordinates":[29.143654,40.995146]},"properties":{"osm_id":"node/12752616901","kategori":"kargo","ad":"Yurtiçi Kargo Ataşehir"}},{"type":"Feature","geometry":{"type":"Point","coordinates":[29.215375,40.908026]},"properties":{"osm_id":"node/12755425217","kategori":"kargo","ad":"Yurtiçi Kargo"}},{"type":"Feature","geometry":{"type":"Point","coordinates":[29.261011,40.87793]},"properties":{"osm_id":"node/12759204618","kategori":"kargo","ad":"Aras Kargo"}},{"type":"Feature","geometry":{"type":"Point","coordinates":[29.308155,40.914148]},"properties":{"osm_id":"node/12772310933","kategori":"kargo","ad":"Aras Kargo"}},{"type":"Feature","geometry":{"type":"Point","coordinates":[29.232722,40.885244]},"properties":{"osm_id":"node/12772576169","kategori":"kargo","ad":"Aras Kargo"}},{"type":"Feature","geometry":{"type":"Point","coordinates":[29.281119,40.908865]},"properties":{"osm_id":"node/12772903252","kategori":"kargo","ad":"Yurtiçi Kargo"}},{"type":"Feature","geometry":{"type":"Point","coordinates":[29.095256,41.030047]},"properties":{"osm_id":"node/12785481404","kategori":"kargo","ad":"Aras Kargo Santral Şubesi"}},{"type":"Feature","geometry":{"type":"Point","coordinates":[29.216734,40.910472]},"properties":{"osm_id":"node/12804758196","kategori":"kargo","ad":"Sürat Kargo"}},{"type":"Feature","geometry":{"type":"Point","coordinates":[29.07537,41.016154]},"properties":{"osm_id":"node/12832932030","kategori":"kargo","ad":"Ptt Çamlıca"}},{"type":"Feature","geometry":{"type":"Point","coordinates":[29.077338,41.018933]},"properties":{"osm_id":"node/12843600468","kategori":"kargo","ad":"Sürat Kargo Çamlıca"}},{"type":"Feature","geometry":{"type":"Point","coordinates":[28.460359,41.142382]},"properties":{"osm_id":"node/13005953473","kategori":"kargo","ad":null}},{"type":"Feature","geometry":{"type":"Point","coordinates":[29.061834,40.984774]},"properties":{"osm_id":"node/13026221901","kategori":"kargo","ad":"Yurtiçi Kargo Göztepe Şubesi"}},{"type":"Feature","geometry":{"type":"Point","coordinates":[28.628396,41.000535]},"properties":{"osm_id":"node/13090631273","kategori":"kargo","ad":null}},{"type":"Feature","geometry":{"type":"Point","coordinates":[29.212806,41.006185]},"properties":{"osm_id":"node/13093967016","kategori":"kargo","ad":"DHL"}},{"type":"Feature","geometry":{"type":"Point","coordinates":[29.033279,40.989395]},"properties":{"osm_id":"node/13133220956","kategori":"kargo","ad":"Yurtiçi Kargo"}},{"type":"Feature","geometry":{"type":"Point","coordinates":[29.021521,40.987667]},"properties":{"osm_id":"node/13165284902","kategori":"kargo","ad":null}},{"type":"Feature","geometry":{"type":"Point","coordinates":[29.13376,40.931612]},"properties":{"osm_id":"node/13202128001","kategori":"kargo","ad":"Aras Kargo"}},{"type":"Feature","geometry":{"type":"Point","coordinates":[29.144555,40.994097]},"properties":{"osm_id":"node/13233315765","kategori":"kargo","ad":"PTT Yenşehir"}},{"type":"Feature","geometry":{"type":"Point","coordinates":[29.112071,41.022756]},"properties":{"osm_id":"node/13248873601","kategori":"kargo","ad":"DHL eCommerce - Atakent Şubesi"}},{"type":"Feature","geometry":{"type":"Point","coordinates":[28.914809,41.057074]},"properties":{"osm_id":"node/13448172993","kategori":"kargo","ad":null}},{"type":"Feature","geometry":{"type":"Point","coordinates":[29.096627,41.024654]},"properties":{"osm_id":"node/13598164158","kategori":"kargo","ad":"Ptt Kargo Ümraniye"}},{"type":"Feature","geometry":{"type":"Point","coordinates":[29.098702,41.024693]},"properties":{"osm_id":"node/13598164159","kategori":"kargo","ad":"Ptt Ümraniye Müdürlüğü"}},{"type":"Feature","geometry":{"type":"Point","coordinates":[28.858254,41.10085]},"properties":{"osm_id":"node/13657858276","kategori":"kargo","ad":null}},{"type":"Feature","geometry":{"type":"Point","coordinates":[29.125118,40.992676]},"properties":{"osm_id":"node/13673609439","kategori":"kargo","ad":"DHL Express"}},{"type":"Feature","geometry":{"type":"Point","coordinates":[29.299568,40.914426]},"properties":{"osm_id":"node/13677009264","kategori":"kargo","ad":"DHL"}},{"type":"Feature","geometry":{"type":"Point","coordinates":[29.180708,40.897424]},"properties":{"osm_id":"node/13691298176","kategori":"kargo","ad":"Aras Kargo"}},{"type":"Feature","geometry":{"type":"Point","coordinates":[29.174951,40.900503]},"properties":{"osm_id":"node/13694924707","kategori":"kargo","ad":null}},{"type":"Feature","geometry":{"type":"Point","coordinates":[29.182117,40.892984]},"properties":{"osm_id":"node/13698675482","kategori":"kargo","ad":"DHL"}},{"type":"Feature","geometry":{"type":"Point","coordinates":[29.190672,40.894062]},"properties":{"osm_id":"node/13700593992","kategori":"kargo","ad":"Aras Kargo"}},{"type":"Feature","geometry":{"type":"Point","coordinates":[29.096254,41.028529]},"properties":{"osm_id":"node/13705520800","kategori":"kargo","ad":"Sürat Kargo Yamanevler Şubesi"}},{"type":"Feature","geometry":{"type":"Point","coordinates":[29.098374,41.027496]},"properties":{"osm_id":"node/13705555673","kategori":"kargo","ad":"Yurtiçi Kargo Yamanevler Şubesi"}},{"type":"Feature","geometry":{"type":"Point","coordinates":[29.183022,40.888501]},"properties":{"osm_id":"node/13707938846","kategori":"kargo","ad":null}},{"type":"Feature","geometry":{"type":"Point","coordinates":[29.185692,40.906799]},"properties":{"osm_id":"node/13727829095","kategori":"kargo","ad":null}},{"type":"Feature","geometry":{"type":"Point","coordinates":[29.284846,40.90766]},"properties":{"osm_id":"node/13733435764","kategori":"kargo","ad":null}},{"type":"Feature","geometry":{"type":"Point","coordinates":[28.947659,41.010679]},"properties":{"osm_id":"node/13772271806","kategori":"kargo","ad":"DHL"}},{"type":"Feature","geometry":{"type":"Point","coordinates":[29.203992,40.916973]},"properties":{"osm_id":"node/13849831418","kategori":"kargo","ad":null}},{"type":"Feature","geometry":{"type":"Point","coordinates":[28.722379,40.977569]},"properties":{"osm_id":"node/13869263892","kategori":"kargo","ad":"Yurtiçi Kargo"}},{"type":"Feature","geometry":{"type":"Point","coordinates":[28.943368,41.074972]},"properties":{"osm_id":"node/13897262385","kategori":"kargo","ad":"DHL eCommerce"}},{"type":"Feature","geometry":{"type":"Point","coordinates":[28.867436,41.09239]},"properties":{"osm_id":"node/13910125095","kategori":"kargo","ad":"PTT 50. Yıl Şubesi"}},{"type":"Feature","geometry":{"type":"Point","coordinates":[29.047616,40.997441]},"properties":{"osm_id":"node/13963865225","kategori":"kargo","ad":"Yurtiçi Kargo"}},{"type":"Feature","geometry":{"type":"Point","coordinates":[29.131101,41.01513]},"properties":{"osm_id":"node/14047358601","kategori":"kargo","ad":"Yurtiçi Kargo"}},{"type":"Feature","geometry":{"type":"Point","coordinates":[28.870604,40.982302]},"properties":{"osm_id":"node/14087627401","kategori":"kargo","ad":"Aras Kargo"}},{"type":"Feature","geometry":{"type":"Point","coordinates":[29.037998,40.995706]},"properties":{"osm_id":"node/14105231401","kategori":"kargo","ad":"Aras Kargo"}},{"type":"Feature","geometry":{"type":"Point","coordinates":[29.27279,40.899541]},"properties":{"osm_id":"node/14119886750","kategori":"kargo","ad":"Asset Worldwide Express"}},{"type":"Feature","geometry":{"type":"Point","coordinates":[29.276225,40.896827]},"properties":{"osm_id":"node/14121803176","kategori":"kargo","ad":"Trendyol Express"}},{"type":"Feature","geometry":{"type":"Point","coordinates":[29.089209,41.010569]},"properties":{"osm_id":"node/14128797901","kategori":"kargo","ad":"Aras Kargo ESENEVLER"}},{"type":"Feature","geometry":{"type":"Point","coordinates":[29.257257,40.908335]},"properties":{"osm_id":"node/14133242419","kategori":"kargo","ad":null}},{"type":"Feature","geometry":{"type":"Point","coordinates":[29.117542,41.010133]},"properties":{"osm_id":"node/14136640101","kategori":"kargo","ad":"DHL ECommarce Finanskent"}},{"type":"Feature","geometry":{"type":"Point","coordinates":[28.746796,41.075599]},"properties":{"osm_id":"node/14142904091","kategori":"kargo","ad":"HepsiJet"}},{"type":"Feature","geometry":{"type":"Point","coordinates":[29.25603,40.879561]},"properties":{"osm_id":"node/14144379524","kategori":"kargo","ad":null}},{"type":"Feature","geometry":{"type":"Point","coordinates":[29.023108,40.990338]},"properties":{"osm_id":"way/236495361","kategori":"kargo","ad":"Kadıköy PTT Başmüdürlüğü"}},{"type":"Feature","geometry":{"type":"Point","coordinates":[29.016749,41.075267]},"properties":{"osm_id":"way/254708969","kategori":"kargo","ad":"PTT Levent Şubesi"}},{"type":"Feature","geometry":{"type":"Point","coordinates":[28.684493,41.070647]},"properties":{"osm_id":"way/294876632","kategori":"kargo","ad":"PTT Bahçeşehir"}},{"type":"Feature","geometry":{"type":"Point","coordinates":[28.974071,41.014416]},"properties":{"osm_id":"way/331666330","kategori":"kargo","ad":"Büyük Postane"}},{"type":"Feature","geometry":{"type":"Point","coordinates":[29.025592,41.047748]},"properties":{"osm_id":"way/414817427","kategori":"kargo","ad":null}},{"type":"Feature","geometry":{"type":"Point","coordinates":[29.138764,40.93684]},"properties":{"osm_id":"way/461577562","kategori":"kargo","ad":"PTT - Maltepe PDM"}},{"type":"Feature","geometry":{"type":"Point","coordinates":[29.146987,40.939314]},"properties":{"osm_id":"way/461881016","kategori":"kargo","ad":"Yurtiçi Kargo Zümrütevler"}},{"type":"Feature","geometry":{"type":"Point","coordinates":[29.395417,40.877539]},"properties":{"osm_id":"way/490424507","kategori":"kargo","ad":"BOSB PTT"}},{"type":"Feature","geometry":{"type":"Point","coordinates":[29.18878,41.022753]},"properties":{"osm_id":"way/544276724","kategori":"kargo","ad":"Yurtiçi Kargo Çekmeköy Şubesi"}},{"type":"Feature","geometry":{"type":"Point","coordinates":[29.019593,40.996387]},"properties":{"osm_id":"way/547972010","kategori":"kargo","ad":"PTT Haydarpaşa Gar Şube Şefliği"}},{"type":"Feature","geometry":{"type":"Point","coordinates":[28.829915,41.064825]},"properties":{"osm_id":"way/569763380","kategori":"kargo","ad":"PTT"}},{"type":"Feature","geometry":{"type":"Point","coordinates":[29.027445,40.992241]},"properties":{"osm_id":"way/633191932","kategori":"kargo","ad":"Aras Kargo Rıhtım Şubesi"}},{"type":"Feature","geometry":{"type":"Point","coordinates":[28.988246,41.029568]},"properties":{"osm_id":"way/843015031","kategori":"kargo","ad":"PTT -MSGSÜ Şubesi"}},{"type":"Feature","geometry":{"type":"Point","coordinates":[29.094227,40.954485]},"properties":{"osm_id":"way/922879148","kategori":"kargo","ad":"PTT Bostancı Şubesi"}},{"type":"Feature","geometry":{"type":"Point","coordinates":[28.990231,41.179795]},"properties":{"osm_id":"way/939365766","kategori":"kargo","ad":"PTT"}},{"type":"Feature","geometry":{"type":"Point","coordinates":[28.687874,41.049865]},"properties":{"osm_id":"way/956544889","kategori":"kargo","ad":"PTT Esenyurt HGS Acentesi"}},{"type":"Feature","geometry":{"type":"Point","coordinates":[29.051307,40.985183]},"properties":{"osm_id":"way/1020362442","kategori":"kargo","ad":"PTT Marmara Üniversitesi Şubesi"}},{"type":"Feature","geometry":{"type":"Point","coordinates":[28.78567,41.00655]},"properties":{"osm_id":"way/1040063804","kategori":"kargo","ad":"DHL"}},{"type":"Feature","geometry":{"type":"Point","coordinates":[29.054193,40.907803]},"properties":{"osm_id":"way/1052168473","kategori":"kargo","ad":"PTT"}},{"type":"Feature","geometry":{"type":"Point","coordinates":[28.925574,41.037137]},"properties":{"osm_id":"way/1074515949","kategori":"kargo","ad":"PTT"}},{"type":"Feature","geometry":{"type":"Point","coordinates":[28.296707,41.475822]},"properties":{"osm_id":"way/1086660964","kategori":"kargo","ad":"PTT"}},{"type":"Feature","geometry":{"type":"Point","coordinates":[28.690113,41.013388]},"properties":{"osm_id":"way/1127320055","kategori":"kargo","ad":"Sürat Kargo Esenyurt Aktarma Merkezi"}},{"type":"Feature","geometry":{"type":"Point","coordinates":[28.690332,41.012115]},"properties":{"osm_id":"way/1127320056","kategori":"kargo","ad":"Yurtiçi Kargo Trakya Bölge Müdürlüğü"}},{"type":"Feature","geometry":{"type":"Point","coordinates":[29.036668,41.008301]},"properties":{"osm_id":"way/1321719348","kategori":"kargo","ad":"PTT Koşuyolu"}},{"type":"Feature","geometry":{"type":"Point","coordinates":[29.002554,41.056289]},"properties":{"osm_id":"way/1346314722","kategori":"kargo","ad":null}},{"type":"Feature","geometry":{"type":"Point","coordinates":[29.217655,41.024625]},"properties":{"osm_id":"way/1532668502","kategori":"kargo","ad":"Ptt Çekmeköy Dağıtım Merkezi"}}]}